{
"type": "FeatureCollection",
"name": "boxculvert",
"crs": { "type": "name", "properties": { "name": "urn:ogc:def:crs:OGC:1.3:CRS84" } },
"features": [
{ "type": "Feature", "properties": { }, "geometry": { "type": "LineString", "coordinates": [ [ 103.740079128166826, 16.163870725662324, 0.0 ], [ 103.74009271300632, 16.163860329346122, 0.0 ] ] } },
{ "type": "Feature", "properties": { }, "geometry": { "type": "LineString", "coordinates": [ [ 103.740091416619592, 16.163896600881127, 0.0 ], [ 103.740108590469745, 16.163893761770705, 0.0 ] ] } },
{ "type": "Feature", "properties": { }, "geometry": { "type": "LineString", "coordinates": [ [ 103.740100651737407, 16.163877045558529, 0.0 ], [ 103.74009271300632, 16.163860329346122, 0.0 ] ] } },
{ "type": "Feature", "properties": { }, "geometry": { "type": "LineString", "coordinates": [ [ 103.740100651737407, 16.163877045558529, 0.0 ], [ 103.740108590469745, 16.163893761770705, 0.0 ] ] } },
{ "type": "Feature", "properties": { }, "geometry": { "type": "LineString", "coordinates": [ [ 103.739798641385164, 16.163995141344, 0.0 ], [ 103.739781627671491, 16.163998317645476, 0.0 ] ] } },
{ "type": "Feature", "properties": { }, "geometry": { "type": "LineString", "coordinates": [ [ 103.739810929806652, 16.164021016576651, 0.0 ], [ 103.739797505090095, 16.164031750089904, 0.0 ] ] } },
{ "type": "Feature", "properties": { }, "geometry": { "type": "LineString", "coordinates": [ [ 103.739789566380168, 16.164015033867802, 0.0 ], [ 103.739781627671491, 16.163998317645476, 0.0 ] ] } },
{ "type": "Feature", "properties": { }, "geometry": { "type": "LineString", "coordinates": [ [ 103.739789566380168, 16.164015033867802, 0.0 ], [ 103.739797505090095, 16.164031750089904, 0.0 ] ] } },
{ "type": "Feature", "properties": { }, "geometry": { "type": "LineString", "coordinates": [ [ 103.739812629727723, 16.164020262543328, 0.0 ], [ 103.739800341306037, 16.163994387310762, 0.0 ] ] } },
{ "type": "Feature", "properties": { }, "geometry": { "type": "LineString", "coordinates": [ [ 103.739810929806652, 16.164021016576651, 0.0 ], [ 103.739798641385164, 16.163995141344, 0.0 ] ] } },
{ "type": "Feature", "properties": { }, "geometry": { "type": "LineString", "coordinates": [ [ 103.740091416619592, 16.163896600881127, 0.0 ], [ 103.739810929806652, 16.164021016576651, 0.0 ] ] } },
{ "type": "Feature", "properties": { }, "geometry": { "type": "LineString", "coordinates": [ [ 103.740077428247929, 16.163871479697953, 0.0 ], [ 103.740089716700496, 16.163897354916831, 0.0 ] ] } },
{ "type": "Feature", "properties": { }, "geometry": { "type": "LineString", "coordinates": [ [ 103.740079128166826, 16.163870725662324, 0.0 ], [ 103.740091416619592, 16.163896600881127, 0.0 ] ] } },
{ "type": "Feature", "properties": { }, "geometry": { "type": "LineString", "coordinates": [ [ 103.739798641385164, 16.163995141344, 0.0 ], [ 103.740079128166826, 16.163870725662324, 0.0 ] ] } },
{ "type": "Feature", "properties": { }, "geometry": { "type": "LineString", "coordinates": [ [ 103.70152088891075, 16.128227872062169, 0.0 ], [ 103.701528456225091, 16.128212807474728, 0.0 ] ] } },
{ "type": "Feature", "properties": { }, "geometry": { "type": "LineString", "coordinates": [ [ 103.701543576724049, 16.128246027139994, 0.0 ], [ 103.701557770320051, 16.128236264986469, 0.0 ] ] } },
{ "type": "Feature", "properties": { }, "geometry": { "type": "LineString", "coordinates": [ [ 103.701543113271697, 16.128224536231052, 0.0 ], [ 103.701528456225091, 16.128212807474728, 0.0 ] ] } },
{ "type": "Feature", "properties": { }, "geometry": { "type": "LineString", "coordinates": [ [ 103.701543113271697, 16.128224536231052, 0.0 ], [ 103.701557770320051, 16.128236264986469, 0.0 ] ] } },
{ "type": "Feature", "properties": { }, "geometry": { "type": "LineString", "coordinates": [ [ 103.701336049192051, 16.128443695200545, -0.0 ], [ 103.701322151247993, 16.12845369394222, -0.0 ] ] } },
{ "type": "Feature", "properties": { }, "geometry": { "type": "LineString", "coordinates": [ [ 103.701358737009997, 16.128461850298248, -0.0 ], [ 103.70135146534966, 16.128477151482624, -0.0 ] ] } },
{ "type": "Feature", "properties": { }, "geometry": { "type": "LineString", "coordinates": [ [ 103.701336808297967, 16.128465422712868, -0.0 ], [ 103.701322151247993, 16.12845369394222, -0.0 ] ] } },
{ "type": "Feature", "properties": { }, "geometry": { "type": "LineString", "coordinates": [ [ 103.701336808297967, 16.128465422712868, -0.0 ], [ 103.70135146534966, 16.128477151482624, -0.0 ] ] } },
{ "type": "Feature", "properties": { }, "geometry": { "type": "LineString", "coordinates": [ [ 103.70135992952558, 16.128460457891403, -0.0 ], [ 103.701337241707662, 16.128442302793829, -0.0 ] ] } },
{ "type": "Feature", "properties": { }, "geometry": { "type": "LineString", "coordinates": [ [ 103.701358737009997, 16.128461850298248, -0.0 ], [ 103.701336049192051, 16.128443695200545, -0.0 ] ] } },
{ "type": "Feature", "properties": { }, "geometry": { "type": "LineString", "coordinates": [ [ 103.701543576724049, 16.128246027139994, 0.0 ], [ 103.701358737009997, 16.128461850298248, 0.0 ] ] } },
{ "type": "Feature", "properties": { }, "geometry": { "type": "LineString", "coordinates": [ [ 103.701543576724049, 16.128246027139994, 0.0 ], [ 103.701542384211066, 16.128247419548089, 0.0 ] ] } },
{ "type": "Feature", "properties": { }, "geometry": { "type": "LineString", "coordinates": [ [ 103.701519696397739, 16.128229264470132, 0.0 ], [ 103.701542384211066, 16.128247419548089, 0.0 ] ] } },
{ "type": "Feature", "properties": { }, "geometry": { "type": "LineString", "coordinates": [ [ 103.70152088891075, 16.128227872062169, 0.0 ], [ 103.701543576724049, 16.128246027139994, 0.0 ] ] } },
{ "type": "Feature", "properties": { }, "geometry": { "type": "LineString", "coordinates": [ [ 103.701519696397739, 16.128229264470132, 0.0 ], [ 103.70152088891075, 16.128227872062169, 0.0 ] ] } },
{ "type": "Feature", "properties": { }, "geometry": { "type": "LineString", "coordinates": [ [ 103.701336049192051, 16.128443695200545, 0.0 ], [ 103.70152088891075, 16.128227872062169, 0.0 ] ] } },
{ "type": "Feature", "properties": { }, "geometry": { "type": "LineString", "coordinates": [ [ 103.676928199270307, 16.116822465962535, 0.0 ], [ 103.676921146836008, 16.116837811099877, 0.0 ] ] } },
{ "type": "Feature", "properties": { }, "geometry": { "type": "LineString", "coordinates": [ [ 103.676955853946168, 16.116826996517549, 0.0 ], [ 103.676957282281876, 16.116843731025781, 0.0 ] ] } },
{ "type": "Feature", "properties": { }, "geometry": { "type": "LineString", "coordinates": [ [ 103.676921146836008, 16.116837811099877, -0.0 ], [ 103.676957282281876, 16.116843731025781, -0.0 ] ] } },
{ "type": "Feature", "properties": { }, "geometry": { "type": "LineString", "coordinates": [ [ 103.676956166395954, 16.116825214314954, 0.0 ], [ 103.676955853946168, 16.116826996517549, 0.0 ], [ 103.676928199270307, 16.116822465962535, 0.0 ], [ 103.67692851172032, 16.11682068375999, 0.0 ], [ 103.676956166395954, 16.116825214314954, 0.0 ] ] } },
{ "type": "Feature", "properties": { }, "geometry": { "type": "LineString", "coordinates": [ [ 103.67695631974469, 16.116662067728981, 0.0 ], [ 103.676954891409125, 16.116645333220571, 0.0 ] ] } },
{ "type": "Feature", "properties": { }, "geometry": { "type": "LineString", "coordinates": [ [ 103.676983974399519, 16.116666598278819, 0.0 ], [ 103.676991026822037, 16.116651253138343, 0.0 ] ] } },
{ "type": "Feature", "properties": { }, "geometry": { "type": "LineString", "coordinates": [ [ 103.676954891409125, 16.116645333220571, -0.0 ], [ 103.676991026822037, 16.116651253138343, -0.0 ] ] } },
{ "type": "Feature", "properties": { }, "geometry": { "type": "LineString", "coordinates": [ [ 103.676983661950345, 16.116668380481524, 0.0 ], [ 103.676983974399519, 16.116666598278819, 0.0 ], [ 103.67695631974469, 16.116662067728981, 0.0 ], [ 103.67695600729526, 16.11666384993163, 0.0 ], [ 103.676983661950345, 16.116668380481524, 0.0 ] ] } },
{ "type": "Feature", "properties": { }, "geometry": { "type": "LineString", "coordinates": [ [ 103.67692851172032, 16.11682068375999, 0.0 ], [ 103.67695600729526, 16.11666384993163, 0.0 ] ] } },
{ "type": "Feature", "properties": { }, "geometry": { "type": "LineString", "coordinates": [ [ 103.676956166395954, 16.116825214314954, 0.0 ], [ 103.676983661950345, 16.116668380481524, 0.0 ] ] } },
{ "type": "Feature", "properties": { }, "geometry": { "type": "LineString", "coordinates": [ [ 103.670707498745003, 16.115794091361899, 0.0 ], [ 103.670700445891214, 16.115809436262001, 0.0 ] ] } },
{ "type": "Feature", "properties": { }, "geometry": { "type": "LineString", "coordinates": [ [ 103.670735153074247, 16.115798622702197, 0.0 ], [ 103.670736580884167, 16.115815357214007, 0.0 ] ] } },
{ "type": "Feature", "properties": { }, "geometry": { "type": "LineString", "coordinates": [ [ 103.670700445891214, 16.115809436262001, -0.0 ], [ 103.670736580884167, 16.115815357214007, -0.0 ] ] } },
{ "type": "Feature", "properties": { }, "geometry": { "type": "LineString", "coordinates": [ [ 103.670735465576541, 16.11579684051258, 0.0 ], [ 103.670735153074247, 16.115798622702197, 0.0 ], [ 103.670707498745003, 16.115794091361899, 0.0 ], [ 103.670707811247539, 16.115792309172335, 0.0 ], [ 103.670735465576541, 16.11579684051258, 0.0 ] ] } },
{ "type": "Feature", "properties": { }, "geometry": { "type": "LineString", "coordinates": [ [ 103.670732498926199, 16.115651516193232, 0.0 ], [ 103.670731071116691, 16.115634781681255, 0.0 ] ] } },
{ "type": "Feature", "properties": { }, "geometry": { "type": "LineString", "coordinates": [ [ 103.670760153236756, 16.115656047528905, 0.0 ], [ 103.670767206079731, 16.115640702625861, 0.0 ] ] } },
{ "type": "Feature", "properties": { }, "geometry": { "type": "LineString", "coordinates": [ [ 103.670731071116691, 16.115634781681255, -0.0 ], [ 103.670767206079731, 16.115640702625861, -0.0 ] ] } },
{ "type": "Feature", "properties": { }, "geometry": { "type": "LineString", "coordinates": [ [ 103.670746013579404, 16.115655564051188, 0.0 ], [ 103.670746326081286, 16.1156537818615, 0.0 ] ] } },
{ "type": "Feature", "properties": { }, "geometry": { "type": "LineString", "coordinates": [ [ 103.670729290678281, 16.115669812734517, 0.0 ], [ 103.670729143802319, 16.115670650363651, 0.0 ] ] } },
{ "type": "Feature", "properties": { }, "geometry": { "type": "LineString", "coordinates": [ [ 103.670756944991226, 16.115674344070786, 0.0 ], [ 103.670756798115377, 16.115675181699949, 0.0 ] ] } },
{ "type": "Feature", "properties": { }, "geometry": { "type": "LineString", "coordinates": [ [ 103.670759840735002, 16.115657829718618, 0.0 ], [ 103.670760153236756, 16.115656047528905, 0.0 ], [ 103.670732498926199, 16.115651516193232, 0.0 ], [ 103.670732186424203, 16.115653298382885, 0.0 ], [ 103.670759840735002, 16.115657829718618, 0.0 ] ] } },
{ "type": "Feature", "properties": { }, "geometry": { "type": "LineString", "coordinates": [ [ 103.670745091769049, 16.115655413006664, 0.0 ], [ 103.670745404270932, 16.115653630816979, 0.0 ] ] } },
{ "type": "Feature", "properties": { }, "geometry": { "type": "LineString", "coordinates": [ [ 103.670734030044869, 16.115653600472044, 0.0 ], [ 103.670734342546851, 16.115651818282384, 0.0 ] ] } },
{ "type": "Feature", "properties": { }, "geometry": { "type": "LineString", "coordinates": [ [ 103.670732186424203, 16.115653298382885, 0.0 ], [ 103.670732498926199, 16.115651516193232, 0.0 ] ] } },
{ "type": "Feature", "properties": { }, "geometry": { "type": "LineString", "coordinates": [ [ 103.670707498745003, 16.115794091361899, 0.0 ], [ 103.670732498926199, 16.115651516193232, 0.0 ] ] } },
{ "type": "Feature", "properties": { }, "geometry": { "type": "LineString", "coordinates": [ [ 103.670746935389772, 16.115655715095709, 0.0 ], [ 103.67074724789164, 16.115653932906028, 0.0 ] ] } },
{ "type": "Feature", "properties": { }, "geometry": { "type": "LineString", "coordinates": [ [ 103.670757997114222, 16.115657527629676, 0.0 ], [ 103.670758309616005, 16.11565574543997, 0.0 ] ] } },
{ "type": "Feature", "properties": { }, "geometry": { "type": "LineString", "coordinates": [ [ 103.670735153074247, 16.115798622702197, 0.0 ], [ 103.670760153236756, 16.115656047528905, 0.0 ] ] } },
{ "type": "Feature", "properties": { }, "geometry": { "type": "LineString", "coordinates": [ [ 103.655634495909908, 16.112645703727431, 0.0 ], [ 103.655593724192599, 16.112629126337993, 0.0 ] ] } },
{ "type": "Feature", "properties": { }, "geometry": { "type": "LineString", "coordinates": [ [ 103.655595053828932, 16.112612018140009, 0.0 ], [ 103.655593724192599, 16.112629126337993, 0.0 ] ] } },
{ "type": "Feature", "properties": { }, "geometry": { "type": "LineString", "coordinates": [ [ 103.655626400618445, 16.112624763445698, 0.0 ], [ 103.655634495909908, 16.112645703727431, 0.0 ] ] } },
{ "type": "Feature", "properties": { }, "geometry": { "type": "LineString", "coordinates": [ [ 103.655578418269158, 16.112229697569834, 0.0 ], [ 103.655537646639587, 16.11221312017587, 0.0 ] ] } },
{ "type": "Feature", "properties": { }, "geometry": { "type": "LineString", "coordinates": [ [ 103.65554574190827, 16.11223406045977, 0.0 ], [ 103.655537646639587, 16.11221312017587, 0.0 ] ] } },
{ "type": "Feature", "properties": { }, "geometry": { "type": "LineString", "coordinates": [ [ 103.655577088636619, 16.112246805768393, 0.0 ], [ 103.655578418269158, 16.112229697569834, 0.0 ] ] } },
{ "type": "Feature", "properties": { }, "geometry": { "type": "LineString", "coordinates": [ [ 103.655626166634832, 16.112622970052229, 0.0 ], [ 103.655594819845604, 16.112610224746529, 0.0 ] ] } },
{ "type": "Feature", "properties": { }, "geometry": { "type": "LineString", "coordinates": [ [ 103.655577322619621, 16.112248599161905, 0.0 ], [ 103.655545975890973, 16.112235853853289, 0.0 ] ] } },
{ "type": "Feature", "properties": { }, "geometry": { "type": "LineString", "coordinates": [ [ 103.655626400618445, 16.112624763445698, 0.0 ], [ 103.655595053828932, 16.112612018140009, 0.0 ] ] } },
{ "type": "Feature", "properties": { }, "geometry": { "type": "LineString", "coordinates": [ [ 103.65554574190827, 16.11223406045977, 0.0 ], [ 103.655595053828932, 16.112612018140009, 0.0 ] ] } },
{ "type": "Feature", "properties": { }, "geometry": { "type": "LineString", "coordinates": [ [ 103.655577088636619, 16.112246805768393, 0.0 ], [ 103.655626400618445, 16.112624763445698, 0.0 ] ] } },
{ "type": "Feature", "properties": { }, "geometry": { "type": "LineString", "coordinates": [ [ 103.655577088636619, 16.112246805768393, 0.0 ], [ 103.65554574190827, 16.11223406045977, 0.0 ] ] } },
{ "type": "Feature", "properties": { }, "geometry": { "type": "LineString", "coordinates": [ [ 103.631503462467251, 16.097963558083677, 0.0 ], [ 103.631491499410103, 16.097975731047136, 0.0 ] ] } },
{ "type": "Feature", "properties": { }, "geometry": { "type": "LineString", "coordinates": [ [ 103.631527944650401, 16.097976785254442, 0.0 ], [ 103.631523489464115, 16.097993014551594, 0.0 ] ] } },
{ "type": "Feature", "properties": { }, "geometry": { "type": "LineString", "coordinates": [ [ 103.631491499410103, 16.097975731047136, -0.0 ], [ 103.631523489464115, 16.097993014551594, -0.0 ] ] } },
{ "type": "Feature", "properties": { }, "geometry": { "type": "LineString", "coordinates": [ [ 103.631528856774921, 16.097975207350963, 0.0 ], [ 103.631527944650401, 16.097976785254442, 0.0 ], [ 103.631503462467251, 16.097963558083677, 0.0 ], [ 103.631504374591898, 16.097961980180308, 0.0 ], [ 103.631528856774921, 16.097975207350963, 0.0 ] ] } },
{ "type": "Feature", "properties": { }, "geometry": { "type": "LineString", "coordinates": [ [ 103.631590114241376, 16.097813657240792, 0.0 ], [ 103.631594569417146, 16.097797427941245, 0.0 ] ] } },
{ "type": "Feature", "properties": { }, "geometry": { "type": "LineString", "coordinates": [ [ 103.631614596413527, 16.097826884400831, 0.0 ], [ 103.631626559454062, 16.097814711429042, 0.0 ] ] } },
{ "type": "Feature", "properties": { }, "geometry": { "type": "LineString", "coordinates": [ [ 103.631594569417146, 16.097797427941245, -0.0 ], [ 103.631626559454062, 16.097814711429042, -0.0 ] ] } },
{ "type": "Feature", "properties": { }, "geometry": { "type": "LineString", "coordinates": [ [ 103.631613684290414, 16.0978284623048, 0.0 ], [ 103.631614596413527, 16.097826884400831, 0.0 ], [ 103.631590114241376, 16.097813657240792, 0.0 ], [ 103.63158920211815, 16.097815235144644, 0.0 ], [ 103.631613684290414, 16.0978284623048, 0.0 ] ] } },
{ "type": "Feature", "properties": { }, "geometry": { "type": "LineString", "coordinates": [ [ 103.631504374591898, 16.097961980180308, 0.0 ], [ 103.63158920211815, 16.097815235144644, 0.0 ] ] } },
{ "type": "Feature", "properties": { }, "geometry": { "type": "LineString", "coordinates": [ [ 103.631528856774921, 16.097975207350963, 0.0 ], [ 103.631613684290414, 16.0978284623048, 0.0 ] ] } },
{ "type": "Feature", "properties": { }, "geometry": { "type": "LineString", "coordinates": [ [ 103.623796711359418, 16.094722682213803, 0.0 ], [ 103.623796937196715, 16.094705937539835, 0.0 ] ] } },
{ "type": "Feature", "properties": { }, "geometry": { "type": "LineString", "coordinates": [ [ 103.623825225158001, 16.094729794753846, 0.0 ], [ 103.623833778832321, 16.094715127392202, 0.0 ] ] } },
{ "type": "Feature", "properties": { }, "geometry": { "type": "LineString", "coordinates": [ [ 103.623815358014028, 16.094710532466777, 0.0 ], [ 103.623796937196715, 16.094705937539835, 0.0 ] ] } },
{ "type": "Feature", "properties": { }, "geometry": { "type": "LineString", "coordinates": [ [ 103.623815358014028, 16.094710532466777, 0.0 ], [ 103.623833778832321, 16.094715127392202, 0.0 ] ] } },
{ "type": "Feature", "properties": { }, "geometry": { "type": "LineString", "coordinates": [ [ 103.623715434753308, 16.095027227886153, -0.0 ], [ 103.623707252659855, 16.095041987934785, -0.0 ] ] } },
{ "type": "Feature", "properties": { }, "geometry": { "type": "LineString", "coordinates": [ [ 103.623743948590686, 16.095034340439998, -0.0 ], [ 103.623744094350755, 16.095051177806837, -0.0 ] ] } },
{ "type": "Feature", "properties": { }, "geometry": { "type": "LineString", "coordinates": [ [ 103.623725673504822, 16.095046582871571, -0.0 ], [ 103.623707252659855, 16.095041987934785, -0.0 ] ] } },
{ "type": "Feature", "properties": { }, "geometry": { "type": "LineString", "coordinates": [ [ 103.623725673504822, 16.095046582871571, -0.0 ], [ 103.623744094350755, 16.095051177806837, -0.0 ] ] } },
{ "type": "Feature", "properties": { }, "geometry": { "type": "LineString", "coordinates": [ [ 103.623744415698198, 16.095032590177603, -0.0 ], [ 103.623715901861047, 16.095025477623839, -0.0 ] ] } },
{ "type": "Feature", "properties": { }, "geometry": { "type": "LineString", "coordinates": [ [ 103.623743948590686, 16.095034340439998, -0.0 ], [ 103.623715434753308, 16.095027227886153, -0.0 ] ] } },
{ "type": "Feature", "properties": { }, "geometry": { "type": "LineString", "coordinates": [ [ 103.623825225158001, 16.094729794753846, 0.0 ], [ 103.623743948590686, 16.095034340439998, 0.0 ] ] } },
{ "type": "Feature", "properties": { }, "geometry": { "type": "LineString", "coordinates": [ [ 103.623796244253299, 16.094724432476458, 0.0 ], [ 103.623824758052109, 16.094731545016572, 0.0 ] ] } },
{ "type": "Feature", "properties": { }, "geometry": { "type": "LineString", "coordinates": [ [ 103.623796711359418, 16.094722682213803, 0.0 ], [ 103.623825225158001, 16.094729794753846, 0.0 ] ] } },
{ "type": "Feature", "properties": { }, "geometry": { "type": "LineString", "coordinates": [ [ 103.623715434753308, 16.095027227886153, 0.0 ], [ 103.623796711359418, 16.094722682213803, 0.0 ] ] } },
{ "type": "Feature", "properties": { }, "geometry": { "type": "LineString", "coordinates": [ [ 103.612618050745624, 16.093879291626862, 0.0 ], [ 103.612612251502867, 16.093863464335406, 0.0 ] ] } },
{ "type": "Feature", "properties": { }, "geometry": { "type": "LineString", "coordinates": [ [ 103.612645981710244, 16.09387684807972, 0.0 ], [ 103.612648747960307, 16.093860271433826, 0.0 ] ] } },
{ "type": "Feature", "properties": { }, "geometry": { "type": "LineString", "coordinates": [ [ 103.612612251502867, 16.093863464335406, -0.0 ], [ 103.612648747960307, 16.093860271433826, -0.0 ] ] } },
{ "type": "Feature", "properties": { }, "geometry": { "type": "LineString", "coordinates": [ [ 103.612646150209969, 16.093878648298425, 0.0 ], [ 103.612645981710244, 16.09387684807972, 0.0 ], [ 103.612618050745624, 16.093879291626862, 0.0 ], [ 103.612618219245107, 16.093881091845567, 0.0 ], [ 103.612646150209969, 16.093878648298425, 0.0 ] ] } },
{ "type": "Feature", "properties": { }, "geometry": { "type": "LineString", "coordinates": [ [ 103.612641640688096, 16.094131322243783, 0.0 ], [ 103.612638874431809, 16.094147898888831, 0.0 ] ] } },
{ "type": "Feature", "properties": { }, "geometry": { "type": "LineString", "coordinates": [ [ 103.612669571688187, 16.094128878696349, 0.0 ], [ 103.612675370941574, 16.094144705986835, 0.0 ] ] } },
{ "type": "Feature", "properties": { }, "geometry": { "type": "LineString", "coordinates": [ [ 103.612638874431809, 16.094147898888831, -0.0 ], [ 103.612675370941574, 16.094144705986835, -0.0 ] ] } },
{ "type": "Feature", "properties": { }, "geometry": { "type": "LineString", "coordinates": [ [ 103.612669403188235, 16.094127078477676, 0.0 ], [ 103.612669571688187, 16.094128878696349, 0.0 ], [ 103.612641640688096, 16.094131322243783, 0.0 ], [ 103.6126414721884, 16.094129522025099, 0.0 ], [ 103.612669403188235, 16.094127078477676, 0.0 ] ] } },
{ "type": "Feature", "properties": { }, "geometry": { "type": "LineString", "coordinates": [ [ 103.6126414721884, 16.094129522025099, 0.0 ], [ 103.612618219245107, 16.093881091845567, 0.0 ] ] } },
{ "type": "Feature", "properties": { }, "geometry": { "type": "LineString", "coordinates": [ [ 103.612669403188235, 16.094127078477676, 0.0 ], [ 103.612646150209969, 16.093878648298425, 0.0 ] ] } },
{ "type": "Feature", "properties": { }, "geometry": { "type": "LineString", "coordinates": [ [ 103.604973780994086, 16.094906327016737, 0.0 ], [ 103.604971408863662, 16.094922960607303, 0.0 ] ] } },
{ "type": "Feature", "properties": { }, "geometry": { "type": "LineString", "coordinates": [ [ 103.605001646674751, 16.09490326456125, 0.0 ], [ 103.605007820022692, 16.094918958998722, 0.0 ] ] } },
{ "type": "Feature", "properties": { }, "geometry": { "type": "LineString", "coordinates": [ [ 103.604971408863662, 16.094922960607303, -0.0 ], [ 103.605007820022692, 16.094918958998722, -0.0 ] ] } },
{ "type": "Feature", "properties": { }, "geometry": { "type": "LineString", "coordinates": [ [ 103.605001435495879, 16.094901468559666, 0.0 ], [ 103.605001646674751, 16.09490326456125, 0.0 ], [ 103.604973780994086, 16.094906327016737, 0.0 ], [ 103.604973569815471, 16.094904531015139, 0.0 ], [ 103.605001435495879, 16.094901468559666, 0.0 ] ] } },
{ "type": "Feature", "properties": { }, "geometry": { "type": "LineString", "coordinates": [ [ 103.604957942604571, 16.094771626896318, 0.0 ], [ 103.604951769264247, 16.094755932457872, 0.0 ] ] } },
{ "type": "Feature", "properties": { }, "geometry": { "type": "LineString", "coordinates": [ [ 103.604985808266335, 16.094768564441392, 0.0 ], [ 103.604988180392667, 16.094751930850201, 0.0 ] ] } },
{ "type": "Feature", "properties": { }, "geometry": { "type": "LineString", "coordinates": [ [ 103.604951769264247, 16.094755932457872, -0.0 ], [ 103.604988180392667, 16.094751930850201, -0.0 ] ] } },
{ "type": "Feature", "properties": { }, "geometry": { "type": "LineString", "coordinates": [ [ 103.604959582685368, 16.094785575231704, 0.0 ], [ 103.604959681939235, 16.094786419352456, 0.0 ] ] } },
{ "type": "Feature", "properties": { }, "geometry": { "type": "LineString", "coordinates": [ [ 103.604987448349092, 16.094782512776728, 0.0 ], [ 103.604987547603088, 16.094783356897473, 0.0 ] ] } },
{ "type": "Feature", "properties": { }, "geometry": { "type": "LineString", "coordinates": [ [ 103.604986019445022, 16.094770360443, 0.0 ], [ 103.604985808266335, 16.094768564441392, 0.0 ], [ 103.604957942604571, 16.094771626896318, 0.0 ], [ 103.604958153783002, 16.09477342289793, 0.0 ], [ 103.604986019445022, 16.094770360443, 0.0 ] ] } },
{ "type": "Feature", "properties": { }, "geometry": { "type": "LineString", "coordinates": [ [ 103.604973569815471, 16.094904531015139, 0.0 ], [ 103.604958153783002, 16.09477342289793, 0.0 ] ] } },
{ "type": "Feature", "properties": { }, "geometry": { "type": "LineString", "coordinates": [ [ 103.605001435495879, 16.094901468559666, 0.0 ], [ 103.604986019445022, 16.094770360443, 0.0 ] ] } },
{ "type": "Feature", "properties": { }, "geometry": { "type": "LineString", "coordinates": [ [ 103.596619927093954, 16.095628685915546, 0.0 ], [ 103.596590667917312, 16.095631899758164, 0.0 ], [ 103.596584304901413, 16.095616225951229, 0.0 ], [ 103.596603207256976, 16.095614149707796, 0.0 ], [ 103.596622109612284, 16.095612073462654, 0.0 ], [ 103.596619927093954, 16.095628685915546, 0.0 ] ] } },
{ "type": "Feature", "properties": { }, "geometry": { "type": "LineString", "coordinates": [ [ 103.596649476311939, 16.095880127027478, 0.0 ], [ 103.596655458021274, 16.095895842717372, 0.0 ] ] } },
{ "type": "Feature", "properties": { }, "geometry": { "type": "LineString", "coordinates": [ [ 103.596620217098248, 16.095883340871183, 0.0 ], [ 103.596617653256374, 16.095899995207539, 0.0 ] ] } },
{ "type": "Feature", "properties": { }, "geometry": { "type": "LineString", "coordinates": [ [ 103.596636555638952, 16.095897918963303, 0.0 ], [ 103.596655458021274, 16.095895842717372, 0.0 ] ] } },
{ "type": "Feature", "properties": { }, "geometry": { "type": "LineString", "coordinates": [ [ 103.596636555638952, 16.095897918963303, 0.0 ], [ 103.596617653256374, 16.095899995207539, 0.0 ] ] } },
{ "type": "Feature", "properties": { }, "geometry": { "type": "LineString", "coordinates": [ [ 103.596590878982738, 16.095633695766125, 0.0 ], [ 103.596620138159636, 16.095630481923504, 0.0 ] ] } },
{ "type": "Feature", "properties": { }, "geometry": { "type": "LineString", "coordinates": [ [ 103.596620217098248, 16.095883340871183, 0.0 ], [ 103.596590667917312, 16.095631899758164, 0.0 ] ] } },
{ "type": "Feature", "properties": { }, "geometry": { "type": "LineString", "coordinates": [ [ 103.596649265245929, 16.095878331019556, 0.0 ], [ 103.596620006032509, 16.095881544863239, 0.0 ] ] } },
{ "type": "Feature", "properties": { }, "geometry": { "type": "LineString", "coordinates": [ [ 103.596649476311939, 16.095880127027478, 0.0 ], [ 103.596620217098248, 16.095883340871183, 0.0 ] ] } },
{ "type": "Feature", "properties": { }, "geometry": { "type": "LineString", "coordinates": [ [ 103.596619927093954, 16.095628685915546, 0.0 ], [ 103.596649476311939, 16.095880127027478, 0.0 ] ] } },
{ "type": "Feature", "properties": { }, "geometry": { "type": "LineString", "coordinates": [ [ 103.591804910446342, 16.096139418385931, 0.0 ], [ 103.591798928772704, 16.096123702715513, 0.0 ] ] } },
{ "type": "Feature", "properties": { }, "geometry": { "type": "LineString", "coordinates": [ [ 103.59183416964737, 16.096136204598533, 0.0 ], [ 103.591836733515109, 16.096119550298205, 0.0 ] ] } },
{ "type": "Feature", "properties": { }, "geometry": { "type": "LineString", "coordinates": [ [ 103.591817831144041, 16.09612162650771, 0.0 ], [ 103.591798928772704, 16.096123702715513, 0.0 ] ] } },
{ "type": "Feature", "properties": { }, "geometry": { "type": "LineString", "coordinates": [ [ 103.591817831144041, 16.09612162650771, 0.0 ], [ 103.591836733515109, 16.096119550298205, 0.0 ] ] } },
{ "type": "Feature", "properties": { }, "geometry": { "type": "LineString", "coordinates": [ [ 103.591838680449882, 16.096426779153802, -0.0 ], [ 103.591836497895088, 16.096443391569963, -0.0 ] ] } },
{ "type": "Feature", "properties": { }, "geometry": { "type": "LineString", "coordinates": [ [ 103.591867939693273, 16.096423565365175, -0.0 ], [ 103.591874302698358, 16.096439239150882, -0.0 ] ] } },
{ "type": "Feature", "properties": { }, "geometry": { "type": "LineString", "coordinates": [ [ 103.591855400296851, 16.096441315361279, -0.0 ], [ 103.591836497895088, 16.096443391569963, -0.0 ] ] } },
{ "type": "Feature", "properties": { }, "geometry": { "type": "LineString", "coordinates": [ [ 103.591855400296851, 16.096441315361279, -0.0 ], [ 103.591874302698358, 16.096439239150882, -0.0 ] ] } },
{ "type": "Feature", "properties": { }, "geometry": { "type": "LineString", "coordinates": [ [ 103.591867728630291, 16.09642176936039, -0.0 ], [ 103.591838469387156, 16.096424983149014, -0.0 ] ] } },
{ "type": "Feature", "properties": { }, "geometry": { "type": "LineString", "coordinates": [ [ 103.591867939693273, 16.096423565365175, -0.0 ], [ 103.591838680449882, 16.096426779153802, -0.0 ] ] } },
{ "type": "Feature", "properties": { }, "geometry": { "type": "LineString", "coordinates": [ [ 103.59183416964737, 16.096136204598533, 0.0 ], [ 103.591867939693273, 16.096423565365175, 0.0 ] ] } },
{ "type": "Feature", "properties": { }, "geometry": { "type": "LineString", "coordinates": [ [ 103.591804910446342, 16.096139418385931, 0.0 ], [ 103.59183416964737, 16.096136204598533, 0.0 ] ] } },
{ "type": "Feature", "properties": { }, "geometry": { "type": "LineString", "coordinates": [ [ 103.591838680449882, 16.096426779153802, 0.0 ], [ 103.591804910446342, 16.096139418385931, 0.0 ] ] } },
{ "type": "Feature", "properties": { }, "geometry": { "type": "LineString", "coordinates": [ [ 103.568980151701112, 16.098858906830003, 0.0 ], [ 103.56897777653127, 16.098875539771527, 0.0 ], [ 103.569014188614602, 16.098871544414379, 0.0 ], [ 103.569008018089136, 16.09885584915877, 0.0 ] ] } },
{ "type": "Feature", "properties": { }, "geometry": { "type": "LineString", "coordinates": [ [ 103.569007807235934, 16.098854053147793, 0.0 ], [ 103.569008018089136, 16.09885584915877, 0.0 ], [ 103.568980151701112, 16.098858906830003, 0.0 ], [ 103.568979940848152, 16.098857110819008, 0.0 ], [ 103.569007807235934, 16.098854053147793, 0.0 ] ] } },
{ "type": "Feature", "properties": { }, "geometry": { "type": "LineString", "coordinates": [ [ 103.56896433773602, 16.098724206005031, 0.0 ], [ 103.56895816721817, 16.098708510748466, 0.0 ], [ 103.56899457927085, 16.098704515392171, 0.0 ], [ 103.568992204105143, 16.098721148334338, 0.0 ] ] } },
{ "type": "Feature", "properties": { }, "geometry": { "type": "LineString", "coordinates": [ [ 103.568992414958174, 16.098722944345337, 0.0 ], [ 103.568992204105143, 16.098721148334338, 0.0 ], [ 103.56896433773602, 16.098724206005031, 0.0 ], [ 103.568964548588809, 16.09872600201604, 0.0 ], [ 103.568992414958174, 16.098722944345337, 0.0 ] ] } },
{ "type": "Feature", "properties": { }, "geometry": { "type": "LineString", "coordinates": [ [ 103.568979940848152, 16.098857110819008, 0.0 ], [ 103.568964548588809, 16.09872600201604, 0.0 ] ] } },
{ "type": "Feature", "properties": { }, "geometry": { "type": "LineString", "coordinates": [ [ 103.569007807235934, 16.098854053147793, 0.0 ], [ 103.568992414958174, 16.098722944345337, 0.0 ] ] } },
{ "type": "Feature", "properties": { }, "geometry": { "type": "LineString", "coordinates": [ [ 103.569008861501999, 16.098863033202715, 0.0 ], [ 103.569008843166941, 16.098862877027841, 0.0 ] ] } },
{ "type": "Feature", "properties": { }, "geometry": { "type": "LineString", "coordinates": [ [ 103.541642901851191, 16.106898725915439, 0.0 ], [ 103.541632412403075, 16.106885399802486, 0.0 ] ] } },
{ "type": "Feature", "properties": { }, "geometry": { "type": "LineString", "coordinates": [ [ 103.541669897867536, 16.106887352039838, 0.0 ], [ 103.541667292967887, 16.106870704033927, 0.0 ] ] } },
{ "type": "Feature", "properties": { }, "geometry": { "type": "LineString", "coordinates": [ [ 103.541649852686064, 16.106878051918972, 0.0 ], [ 103.541632412403075, 16.106885399802486, 0.0 ] ] } },
{ "type": "Feature", "properties": { }, "geometry": { "type": "LineString", "coordinates": [ [ 103.541649852686064, 16.106878051918972, 0.0 ], [ 103.541667292967887, 16.106870704033927, 0.0 ] ] } },
{ "type": "Feature", "properties": { }, "geometry": { "type": "LineString", "coordinates": [ [ 103.541758688451949, 16.107155559942957, 0.0 ], [ 103.541761645184934, 16.107172059718948, 0.0 ] ] } },
{ "type": "Feature", "properties": { }, "geometry": { "type": "LineString", "coordinates": [ [ 103.541785684499018, 16.107144186055294, 0.0 ], [ 103.541796525794055, 16.107157363933005, 0.0 ] ] } },
{ "type": "Feature", "properties": { }, "geometry": { "type": "LineString", "coordinates": [ [ 103.541779085490091, 16.107164711826748, 0.0 ], [ 103.541761645184934, 16.107172059718948, 0.0 ] ] } },
{ "type": "Feature", "properties": { }, "geometry": { "type": "LineString", "coordinates": [ [ 103.541779085490091, 16.107164711826748, 0.0 ], [ 103.541796525794055, 16.107157363933005, 0.0 ] ] } },
{ "type": "Feature", "properties": { }, "geometry": { "type": "LineString", "coordinates": [ [ 103.54178493748762, 16.107142529061797, 0.0 ], [ 103.54175794144075, 16.107153902949374, 0.0 ] ] } },
{ "type": "Feature", "properties": { }, "geometry": { "type": "LineString", "coordinates": [ [ 103.541785684499018, 16.107144186055294, 0.0 ], [ 103.541758688451949, 16.107155559942957, 0.0 ] ] } },
{ "type": "Feature", "properties": { }, "geometry": { "type": "LineString", "coordinates": [ [ 103.541669897867536, 16.106887352039838, 0.0 ], [ 103.541785684499018, 16.107144186055294, 0.0 ] ] } },
{ "type": "Feature", "properties": { }, "geometry": { "type": "LineString", "coordinates": [ [ 103.541643648860656, 16.106900382909302, 0.0 ], [ 103.541670644877172, 16.106889009033623, 0.0 ] ] } },
{ "type": "Feature", "properties": { }, "geometry": { "type": "LineString", "coordinates": [ [ 103.541642901851191, 16.106898725915439, 0.0 ], [ 103.541669897867536, 16.106887352039838, 0.0 ] ] } },
{ "type": "Feature", "properties": { }, "geometry": { "type": "LineString", "coordinates": [ [ 103.541758688451949, 16.107155559942957, 0.0 ], [ 103.541642901851191, 16.106898725915439, 0.0 ] ] } },
{ "type": "Feature", "properties": { }, "geometry": { "type": "LineString", "coordinates": [ [ 103.511991103378605, 16.11962024327844, 0.0 ], [ 103.511993881772881, 16.119636817346908, 0.0 ] ] } },
{ "type": "Feature", "properties": { }, "geometry": { "type": "LineString", "coordinates": [ [ 103.512016816864332, 16.119609414871046, 0.0 ], [ 103.512027480729785, 16.119622668227048, 0.0 ] ] } },
{ "type": "Feature", "properties": { }, "geometry": { "type": "LineString", "coordinates": [ [ 103.511993881772881, 16.119636817346908, -0.0 ], [ 103.512027480729785, 16.119622668227048, -0.0 ] ] } },
{ "type": "Feature", "properties": { }, "geometry": { "type": "LineString", "coordinates": [ [ 103.512016070072065, 16.119607757791908, 0.0 ], [ 103.512016816864332, 16.119609414871046, 0.0 ], [ 103.511991103378605, 16.11962024327844, 0.0 ], [ 103.511990356586523, 16.11961858619922, 0.0 ], [ 103.512016070072065, 16.119607757791908, 0.0 ] ] } },
{ "type": "Feature", "properties": { }, "geometry": { "type": "LineString", "coordinates": [ [ 103.511931360048223, 16.119487676935425, 0.0 ], [ 103.511920696196, 16.11947442357561, 0.0 ] ] } },
{ "type": "Feature", "properties": { }, "geometry": { "type": "LineString", "coordinates": [ [ 103.511957073518801, 16.119476848533946, 0.0 ], [ 103.511954295128675, 16.119460274465201, 0.0 ] ] } },
{ "type": "Feature", "properties": { }, "geometry": { "type": "LineString", "coordinates": [ [ 103.511920696196, 16.11947442357561, -0.0 ], [ 103.511954295128675, 16.119460274465201, -0.0 ] ] } },
{ "type": "Feature", "properties": { }, "geometry": { "type": "LineString", "coordinates": [ [ 103.511939026851024, 16.119504689053521, 0.0 ], [ 103.51193937784295, 16.119505467880817, 0.0 ] ] } },
{ "type": "Feature", "properties": { }, "geometry": { "type": "LineString", "coordinates": [ [ 103.511957820310172, 16.11947850561323, 0.0 ], [ 103.511957073518801, 16.119476848533946, 0.0 ], [ 103.511931360048223, 16.119487676935425, 0.0 ], [ 103.51193210683941, 16.119489334014791, 0.0 ], [ 103.511957820310172, 16.11947850561323, 0.0 ] ] } },
{ "type": "Feature", "properties": { }, "geometry": { "type": "LineString", "coordinates": [ [ 103.511990356586523, 16.11961858619922, 0.0 ], [ 103.51193210683941, 16.119489334014791, 0.0 ] ] } },
{ "type": "Feature", "properties": { }, "geometry": { "type": "LineString", "coordinates": [ [ 103.512016070072065, 16.119607757791908, 0.0 ], [ 103.511957820310172, 16.11947850561323, 0.0 ] ] } },
{ "type": "Feature", "properties": { }, "geometry": { "type": "LineString", "coordinates": [ [ 103.443262564557813, 16.127275565885167, 0.0 ], [ 103.443206372888312, 16.12728271957857, 0.0 ] ] } },
{ "type": "Feature", "properties": { }, "geometry": { "type": "LineString", "coordinates": [ [ 103.443125844178482, 16.127594666812552, 0.0 ], [ 103.443069652416398, 16.127601820461393, 0.0 ] ] } },
{ "type": "Feature", "properties": { }, "geometry": { "type": "LineString", "coordinates": [ [ 103.443291530124213, 16.127243621031187, 0.0 ], [ 103.44320616972476, 16.127254488168958, 0.0 ] ] } },
{ "type": "Feature", "properties": { }, "geometry": { "type": "LineString", "coordinates": [ [ 103.443263390714705, 16.127273637657961, 0.0 ], [ 103.443207199045787, 16.127280791351648, 0.0 ] ] } },
{ "type": "Feature", "properties": { }, "geometry": { "type": "LineString", "coordinates": [ [ 103.443125018018677, 16.127596595038934, 0.0 ], [ 103.443068692375761, 16.127603765731486, 0.0 ] ] } },
{ "type": "Feature", "properties": { }, "geometry": { "type": "LineString", "coordinates": [ [ 103.443126047326473, 16.127622898220409, 0.0 ], [ 103.443040686759801, 16.127633765276517, 0.0 ] ] } },
{ "type": "Feature", "properties": { }, "geometry": { "type": "LineString", "coordinates": [ [ 103.443212071759106, 16.127256471363594, 0.0 ], [ 103.443208042845242, 16.127280683928657, 0.0 ] ] } },
{ "type": "Feature", "properties": { }, "geometry": { "type": "LineString", "coordinates": [ [ 103.443283801278056, 16.127247339558643, 0.0 ], [ 103.443263239940862, 16.127273989559946, 0.0 ] ] } },
{ "type": "Feature", "properties": { }, "geometry": { "type": "LineString", "coordinates": [ [ 103.443291896365452, 16.12724630898051, 0.0 ], [ 103.443283801278056, 16.127247339558643, 0.0 ] ] } },
{ "type": "Feature", "properties": { }, "geometry": { "type": "LineString", "coordinates": [ [ 103.443291774285029, 16.127245412997407, 0.0 ], [ 103.443291896365452, 16.12724630898051, 0.0 ] ] } },
{ "type": "Feature", "properties": { }, "geometry": { "type": "LineString", "coordinates": [ [ 103.443291530124213, 16.127243621031187, 0.0 ], [ 103.443291774285029, 16.127245412997407, 0.0 ] ] } },
{ "type": "Feature", "properties": { }, "geometry": { "type": "LineString", "coordinates": [ [ 103.443282260904382, 16.127244801087009, 0.0 ], [ 103.443291530124213, 16.127243621031187, 0.0 ] ] } },
{ "type": "Feature", "properties": { }, "geometry": { "type": "LineString", "coordinates": [ [ 103.443206535964848, 16.127257176118334, 0.0 ], [ 103.443212071759106, 16.127256471363594, 0.0 ] ] } },
{ "type": "Feature", "properties": { }, "geometry": { "type": "LineString", "coordinates": [ [ 103.443206413884809, 16.127256280135207, 0.0 ], [ 103.443206535964848, 16.127257176118334, 0.0 ] ] } },
{ "type": "Feature", "properties": { }, "geometry": { "type": "LineString", "coordinates": [ [ 103.44320616972476, 16.127254488168958, 0.0 ], [ 103.443206413884809, 16.127256280135207, 0.0 ] ] } },
{ "type": "Feature", "properties": { }, "geometry": { "type": "LineString", "coordinates": [ [ 103.443215438945188, 16.127253308116519, 0.0 ], [ 103.44320616972476, 16.127254488168958, 0.0 ] ] } },
{ "type": "Feature", "properties": { }, "geometry": { "type": "LineString", "coordinates": [ [ 103.443120145282691, 16.127620915022579, 0.0 ], [ 103.443124174217843, 16.12759670246146, 0.0 ] ] } },
{ "type": "Feature", "properties": { }, "geometry": { "type": "LineString", "coordinates": [ [ 103.443048415625327, 16.127630046759716, 0.0 ], [ 103.443068692375761, 16.127603765731486, 0.0 ] ] } },
{ "type": "Feature", "properties": { }, "geometry": { "type": "LineString", "coordinates": [ [ 103.44304032052176, 16.127631077327088, 0.0 ], [ 103.443048415625327, 16.127630046759716, 0.0 ] ] } },
{ "type": "Feature", "properties": { }, "geometry": { "type": "LineString", "coordinates": [ [ 103.443040442601102, 16.12763197331023, 0.0 ], [ 103.44304032052176, 16.127631077327088, 0.0 ] ] } },
{ "type": "Feature", "properties": { }, "geometry": { "type": "LineString", "coordinates": [ [ 103.443040686759801, 16.127633765276517, 0.0 ], [ 103.443040442601102, 16.12763197331023, 0.0 ] ] } },
{ "type": "Feature", "properties": { }, "geometry": { "type": "LineString", "coordinates": [ [ 103.443049955998376, 16.127632585232945, 0.0 ], [ 103.443040686759801, 16.127633765276517, 0.0 ] ] } },
{ "type": "Feature", "properties": { }, "geometry": { "type": "LineString", "coordinates": [ [ 103.443125681087281, 16.127620210271022, 0.0 ], [ 103.443120145282691, 16.127620915022579, 0.0 ] ] } },
{ "type": "Feature", "properties": { }, "geometry": { "type": "LineString", "coordinates": [ [ 103.443125803167007, 16.12762110625415, 0.0 ], [ 103.443125681087281, 16.127620210271022, 0.0 ] ] } },
{ "type": "Feature", "properties": { }, "geometry": { "type": "LineString", "coordinates": [ [ 103.443126047326473, 16.127622898220409, 0.0 ], [ 103.443125803167007, 16.12762110625415, 0.0 ] ] } },
{ "type": "Feature", "properties": { }, "geometry": { "type": "LineString", "coordinates": [ [ 103.443116778088481, 16.12762407826737, 0.0 ], [ 103.443126047326473, 16.127622898220409, 0.0 ] ] } },
{ "type": "Feature", "properties": { }, "geometry": { "type": "LineString", "coordinates": [ [ 103.443098054227505, 16.127626461960968, 0.0 ], [ 103.443116778088481, 16.12762407826737, 0.0 ] ] } },
{ "type": "Feature", "properties": { }, "geometry": { "type": "LineString", "coordinates": [ [ 103.44307183140117, 16.127629800328481, 0.0 ], [ 103.443049955998376, 16.127632585232945, 0.0 ] ] } },
{ "type": "Feature", "properties": { }, "geometry": { "type": "LineString", "coordinates": [ [ 103.44309504907892, 16.12760041032006, 0.0 ], [ 103.443072572373623, 16.127603271778071, 0.0 ] ] } },
{ "type": "Feature", "properties": { }, "geometry": { "type": "LineString", "coordinates": [ [ 103.443121271901248, 16.12759707194931, 0.0 ], [ 103.443098795196434, 16.127599933410153, 0.0 ] ] } },
{ "type": "Feature", "properties": { }, "geometry": { "type": "LineString", "coordinates": [ [ 103.443068826256038, 16.127603748687505, 0.0 ], [ 103.443207199045787, 16.127280791351648, 0.0 ] ] } },
{ "type": "Feature", "properties": { }, "geometry": { "type": "LineString", "coordinates": [ [ 103.443125018018677, 16.127596595038934, 0.0 ], [ 103.443263390714705, 16.127273637657961, 0.0 ] ] } },
{ "type": "Feature", "properties": { }, "geometry": { "type": "LineString", "coordinates": [ [ 103.434716642519106, 16.128342788092617, 0.0 ], [ 103.434746873263421, 16.128338922944561, 0.0 ] ] } },
{ "type": "Feature", "properties": { }, "geometry": { "type": "LineString", "coordinates": [ [ 103.434699356064257, 16.128687820085233, 0.0 ], [ 103.434669125266069, 16.128691685221678, 0.0 ] ] } },
{ "type": "Feature", "properties": { }, "geometry": { "type": "LineString", "coordinates": [ [ 103.434715082794852, 16.128324818150503, 0.0 ], [ 103.434716886572218, 16.128340996119594, 0.0 ] ] } },
{ "type": "Feature", "properties": { }, "geometry": { "type": "LineString", "coordinates": [ [ 103.434753390714349, 16.12831992029513, 0.0 ], [ 103.434715082794852, 16.128324818150503, 0.0 ] ] } },
{ "type": "Feature", "properties": { }, "geometry": { "type": "LineString", "coordinates": [ [ 103.434753390714349, 16.12831992029513, 0.0 ], [ 103.434747117316263, 16.128337130971481, 0.0 ] ] } },
{ "type": "Feature", "properties": { }, "geometry": { "type": "LineString", "coordinates": [ [ 103.434700915786834, 16.128705790026995, 0.0 ], [ 103.434699112010264, 16.128689612058128, 0.0 ] ] } },
{ "type": "Feature", "properties": { }, "geometry": { "type": "LineString", "coordinates": [ [ 103.434662607791836, 16.128710687866111, 0.0 ], [ 103.434700915786834, 16.128705790026995, 0.0 ] ] } },
{ "type": "Feature", "properties": { }, "geometry": { "type": "LineString", "coordinates": [ [ 103.434662607791836, 16.128710687866111, 0.0 ], [ 103.434668881211792, 16.12869347719451, 0.0 ] ] } },
{ "type": "Feature", "properties": { }, "geometry": { "type": "LineString", "coordinates": [ [ 103.434699112010264, 16.128689612058128, 0.0 ], [ 103.434668881211792, 16.12869347719451, 0.0 ] ] } },
{ "type": "Feature", "properties": { }, "geometry": { "type": "LineString", "coordinates": [ [ 103.434683996611128, 16.128691544626868, 0.0 ], [ 103.434699112010264, 16.128689612058128, 0.0 ] ] } },
{ "type": "Feature", "properties": { }, "geometry": { "type": "LineString", "coordinates": [ [ 103.434716886572218, 16.128340996119594, 0.0 ], [ 103.434747117316263, 16.128337130971481, 0.0 ] ] } },
{ "type": "Feature", "properties": { }, "geometry": { "type": "LineString", "coordinates": [ [ 103.43473200194434, 16.128339063546083, 0.0 ], [ 103.434716886572218, 16.128340996119594, 0.0 ] ] } },
{ "type": "Feature", "properties": { }, "geometry": { "type": "LineString", "coordinates": [ [ 103.434747117316263, 16.128337130971481, 0.0 ], [ 103.434699112010264, 16.128689612058128, 0.0 ] ] } },
{ "type": "Feature", "properties": { }, "geometry": { "type": "LineString", "coordinates": [ [ 103.434716886572218, 16.128340996119594, 0.0 ], [ 103.434668881211792, 16.12869347719451, 0.0 ] ] } },
{ "type": "Feature", "properties": { }, "geometry": { "type": "LineString", "coordinates": [ [ 103.431905814813618, 16.129029984631643, 0.0 ], [ 103.431861943921817, 16.129035427897094, 0.0 ] ] } },
{ "type": "Feature", "properties": { }, "geometry": { "type": "LineString", "coordinates": [ [ 103.431854211513752, 16.12901998694305, 0.0 ], [ 103.431861943921817, 16.129035427897094, 0.0 ] ] } },
{ "type": "Feature", "properties": { }, "geometry": { "type": "LineString", "coordinates": [ [ 103.431887941063039, 16.129015801962613, 0.0 ], [ 103.431905814813618, 16.129029984631643, 0.0 ] ] } },
{ "type": "Feature", "properties": { }, "geometry": { "type": "LineString", "coordinates": [ [ 103.431677314167146, 16.128743050770439, 0.0 ], [ 103.431633443337475, 16.128748493994049, 0.0 ] ] } },
{ "type": "Feature", "properties": { }, "geometry": { "type": "LineString", "coordinates": [ [ 103.43165131704572, 16.128762676681035, 0.0 ], [ 103.431633443337475, 16.128748493994049, 0.0 ] ] } },
{ "type": "Feature", "properties": { }, "geometry": { "type": "LineString", "coordinates": [ [ 103.431685046552161, 16.128758491729123, 0.0 ], [ 103.431677314167146, 16.128743050770439, 0.0 ] ] } },
{ "type": "Feature", "properties": { }, "geometry": { "type": "LineString", "coordinates": [ [ 103.431886807572738, 16.129014364475704, 0.0 ], [ 103.431853078023693, 16.129018549455978, 0.0 ] ] } },
{ "type": "Feature", "properties": { }, "geometry": { "type": "LineString", "coordinates": [ [ 103.431686180039634, 16.128759929216891, 0.0 ], [ 103.431652450532965, 16.128764114168956, 0.0 ] ] } },
{ "type": "Feature", "properties": { }, "geometry": { "type": "LineString", "coordinates": [ [ 103.431887941063039, 16.129015801962613, 0.0 ], [ 103.431854211513752, 16.12901998694305, 0.0 ] ] } },
{ "type": "Feature", "properties": { }, "geometry": { "type": "LineString", "coordinates": [ [ 103.43165131704572, 16.128762676681035, 0.0 ], [ 103.431854211513752, 16.12901998694305, 0.0 ] ] } },
{ "type": "Feature", "properties": { }, "geometry": { "type": "LineString", "coordinates": [ [ 103.431685046552161, 16.128758491729123, 0.0 ], [ 103.431887941063039, 16.129015801962613, 0.0 ] ] } },
{ "type": "Feature", "properties": { }, "geometry": { "type": "LineString", "coordinates": [ [ 103.431685046552161, 16.128758491729123, 0.0 ], [ 103.43165131704572, 16.128762676681035, 0.0 ] ] } },
{ "type": "Feature", "properties": { }, "geometry": { "type": "LineString", "coordinates": [ [ 103.409777233876426, 16.131750436770087, 0.0 ], [ 103.409783692569974, 16.131766022425825, 0.0 ] ] } },
{ "type": "Feature", "properties": { }, "geometry": { "type": "LineString", "coordinates": [ [ 103.409749425402012, 16.131753972472318, 0.0 ], [ 103.409747356160437, 16.131770642410189, 0.0 ] ] } },
{ "type": "Feature", "properties": { }, "geometry": { "type": "LineString", "coordinates": [ [ 103.409783692569974, 16.131766022425825, -0.0 ], [ 103.409747356160437, 16.131770642410189, -0.0 ] ] } },
{ "type": "Feature", "properties": { }, "geometry": { "type": "LineString", "coordinates": [ [ 103.409760163784028, 16.131624998347814, 0.0 ], [ 103.409762233021851, 16.131608328409374, 0.0 ] ] } },
{ "type": "Feature", "properties": { }, "geometry": { "type": "LineString", "coordinates": [ [ 103.409732355327264, 16.131628534049401, 0.0 ], [ 103.409725896641305, 16.131612948392675, 0.0 ] ] } },
{ "type": "Feature", "properties": { }, "geometry": { "type": "LineString", "coordinates": [ [ 103.409762233021851, 16.131608328409374, 0.0 ], [ 103.409725896641305, 16.131612948392675, 0.0 ] ] } },
{ "type": "Feature", "properties": { }, "geometry": { "type": "LineString", "coordinates": [ [ 103.409732355327264, 16.131628534049401, 0.0 ], [ 103.409732599185375, 16.13163032602688, 0.0 ], [ 103.409760407642409, 16.131626790325278, 0.0 ], [ 103.409760163784028, 16.131624998347814, 0.0 ], [ 103.409732355327264, 16.131628534049401, 0.0 ] ] } },
{ "type": "Feature", "properties": { }, "geometry": { "type": "LineString", "coordinates": [ [ 103.409749181543688, 16.131752180494857, 0.0 ], [ 103.409749425402012, 16.131753972472318, 0.0 ], [ 103.409777233876426, 16.131750436770087, 0.0 ], [ 103.40977699001786, 16.131748644792633, 0.0 ], [ 103.409749181543688, 16.131752180494857, 0.0 ] ] } },
{ "type": "Feature", "properties": { }, "geometry": { "type": "LineString", "coordinates": [ [ 103.409760407642409, 16.131626790325278, 0.0 ], [ 103.40977699001786, 16.131748644792633, 0.0 ] ] } },
{ "type": "Feature", "properties": { }, "geometry": { "type": "LineString", "coordinates": [ [ 103.409732599185375, 16.13163032602688, 0.0 ], [ 103.409749181543688, 16.131752180494857, 0.0 ] ] } },
{ "type": "Feature", "properties": { }, "geometry": { "type": "LineString", "coordinates": [ [ 103.392368452598561, 16.133959014685171, 0.0 ], [ 103.392368696297979, 16.133960806668487, 0.0 ], [ 103.392366625564421, 16.133977476299663, 0.0 ], [ 103.392402962502416, 16.133972859377533, 0.0 ], [ 103.392396505176833, 16.133957273309804, 0.0 ], [ 103.392380055455135, 16.133836314436312, 0.0 ], [ 103.39238212618497, 16.133819644804561, 0.0 ], [ 103.392345789275126, 16.133824261725692, 0.0 ], [ 103.39235224659329, 16.133839847794395, 0.0 ], [ 103.392352490292538, 16.133841639777721, 0.0 ] ] } },
{ "type": "Feature", "properties": { }, "geometry": { "type": "LineString", "coordinates": [ [ 103.39239626147716, 16.133955481326499, 0.0 ], [ 103.392396505176833, 16.133957273309804, 0.0 ], [ 103.392368696297979, 16.133960806668487, 0.0 ], [ 103.392368452598561, 16.133959014685171, 0.0 ], [ 103.39239626147716, 16.133955481326499, 0.0 ] ] } },
{ "type": "Feature", "properties": { }, "geometry": { "type": "LineString", "coordinates": [ [ 103.392380299154624, 16.133838106419624, 0.0 ], [ 103.392380055455135, 16.133836314436312, 0.0 ], [ 103.39235224659329, 16.133839847794395, 0.0 ], [ 103.392352490292538, 16.133841639777721, 0.0 ], [ 103.392380299154624, 16.133838106419624, 0.0 ] ] } },
{ "type": "Feature", "properties": { }, "geometry": { "type": "LineString", "coordinates": [ [ 103.392368696297979, 16.133960806668487, 0.0 ], [ 103.39235224659329, 16.133839847794395, 0.0 ] ] } },
{ "type": "Feature", "properties": { }, "geometry": { "type": "LineString", "coordinates": [ [ 103.387302463943954, 16.134636353300195, 0.0 ], [ 103.38730892087267, 16.134651939487149, 0.0 ], [ 103.387272583775456, 16.134656555518511, 0.0 ], [ 103.387274654943241, 16.13463988597718, 0.0 ], [ 103.387249680499806, 16.134456207519289, 0.0 ], [ 103.387243223580754, 16.134440621331269, 0.0 ], [ 103.387279560638277, 16.134436005301307, 0.0 ], [ 103.38727748947467, 16.134452674843217, 0.0 ], [ 103.387302463943954, 16.134636353300195, 0.0 ], [ 103.387302220290451, 16.134634561315263, 0.0 ], [ 103.387302463943954, 16.134636353300195, 0.0 ] ] } },
{ "type": "Feature", "properties": { }, "geometry": { "type": "LineString", "coordinates": [ [ 103.387277733127888, 16.134454466828174, 0.0 ], [ 103.38727748947467, 16.134452674843217, 0.0 ], [ 103.387249680499806, 16.134456207519289, 0.0 ], [ 103.387249924152769, 16.134457999504257, 0.0 ], [ 103.387277733127888, 16.134454466828174, 0.0 ] ] } },
{ "type": "Feature", "properties": { }, "geometry": { "type": "LineString", "coordinates": [ [ 103.387302220290451, 16.134634561315263, 0.0 ], [ 103.387302463943954, 16.134636353300195, 0.0 ], [ 103.387274654943241, 16.13463988597718, 0.0 ], [ 103.387274411289994, 16.134638093992233, 0.0 ], [ 103.387302220290451, 16.134634561315263, 0.0 ] ] } },
{ "type": "Feature", "properties": { }, "geometry": { "type": "LineString", "coordinates": [ [ 103.387274411289994, 16.134638093992233, 0.0 ], [ 103.387274654943241, 16.13463988597718, 0.0 ] ] } },
{ "type": "Feature", "properties": { }, "geometry": { "type": "LineString", "coordinates": [ [ 103.387274411289994, 16.134638093992233, 0.0 ], [ 103.387274654943241, 16.13463988597718, 0.0 ] ] } },
{ "type": "Feature", "properties": { }, "geometry": { "type": "LineString", "coordinates": [ [ 103.387302220290451, 16.134634561315263, 0.0 ], [ 103.387302463943954, 16.134636353300195, 0.0 ] ] } },
{ "type": "Feature", "properties": { }, "geometry": { "type": "LineString", "coordinates": [ [ 103.387274411289994, 16.134638093992233, 0.0 ], [ 103.387274654943241, 16.13463988597718, 0.0 ] ] } },
{ "type": "Feature", "properties": { }, "geometry": { "type": "LineString", "coordinates": [ [ 103.387269266228984, 16.134600253852511, 0.0 ], [ 103.38726915171199, 16.134599411619583, 0.0 ] ] } },
{ "type": "Feature", "properties": { }, "geometry": { "type": "LineString", "coordinates": [ [ 103.387297075224126, 16.134596721175726, 0.0 ], [ 103.387296960707019, 16.134595878942804, 0.0 ] ] } },
{ "type": "Feature", "properties": { }, "geometry": { "type": "LineString", "coordinates": [ [ 103.387274654943241, 16.13463988597718, 0.0 ], [ 103.387274411289994, 16.134638093992233, 0.0 ] ] } },
{ "type": "Feature", "properties": { }, "geometry": { "type": "LineString", "coordinates": [ [ 103.362889555518592, 16.141734224523365, 0.0 ], [ 103.36287694670753, 16.141722676771874, 0.0 ] ] } },
{ "type": "Feature", "properties": { }, "geometry": { "type": "LineString", "coordinates": [ [ 103.362913288293512, 16.141719774939002, 0.0 ], [ 103.362907957531874, 16.141703795982799, 0.0 ] ] } },
{ "type": "Feature", "properties": { }, "geometry": { "type": "LineString", "coordinates": [ [ 103.36287694670753, 16.141722676771874, -0.0 ], [ 103.362907957531874, 16.141703795982799, -0.0 ] ] } },
{ "type": "Feature", "properties": { }, "geometry": { "type": "LineString", "coordinates": [ [ 103.363001677936836, 16.141906266425035, 0.0 ], [ 103.363007008710056, 16.141922245379792, 0.0 ] ] } },
{ "type": "Feature", "properties": { }, "geometry": { "type": "LineString", "coordinates": [ [ 103.363025410726607, 16.141891816829556, 0.0 ], [ 103.363038019556896, 16.14190336457386, 0.0 ] ] } },
{ "type": "Feature", "properties": { }, "geometry": { "type": "LineString", "coordinates": [ [ 103.363007008710056, 16.141922245379792, -0.0 ], [ 103.363038019556896, 16.14190336457386, -0.0 ] ] } },
{ "type": "Feature", "properties": { }, "geometry": { "type": "LineString", "coordinates": [ [ 103.363000681292306, 16.14190473716388, 0.0 ], [ 103.363001677936836, 16.141906266425035, 0.0 ] ] } },
{ "type": "Feature", "properties": { }, "geometry": { "type": "LineString", "coordinates": [ [ 103.363024414081949, 16.141890287568501, 0.0 ], [ 103.363025410726607, 16.141891816829556, 0.0 ] ] } },
{ "type": "Feature", "properties": { }, "geometry": { "type": "LineString", "coordinates": [ [ 103.363000681292306, 16.14190473716388, 0.0 ], [ 103.363001677936836, 16.141906266425035, 0.0 ] ] } },
{ "type": "Feature", "properties": { }, "geometry": { "type": "LineString", "coordinates": [ [ 103.363024414081949, 16.141890287568501, 0.0 ], [ 103.363025410726607, 16.141891816829556, 0.0 ] ] } },
{ "type": "Feature", "properties": { }, "geometry": { "type": "LineString", "coordinates": [ [ 103.363025410726607, 16.141891816829556, 0.0 ], [ 103.363024414081949, 16.141890287568501, 0.0 ], [ 103.363000681292306, 16.141904737163884, 0.0 ], [ 103.363001677936836, 16.141906266425035, 0.0 ], [ 103.363025410726607, 16.141891816829556, 0.0 ] ] } },
{ "type": "Feature", "properties": { }, "geometry": { "type": "LineString", "coordinates": [ [ 103.362914284936551, 16.141721304200448, 0.0 ], [ 103.362913288293512, 16.141719774939002, 0.0 ], [ 103.362889555518592, 16.141734224523365, 0.0 ], [ 103.362890552161488, 16.1417357537849, 0.0 ], [ 103.362914284936551, 16.141721304200448, 0.0 ] ] } },
{ "type": "Feature", "properties": { }, "geometry": { "type": "LineString", "coordinates": [ [ 103.362890552161488, 16.1417357537849, 0.0 ], [ 103.362889555518592, 16.141734224523365, 0.0 ] ] } },
{ "type": "Feature", "properties": { }, "geometry": { "type": "LineString", "coordinates": [ [ 103.363001677936836, 16.141906266425035, 0.0 ], [ 103.362889555518592, 16.141734224523365, 0.0 ] ] } },
{ "type": "Feature", "properties": { }, "geometry": { "type": "LineString", "coordinates": [ [ 103.363001677936836, 16.141906266425035, 0.0 ], [ 103.363000681292306, 16.141904737163884, 0.0 ] ] } },
{ "type": "Feature", "properties": { }, "geometry": { "type": "LineString", "coordinates": [ [ 103.363023828540719, 16.141892780136008, 0.0 ], [ 103.36302283189606, 16.141891250874945, 0.0 ] ] } },
{ "type": "Feature", "properties": { }, "geometry": { "type": "LineString", "coordinates": [ [ 103.362914284936551, 16.141721304200448, 0.0 ], [ 103.362913288293512, 16.141719774939002, 0.0 ] ] } },
{ "type": "Feature", "properties": { }, "geometry": { "type": "LineString", "coordinates": [ [ 103.363025410726607, 16.141891816829556, 0.0 ], [ 103.362913288293512, 16.141719774939002, 0.0 ] ] } },
{ "type": "Feature", "properties": { }, "geometry": { "type": "LineString", "coordinates": [ [ 103.363025410726607, 16.141891816829556, 0.0 ], [ 103.363024414081949, 16.141890287568501, 0.0 ] ] } },
{ "type": "Feature", "properties": { }, "geometry": { "type": "LineString", "coordinates": [ [ 103.354526074851947, 16.147528266605164, 0.0 ], [ 103.354527139902913, 16.147529752174371, 0.0 ], [ 103.354526074851947, 16.147528266605164, 0.0 ] ] } },
{ "type": "Feature", "properties": { }, "geometry": { "type": "LineString", "coordinates": [ [ 103.357314668809039, 16.145420390715678, 0.0 ], [ 103.357308618330606, 16.145404653046274, 0.0 ], [ 103.357278493198947, 16.145424829635825, 0.0 ], [ 103.357291613860326, 16.145435831984138, 0.0 ], [ 103.357292678923642, 16.145437317540683, 0.0 ], [ 103.357405575721401, 16.145594786511353, 0.0 ], [ 103.357406640786351, 16.145596272067461, 0.0 ], [ 103.357412691277133, 16.145612009735071, 0.0 ], [ 103.35744281642728, 16.14559183312824, 0.0 ], [ 103.357429695747186, 16.145580830787672, 0.0 ] ] } },
{ "type": "Feature", "properties": { }, "geometry": { "type": "LineString", "coordinates": [ [ 103.357428630682122, 16.14557934523167, 0.0 ], [ 103.357429695747186, 16.145580830787672, 0.0 ], [ 103.357406640786351, 16.145596272067461, 0.0 ], [ 103.357405575721401, 16.145594786511353, 0.0 ], [ 103.357428630682122, 16.14557934523167, 0.0 ] ] } },
{ "type": "Feature", "properties": { }, "geometry": { "type": "LineString", "coordinates": [ [ 103.357315733872468, 16.145421876272117, 0.0 ], [ 103.357314668809039, 16.145420390715678, 0.0 ], [ 103.357291613860326, 16.145435831984138, 0.0 ], [ 103.357292678923642, 16.145437317540683, 0.0 ], [ 103.357315733872468, 16.145421876272117, 0.0 ] ] } },
{ "type": "Feature", "properties": { }, "geometry": { "type": "LineString", "coordinates": [ [ 103.357303437900185, 16.145430111615706, 0.0 ], [ 103.357302372836827, 16.145428626059207, 0.0 ] ] } },
{ "type": "Feature", "properties": { }, "geometry": { "type": "LineString", "coordinates": [ [ 103.357294215920334, 16.145436288122863, 0.0 ], [ 103.357293150857018, 16.145434802566328, 0.0 ] ] } },
{ "type": "Feature", "properties": { }, "geometry": { "type": "LineString", "coordinates": [ [ 103.357304974896778, 16.145429082197801, 0.0 ], [ 103.357303909833391, 16.145427596641309, 0.0 ] ] } },
{ "type": "Feature", "properties": { }, "geometry": { "type": "LineString", "coordinates": [ [ 103.357428630682122, 16.14557934523167, 0.0 ], [ 103.357315733872468, 16.145421876272117, 0.0 ] ] } },
{ "type": "Feature", "properties": { }, "geometry": { "type": "LineString", "coordinates": [ [ 103.354407321765919, 16.147362625613059, 0.0 ], [ 103.354394201165007, 16.147351623092117, 0.0 ], [ 103.354424326859558, 16.14733144696774, 0.0 ], [ 103.35443037714542, 16.147347184700603, 0.0 ] ] } },
{ "type": "Feature", "properties": { }, "geometry": { "type": "LineString", "coordinates": [ [ 103.354526074851947, 16.147528266605164, 0.0 ], [ 103.354527139902899, 16.147529752174375, 0.0 ], [ 103.354533190201664, 16.147545489905337, 0.0 ], [ 103.354563315915371, 16.147525313763072, 0.0 ], [ 103.354550195295033, 16.147514311250106, 0.0 ], [ 103.354549130243967, 16.147512825681005, 0.0 ], [ 103.354550195295033, 16.147514311250106, 0.0 ], [ 103.35443037714542, 16.147347184700603, 0.0 ], [ 103.35443144219478, 16.147348670270159, 0.0 ] ] } },
{ "type": "Feature", "properties": { }, "geometry": { "type": "LineString", "coordinates": [ [ 103.354550195295033, 16.147514311250106, 0.0 ], [ 103.354549130243967, 16.147512825681012, 0.0 ], [ 103.354526074851947, 16.147528266605164, 0.0 ], [ 103.354527139902899, 16.147529752174375, 0.0 ], [ 103.354550195295033, 16.147514311250106, 0.0 ] ] } },
{ "type": "Feature", "properties": { }, "geometry": { "type": "LineString", "coordinates": [ [ 103.35443144219478, 16.147348670270159, 0.0 ], [ 103.35443037714542, 16.147347184700603, 0.0 ], [ 103.354407321765919, 16.147362625613059, 0.0 ], [ 103.35440838681518, 16.147364111182718, 0.0 ], [ 103.35443144219478, 16.147348670270159, 0.0 ] ] } },
{ "type": "Feature", "properties": { }, "geometry": { "type": "LineString", "coordinates": [ [ 103.35440838681518, 16.147364111182718, 0.0 ], [ 103.354407321765919, 16.147362625613059, 0.0 ] ] } },
{ "type": "Feature", "properties": { }, "geometry": { "type": "LineString", "coordinates": [ [ 103.354527139902913, 16.147529752174371, 0.0 ], [ 103.354407321765933, 16.147362625613059, 0.0 ] ] } },
{ "type": "Feature", "properties": { }, "geometry": { "type": "LineString", "coordinates": [ [ 103.354548658268996, 16.147515340645143, 0.0 ], [ 103.35454759321793, 16.147513855076038, 0.0 ] ] } },
{ "type": "Feature", "properties": { }, "geometry": { "type": "LineString", "coordinates": [ [ 103.354550195295033, 16.147514311250106, 0.0 ], [ 103.354549130243967, 16.147512825681012, 0.0 ] ] } }
]
}
