{
"type": "FeatureCollection",
"name": "cltrack",
"crs": { "type": "name", "properties": { "name": "urn:ogc:def:crs:OGC:1.3:CRS84" } },
"features": [
{ "type": "Feature", "properties": { }, "geometry": { "type": "LineString", "coordinates": [ [ 103.284826619047408, 16.148115900140887, 0.0 ], [ 103.285315012402393, 16.148519517031797, 0.0 ], [ 103.285817467836267, 16.148906675571105, 0.0 ], [ 103.286333391965044, 16.149276918456614, 0.0 ], [ 103.286862175485282, 16.149629808362508, 0.0 ], [ 103.287403193893667, 16.149964928456257, 0.0 ], [ 103.287955808224893, 16.150281882891345, 0.0 ], [ 103.288519365806437, 16.150580297275209, 0.0 ], [ 103.2890932010298, 16.150859819111773, 0.0 ], [ 103.289676636136846, 16.151120118218213, 0.0 ], [ 103.290268982020834, 16.151360887115281, 0.0 ], [ 103.2908695390406, 16.151581841390794, 0.0 ], [ 103.291477597847532, 16.151782720035985, 0.0 ], [ 103.292092440223797, 16.151963285754011, 0.0 ], [ 103.292713339931296, 16.15212332524063, 0.0 ], [ 103.293339563570029, 16.152262649436359, 0.0 ], [ 103.293970371444928, 16.152381093750108, 0.0 ], [ 103.294605018440294, 16.152478518253805, 0.0 ], [ 103.295242754900528, 16.152554807847903, 0.0 ], [ 103.295882827516323, 16.152609872397559, 0.0 ], [ 103.296524480215197, 16.152643646839241, 0.0 ], [ 103.297166955055317, 16.152656091257779, 0.0 ], [ 103.297219314036056, 16.152656165756468, 0.0 ], [ 103.297271673037457, 16.152656104216575, 0.0 ], [ 103.297324031703596, 16.152655912306216, 0.0 ], [ 103.297376389723922, 16.152655595694281, 0.0 ], [ 103.297428746831173, 16.152655160050205, 0.0 ], [ 103.29748110279958, 16.152654611043804, 0.0 ], [ 103.297533457442654, 16.152653954345062, 0.0 ], [ 103.29758581061148, 16.152653195624044, 0.0 ], [ 103.297638162192527, 16.152652340550755, 0.0 ], [ 103.297690512105831, 16.152651394795036, 0.0 ], [ 103.297742860302904, 16.152650364026478, 0.0 ], [ 103.297795206764874, 16.15264925391434, 0.0 ], [ 103.297847551500425, 16.152648070127555, 0.0 ], [ 103.297899894543846, 16.152646818334599, 0.0 ], [ 103.297952235953133, 16.152645504203569, 0.0 ], [ 103.298004575807894, 16.152644133402113, 0.0 ], [ 103.29805691420745, 16.152642711597444, 0.0 ], [ 103.298109251268897, 16.152641244456348, 0.0 ], [ 103.298161587125065, 16.15263973764522, 0.0 ], [ 103.298213921922567, 16.152638196830114, 0.0 ], [ 103.298266255819883, 16.152636627676717, 0.0 ], [ 103.298318588985282, 16.152635035850448, 0.0 ], [ 103.298370921594966, 16.152633427016507, 0.0 ], [ 103.298423253831047, 16.152631806839896, 0.0 ], [ 103.298475585879572, 16.152630180985511, 0.0 ], [ 103.302360456779212, 16.152509379376657, 0.0 ], [ 103.302416526882638, 16.152507636779401, 0.0 ], [ 103.302472597274246, 16.152505902837973, 0.0 ], [ 103.302528668237358, 16.15250418622318, 0.0 ], [ 103.302584740046754, 16.15250249560609, 0.0 ], [ 103.302640812964256, 16.152500839658192, 0.0 ], [ 103.30269688723449, 16.152499227051425, 0.0 ], [ 103.302752963080565, 16.152497666458348, 0.0 ], [ 103.302809040699728, 16.152496166552218, 0.0 ], [ 103.302865120259113, 16.152494736007004, 0.0 ], [ 103.302921201891422, 16.152493383497486, 0.0 ], [ 103.302977285690545, 16.152492117699225, 0.0 ], [ 103.303033371707343, 16.152490947288573, 0.0 ], [ 103.303089459945326, 16.152489880942596, 0.0 ], [ 103.303145550356263, 16.152488927339014, 0.0 ], [ 103.30320164283593, 16.152488095156066, 0.0 ], [ 103.303257737219838, 16.152487393072327, 0.0 ], [ 103.303313833278821, 16.152486829766509, 0.0 ], [ 103.303369930714808, 16.152486413917181, 0.0 ], [ 103.303426029156498, 16.152486154202442, 0.0 ], [ 103.303482128155039, 16.152486059299598, 0.0 ], [ 103.3035382271797, 16.152486137884619, 0.0 ], [ 103.303594325613616, 16.152486398631773, 0.0 ], [ 103.303650422749428, 16.152486850212924, 0.0 ], [ 103.303706517785102, 16.152487501297024, 0.0 ], [ 103.303762609819458, 16.152488360549285, 0.0 ], [ 103.304249459039227, 16.152504925014359, 0.0 ], [ 103.304735419594508, 16.152537820075665, 0.0 ], [ 103.305219905281277, 16.152587006063939, 0.0 ], [ 103.305702331672691, 16.152652423658314, 0.0 ], [ 103.306182116823706, 16.152733993957813, 0.0 ], [ 103.306658681972607, 16.152831618576421, 0.0 ], [ 103.307131452238792, 16.152945179761605, 0.0 ], [ 103.307599857315907, 16.153074540536263, 0.0 ], [ 103.308063332159421, 16.153219544863806, 0.0 ], [ 103.308521317667882, 16.153380017836202, 0.0 ], [ 103.308973261357067, 16.153555765884835, 0.0 ], [ 103.3094186180262, 16.153746577013802, 0.0 ], [ 103.309856850415287, 16.153952221055484, 0.0 ], [ 103.310287429853062, 16.154172449947996, 0.0 ], [ 103.310336497613747, 16.154198733025321, 0.0 ], [ 103.31038546060276, 16.154225198005683, 0.0 ], [ 103.310434322508712, 16.154251836943313, 0.0 ], [ 103.310483087107983, 16.154278641936958, 0.0 ], [ 103.310531758260666, 16.154305605128464, 0.0 ], [ 103.310580339906409, 16.154332718701223, 0.0 ], [ 103.31062883606053, 16.154359974878609, 0.0 ], [ 103.310677250809931, 16.154387365922346, 0.0 ], [ 103.310725588309197, 16.15441488413077, 0.0 ], [ 103.31077385277662, 16.154442521837161, 0.0 ], [ 103.310822048490351, 16.154470271407828, 0.0 ], [ 103.310870179784459, 16.15449812524038, 0.0 ], [ 103.310918251045152, 16.154526075761776, 0.0 ], [ 103.310966266706899, 16.154554115426379, 0.0 ], [ 103.311014231248691, 16.154582236714049, 0.0 ], [ 103.31106214919015, 16.154610432128081, 0.0 ], [ 103.311110025087899, 16.154638694193203, 0.0 ], [ 103.31115786353169, 16.154667015453523, 0.0 ], [ 103.311205669140818, 16.154695388470408, 0.0 ], [ 103.311253446560258, 16.154723805820399, 0.0 ], [ 103.311301200457066, 16.154752260093087, 0.0 ], [ 103.311348935516648, 16.154780743888931, 0.0 ], [ 103.311396656439044, 16.154809249817127, 0.0 ], [ 103.311444367935351, 16.15483777049343, 0.0 ], [ 103.311492074723972, 16.154866298537957, 0.0 ], [ 103.314843215357001, 16.156870311696071, 0.0 ], [ 103.31489092362429, 16.156898838354376, 0.0 ], [ 103.314938639360861, 16.156927353353591, 0.0 ], [ 103.314986370012548, 16.156955845038627, 0.0 ], [ 103.315034123006825, 16.156984301743496, 0.0 ], [ 103.315081905743781, 16.157012711785839, 0.0 ], [ 103.315129725586857, 16.157041063461612, 0.0 ], [ 103.315177589853661, 16.157069345039663, 0.0 ], [ 103.315225505806723, 16.157097544756471, 0.0 ], [ 103.315273480644237, 16.15712565081094, 0.0 ], [ 103.31532152149066, 16.15715365135922, 0.0 ], [ 103.315369635387398, 16.157181534509707, 0.0 ], [ 103.315417829283348, 16.157209288318004, 0.0 ], [ 103.31546611002527, 16.15723690078217, 0.0 ], [ 103.315514484348341, 16.157264359837956, 0.0 ], [ 103.315562958866423, 16.157291653354243, 0.0 ], [ 103.31561154006225, 16.157318769128619, 0.0 ], [ 103.315660234277715, 16.157345694883094, 0.0 ], [ 103.315709047703734, 16.157372418260028, 0.0 ], [ 103.3157579863704, 16.157398926818242, 0.0 ], [ 103.315807056136691, 16.157425208029256, 0.0 ], [ 103.315856262680299, 16.157451249273848, 0.0 ], [ 103.315905611487239, 16.157477037838767, 0.0 ], [ 103.31595510784129, 16.157502560913702, 0.0 ], [ 103.316004756813555, 16.157527805588487, 0.0 ], [ 103.316054563251612, 16.157552758850617, 0.0 ], [ 103.316318677405263, 16.157678766013809, 0.0 ], [ 103.316586969365616, 16.157796240565943, 0.0 ], [ 103.316859144111405, 16.157905053321944, 0.0 ], [ 103.317134902349949, 16.158005084621394, 0.0 ], [ 103.317413940846308, 16.158096224460177, 0.0 ], [ 103.317695952756708, 16.158178372611559, 0.0 ], [ 103.317980627966293, 16.158251438736361, 0.0 ], [ 103.318267653430013, 16.158315342482449, 0.0 ], [ 103.318556713517168, 16.158370013573062, 0.0 ], [ 103.318847490358479, 16.158415391884201, 0.0 ], [ 103.318903039476552, 16.158422979083518, 0.0 ], [ 103.318958635184387, 16.158430240622842, 0.0 ], [ 103.319014273622955, 16.158437189819946, 0.0 ], [ 103.319069951176658, 16.158443840034511, 0.0 ], [ 103.319125664463172, 16.158450204664131, 0.0 ], [ 103.319181410323125, 16.158456297140628, 0.0 ], [ 103.319237185809683, 16.158462130926683, 0.0 ], [ 103.319292988178248, 16.158467719512664, 0.0 ], [ 103.319348814875923, 16.158473076413713, 0.0 ], [ 103.31940466353106, 16.158478215167104, 0.0 ], [ 103.319460531942667, 16.158483149329786, 0.0 ], [ 103.319516418069981, 16.158487892476124, 0.0 ], [ 103.319572320021777, 16.158492458195902, 0.0 ], [ 103.319628236045773, 16.158496860092384, 0.0 ], [ 103.319684164518094, 16.158501111780705, 0.0 ], [ 103.319740103932475, 16.15850522688628, 0.0 ], [ 103.319796052889771, 16.158509219043417, 0.0 ], [ 103.319852010087146, 16.158513101894076, 0.0 ], [ 103.319907974307512, 16.158516889086709, 0.0 ], [ 103.319963944408684, 16.158520594275217, 0.0 ], [ 103.32001991931287, 16.158524231118019, 0.0 ], [ 103.320075897995807, 16.158527813277143, 0.0 ], [ 103.320131879476122, 16.158531354417473, 0.0 ], [ 103.320187862804659, 16.158534868205955, 0.0 ], [ 103.320243847053646, 16.158538368310911, 0.0 ], [ 103.33425217365334, 16.159413125098002, 0.0 ], [ 103.334308159072549, 16.159416616993493, 0.0 ], [ 103.334364145405871, 16.159420095204975, 0.0 ], [ 103.334420133553266, 16.159423546062285, 0.0 ], [ 103.33447612439322, 16.15942695589397, 0.0 ], [ 103.334532118772074, 16.159430311026618, 0.0 ], [ 103.334588117493212, 16.159433597784293, 0.0 ], [ 103.33464412130644, 16.159436802488006, 0.0 ], [ 103.334700130897176, 16.159439911455213, 0.0 ], [ 103.334756146875719, 16.159442910999452, 0.0 ], [ 103.334812169766607, 16.159445787430069, 0.0 ], [ 103.334868199997672, 16.159448527051957, 0.0 ], [ 103.334924237889524, 16.15945111616556, 0.0 ], [ 103.334980283644626, 16.15945354106686, 0.0 ], [ 103.335036337336589, 16.15945578804763, 0.0 ], [ 103.335092398899405, 16.159457843395746, 0.0 ], [ 103.335148468116742, 16.159459693395757, 0.0 ], [ 103.335204544611045, 16.15946132432958, 0.0 ], [ 103.335260627832895, 16.159462722477372, 0.0 ], [ 103.335316717050176, 16.159463874118735, 0.0 ], [ 103.335372811337336, 16.159464765533958, 0.0 ], [ 103.335428909564669, 16.159465383005671, 0.0 ], [ 103.335485010387472, 16.159465712820626, 0.0 ], [ 103.335541112235447, 16.159465741271823, 0.0 ], [ 103.335597213301938, 16.159465454660833, 0.0 ], [ 103.335653311533179, 16.15946483930048, 0.0 ], [ 103.335956614806108, 16.159455588530093, 0.0 ], [ 103.33625941414401, 16.159436330237266, 0.0 ], [ 103.336561356121621, 16.159407086895818, 0.0 ], [ 103.33686208831449, 16.159367892634048, 0.0 ], [ 103.337161259710442, 16.159318793194892, 0.0 ], [ 103.337458521119459, 16.159259845882541, 0.0 ], [ 103.337753525581405, 16.159191119495556, 0.0 ], [ 103.338045928771166, 16.159112694246549, 0.0 ], [ 103.338335389400669, 16.159024661668539, 0.0 ], [ 103.338621569617402, 16.158927124508104, 0.0 ], [ 103.33890413539882, 16.158820196605426, 0.0 ], [ 103.339182756942449, 16.158704002761372, 0.0 ], [ 103.339457109050869, 16.15857867859182, 0.0 ], [ 103.339726871511388, 16.158444370369306, 0.0 ], [ 103.339991729469972, 16.158301234852264, 0.0 ], [ 103.340040132716993, 16.158273821909038, 0.0 ], [ 103.340088363093216, 16.158246125819801, 0.0 ], [ 103.340136426137036, 16.158218159337107, 0.0 ], [ 103.340184327604533, 16.15818993510009, 0.0 ], [ 103.340232073458935, 16.15816146563753, 0.0 ], [ 103.340279669860195, 16.158132763371167, 0.0 ], [ 103.340327123154594, 16.158103840619248, 0.0 ], [ 103.340374439864704, 16.158074709600292, 0.0 ], [ 103.340421626679202, 16.158045382437106, 0.0 ], [ 103.340468690443004, 16.158015871161016, 0.0 ], [ 103.340515638147437, 16.157986187716237, 0.0 ], [ 103.340562476920525, 16.157956343964447, 0.0 ], [ 103.340609214017348, 16.157926351689611, 0.0 ], [ 103.340655856810585, 16.157896222602801, 0.0 ], [ 103.34070241278107, 16.157865968347291, 0.0 ], [ 103.340748889508475, 16.157835600503766, 0.0 ], [ 103.340795294662058, 16.157805130595595, 0.0 ], [ 103.340841635991495, 16.157774570094265, 0.0 ], [ 103.340887921317744, 16.157743930424886, 0.0 ], [ 103.340934158524078, 16.157713222971829, 0.0 ], [ 103.340980355546989, 16.157682459084366, 0.0 ], [ 103.341026520367322, 16.15765165008245, 0.0 ], [ 103.341072661001292, 16.157620807262493, 0.0 ], [ 103.341118785491716, 16.157589941903215, 0.0 ], [ 103.341164901899049, 16.157559065271528, 0.0 ], [ 103.343231873722118, 16.156175005881693, 0.0 ], [ 103.343277987299714, 16.156144125662028, 0.0 ], [ 103.343324095750603, 16.156113238300559, 0.0 ], [ 103.343370193958336, 16.156082336669304, 0.0 ], [ 103.343416276799445, 16.15605141364497, 0.0 ], [ 103.343462339139748, 16.15602046211146, 0.0 ], [ 103.343508375830964, 16.155989474962148, 0.0 ], [ 103.34355438170715, 16.155958445102367, 0.0 ], [ 103.343600351581159, 16.155927365451763, 0.0 ], [ 103.34364628024116, 16.155896228946741, 0.0 ], [ 103.343692162447184, 16.155865028542941, 0.0 ], [ 103.343737992927615, 16.155833757217668, 0.0 ], [ 103.343783766375722, 16.155802407972409, 0.0 ], [ 103.343829477446306, 16.155770973835367, 0.0 ], [ 103.343875120752216, 16.155739447863972, 0.0 ], [ 103.343920690860969, 16.155707823147502, 0.0 ], [ 103.343966182291453, 16.155676092809699, 0.0 ], [ 103.344011589510515, 16.155644250011399, 0.0 ], [ 103.344056906929765, 16.155612287953254, 0.0 ], [ 103.344102128902207, 16.15558019987845, 0.0 ], [ 103.344147249719057, 16.155547979075521, 0.0 ], [ 103.344192263606587, 16.155515618881129, 0.0 ], [ 103.344237164722912, 16.155483112683001, 0.0 ], [ 103.34428194715494, 16.155450453922821, 0.0 ], [ 103.344326604915267, 16.15541763609923, 0.0 ], [ 103.344371131939198, 16.155384652770852, 0.0 ], [ 103.344753825964588, 16.155089591818555, 0.0 ], [ 103.345125631130315, 16.154781801621237, 0.0 ], [ 103.345167521871034, 16.154745736436993, 0.0 ], [ 103.345209268997721, 16.154709516038086, 0.0 ], [ 103.345250877915959, 16.154673147392611, 0.0 ], [ 103.345292354106775, 16.154636637406536, 0.0 ], [ 103.345333703123146, 16.15459999292603, 0.0 ], [ 103.345374930586146, 16.154563220739792, 0.0 ], [ 103.345416042181668, 16.15452632758144, 0.0 ], [ 103.345457043656666, 16.154489320131962, 0.0 ], [ 103.345497940815775, 16.154452205022235, 0.0 ], [ 103.34553873951792, 16.154414988835541, 0.0 ], [ 103.345579445672811, 16.154377678110126, 0.0 ], [ 103.345620065237711, 16.154340279341898, 0.0 ], [ 103.34566060421399, 16.154302798987018, 0.0 ], [ 103.345701068643905, 16.154265243464611, 0.0 ], [ 103.345741464607343, 16.154227619159524, 0.0 ], [ 103.345781798218539, 16.154189932425052, 0.0 ], [ 103.345822075622877, 16.154152189585719, 0.0 ], [ 103.345862302993766, 16.154114396940123, 0.0 ], [ 103.345902486529383, 16.154076560763702, 0.0 ], [ 103.345942632449635, 16.15403868731163, 0.0 ], [ 103.345982746992902, 16.154000782821679, 0.0 ], [ 103.346022836413042, 16.153962853517083, 0.0 ], [ 103.346062906976272, 16.153924905609436, 0.0 ], [ 103.346102964957979, 16.153886945301586, 0.0 ], [ 103.346143016639772, 16.153848978790542, 0.0 ], [ 103.347080060148357, 16.152960665536927, 0.0 ], [ 103.347106760557438, 16.152935353924022, 0.0 ], [ 103.347133462356439, 16.152910043683434, 0.0 ], [ 103.347160166941848, 16.152884736191737, 0.0 ], [ 103.347186875709667, 16.152859432825906, 0.0 ], [ 103.347213590055262, 16.152834134963602, 0.0 ], [ 103.347240311373056, 16.152808843983326, 0.0 ], [ 103.347267041056327, 16.152783561264677, 0.0 ], [ 103.347293780496997, 16.152758288188519, 0.0 ], [ 103.347320531085387, 16.152733026137245, 0.0 ], [ 103.347347294209996, 16.152707776494957, 0.0 ], [ 103.347374071257249, 16.152682540647707, 0.0 ], [ 103.347400863611298, 16.152657319983696, 0.0 ], [ 103.347427672653765, 16.152632115893464, 0.0 ], [ 103.347454499763529, 16.152606929770155, 0.0 ], [ 103.347481346316485, 16.152581763009675, 0.0 ], [ 103.347508213685316, 16.152556617010944, 0.0 ], [ 103.347535103239224, 16.152531493176074, 0.0 ], [ 103.347562016343772, 16.152506392910599, 0.0 ], [ 103.34758895436056, 16.152481317623685, 0.0 ], [ 103.347615918647065, 16.152456268728301, 0.0 ], [ 103.347642910556331, 16.152431247641481, 0.0 ], [ 103.347669931436783, 16.152406255784477, 0.0 ], [ 103.347696982632002, 16.152381294583002, 0.0 ], [ 103.347724065480392, 16.152356365467401, 0.0 ], [ 103.347751181315019, 16.15233146987287, 0.0 ], [ 103.34845660817389, 16.151706402406706, 0.0 ], [ 103.349183682357832, 16.151104954173881, 0.0 ], [ 103.349931557622057, 16.150527825089942, 0.0 ], [ 103.350699363537956, 16.14997568676711, 0.0 ], [ 103.350729759878035, 16.149954626504339, 0.0 ], [ 103.350760184078396, 16.149933603858003, 0.0 ], [ 103.350790634931144, 16.149912617292848, 0.0 ], [ 103.350821111234353, 16.149891665269472, 0.0 ], [ 103.350851611791782, 16.149870746244453, 0.0 ], [ 103.350882135412604, 16.149849858670578, 0.0 ], [ 103.350912680911208, 16.149829000997066, 0.0 ], [ 103.350943247106827, 16.14980817166969, 0.0 ], [ 103.35097383282347, 16.149787369131001, 0.0 ], [ 103.351004436889525, 16.149766591820516, 0.0 ], [ 103.351035058137498, 16.149745838174898, 0.0 ], [ 103.351065695403861, 16.149725106628118, 0.0 ], [ 103.351096347528724, 16.149704395611685, 0.0 ], [ 103.351127013355566, 16.149683703554778, 0.0 ], [ 103.351157691731032, 16.149663028884458, 0.0 ], [ 103.351188381504599, 16.149642370025845, 0.0 ], [ 103.351219081528384, 16.149621725402273, 0.0 ], [ 103.35124979065688, 16.149601093435496, 0.0 ], [ 103.351280507746623, 16.149580472545878, 0.0 ], [ 103.351311231656027, 16.149559861152518, 0.0 ], [ 103.351341961245041, 16.149539257673474, 0.0 ], [ 103.351372695374963, 16.14951866052591, 0.0 ], [ 103.3514034329081, 16.149498068126331, 0.0 ], [ 103.35143417270757, 16.149477478890663, 0.0 ], [ 103.351464913637031, 16.149456891234507, 0.0 ], [ 103.36097709185205, 16.143086124934584, 0.0 ], [ 103.360998609358802, 16.143071712738102, 0.0 ], [ 103.361020127196568, 16.143057301005019, 0.0 ], [ 103.361041645699288, 16.143042890201215, 0.0 ], [ 103.361063165200903, 16.143028480792633, 0.0 ], [ 103.36108468603517, 16.143014073245265, 0.0 ], [ 103.361106208535801, 16.142999668025208, 0.0 ], [ 103.361127733036312, 16.14298526559865, 0.0 ], [ 103.361149259870018, 16.14297086643192, 0.0 ], [ 103.361170789370007, 16.142956470991489, 0.0 ], [ 103.361192321869126, 16.142942079744017, 0.0 ], [ 103.361213857699923, 16.142927693156345, 0.0 ], [ 103.361235397194591, 16.14291331169553, 0.0 ], [ 103.361256940685038, 16.142898935828867, 0.0 ], [ 103.361278488502705, 16.142884566023927, 0.0 ], [ 103.361300040978648, 16.142870202748529, 0.0 ], [ 103.361321598443482, 16.142855846470841, 0.0 ], [ 103.361343161227296, 16.142841497659298, 0.0 ], [ 103.361364729659684, 16.14282715678273, 0.0 ], [ 103.361386304069711, 16.142812824310294, 0.0 ], [ 103.361407884785791, 16.142798500711564, 0.0 ], [ 103.361429472135796, 16.142784186456502, 0.0 ], [ 103.361451066446875, 16.142769882015507, 0.0 ], [ 103.36147266804555, 16.14275558785943, 0.0 ], [ 103.36149427725762, 16.142741304459587, 0.0 ], [ 103.361515894408072, 16.142727032287787, 0.0 ], [ 103.362802577683212, 16.141907744513507, 0.0 ], [ 103.364116486330303, 16.141129876929259, 0.0 ], [ 103.365456193626528, 16.140394274122496, 0.0 ], [ 103.366820244885261, 16.139701734790478, 0.0 ], [ 103.36820715903346, 16.139053010874331, 0.0 ], [ 103.369615430217365, 16.138448806743888, 0.0 ], [ 103.371043529434843, 16.137889778434037, 0.0 ], [ 103.372489906192882, 16.137376532933455, 0.0 ], [ 103.373952990187959, 16.136909627526531, 0.0 ], [ 103.37543119300787, 16.136489569189081, 0.0 ], [ 103.37692290985305, 16.136116814038676, 0.0 ], [ 103.378426521275486, 16.135791766839993, 0.0 ], [ 103.379940394933513, 16.135514780565835, 0.0 ], [ 103.381462887360328, 16.13528615601426, 0.0 ], [ 103.381488819022678, 16.135282690965528, 0.0 ], [ 103.381514752607927, 16.135279239389032, 0.0 ], [ 103.381540688028892, 16.135275800724241, 0.0 ], [ 103.381566625199298, 16.135272374410491, 0.0 ], [ 103.381592564033738, 16.135268959886993, 0.0 ], [ 103.381618504447587, 16.13526555659287, 0.0 ], [ 103.381644446357058, 16.135262163967106, 0.0 ], [ 103.381670389679059, 16.13525878144862, 0.0 ], [ 103.38169633433121, 16.135255408476208, 0.0 ], [ 103.381722280231813, 16.135252044488595, 0.0 ], [ 103.381748227299767, 16.135248688924435, 0.0 ], [ 103.381774175454566, 16.135245341222259, 0.0 ], [ 103.381800124616277, 16.135242000820604, 0.0 ], [ 103.381826074705444, 16.135238667157854, 0.0 ], [ 103.381852025643084, 16.135235339672391, 0.0 ], [ 103.381877977350641, 16.135232017802537, 0.0 ], [ 103.381903929749967, 16.135228700986524, 0.0 ], [ 103.381929882763231, 16.135225388662587, 0.0 ], [ 103.381955836312969, 16.135222080268889, 0.0 ], [ 103.38198179032193, 16.135218775243573, 0.0 ], [ 103.38200774471315, 16.13521547302474, 0.0 ], [ 103.382033699409803, 16.135212173050494, 0.0 ], [ 103.382059654335279, 16.135208874758874, 0.0 ], [ 103.382085609413053, 16.135205577587943, 0.0 ], [ 103.382111564566657, 16.135202280975736, 0.0 ], [ 103.456357444692017, 16.12575890079011, 0.0 ], [ 103.456387105917884, 16.12575512292776, 0.0 ], [ 103.456416767285901, 16.125751346109752, 0.0 ], [ 103.456446428938889, 16.125747571384647, 0.0 ], [ 103.456476091019368, 16.12574379980105, 0.0 ], [ 103.456505753669546, 16.125740032407617, 0.0 ], [ 103.456535417031148, 16.125736270253029, 0.0 ], [ 103.456565081245301, 16.125732514386097, 0.0 ], [ 103.456594746452424, 16.125728765855701, 0.0 ], [ 103.456624412792081, 16.125725025710786, 0.0 ], [ 103.456654080402913, 16.125721295000481, 0.0 ], [ 103.456683749422467, 16.125717574774008, 0.0 ], [ 103.456713419987111, 16.125713866080741, 0.0 ], [ 103.456743092231918, 16.12571016997023, 0.0 ], [ 103.456772766290499, 16.125706487492192, 0.0 ], [ 103.456802442294958, 16.125702819696524, 0.0 ], [ 103.456832120375708, 16.125699167633357, 0.0 ], [ 103.456861800661358, 16.125695532352996, 0.0 ], [ 103.456891483278653, 16.125691914905996, 0.0 ], [ 103.456921168352267, 16.125688316343158, 0.0 ], [ 103.456950856004795, 16.125684737715538, 0.0 ], [ 103.45698054635649, 16.125681180074427, 0.0 ], [ 103.457010239525289, 16.125677644471413, 0.0 ], [ 103.457039935626582, 16.125674131958373, 0.0 ], [ 103.457069634773148, 16.125670643587476, 0.0 ], [ 103.457099337075022, 16.125667180411178, 0.0 ], [ 103.457957407242475, 16.125578588592308, 0.0 ], [ 103.458817595502055, 16.12551189596217, 0.0 ], [ 103.458847447166207, 16.125509977058787, 0.0 ], [ 103.458877300561142, 16.12550808347882, 0.0 ], [ 103.458907155593167, 16.125506214168315, 0.0 ], [ 103.458937012171376, 16.125504368073123, 0.0 ], [ 103.458966870207419, 16.125502544138946, 0.0 ], [ 103.458996729615507, 16.125500741311281, 0.0 ], [ 103.459026590312263, 16.125498958535495, 0.0 ], [ 103.459056452216558, 16.125497194756797, 0.0 ], [ 103.459086315249422, 16.125495448920244, 0.0 ], [ 103.459116179333932, 16.125493719970809, 0.0 ], [ 103.459146044395041, 16.1254920068533, 0.0 ], [ 103.459175910359576, 16.125490308512457, 0.0 ], [ 103.459205777155972, 16.125488623892892, 0.0 ], [ 103.459235644714241, 16.125486951939124, 0.0 ], [ 103.459265512965843, 16.125485291595623, 0.0 ], [ 103.459295381843546, 16.125483641806746, 0.0 ], [ 103.459325251281314, 16.125482001516801, 0.0 ], [ 103.459355121214202, 16.125480369670022, 0.0 ], [ 103.459384991578204, 16.125478745210611, 0.0 ], [ 103.459414862310183, 16.125477127082704, 0.0 ], [ 103.459444733347667, 16.125475514230413, 0.0 ], [ 103.459474604628838, 16.125473905597801, 0.0 ], [ 103.45950447609232, 16.125472300128912, 0.0 ], [ 103.459534347677121, 16.125470696767785, 0.0 ], [ 103.459564219322488, 16.125469094458424, 0.0 ], [ 103.461644209950961, 16.125357526046312, 0.0 ], [ 103.461674081609956, 16.125355923790465, 0.0 ], [ 103.461703953329462, 16.125354322586382, 0.0 ], [ 103.461733825169944, 16.125352723490089, 0.0 ], [ 103.461763697191643, 16.125351127557579, 0.0 ], [ 103.461793569454457, 16.125349535844901, 0.0 ], [ 103.461823442017746, 16.125347949408098, 0.0 ], [ 103.461853314940342, 16.12534636930328, 0.0 ], [ 103.461883188280325, 16.125344796586578, 0.0 ], [ 103.461913062094936, 16.125343232314147, 0.0 ], [ 103.461942936440465, 16.125341677542231, 0.0 ], [ 103.461972811372107, 16.125340133327096, 0.0 ], [ 103.46200268694389, 16.125338600725097, 0.0 ], [ 103.462032563208496, 16.125337080792619, 0.0 ], [ 103.462062440217196, 16.12533557458616, 0.0 ], [ 103.462092318019643, 16.125334083162254, 0.0 ], [ 103.462122196663913, 16.125332607577548, 0.0 ], [ 103.462152076196176, 16.125331148888751, 0.0 ], [ 103.462181956660757, 16.12532970815267, 0.0 ], [ 103.462211838099932, 16.125328286426207, 0.0 ], [ 103.462241720553777, 16.125326884766359, 0.0 ], [ 103.462271604060149, 16.125325504230208, 0.0 ], [ 103.462301488654475, 16.125324145874938, 0.0 ], [ 103.462331374369668, 16.125322810757861, 0.0 ], [ 103.462361261235984, 16.125321499936366, 0.0 ], [ 103.462391149280947, 16.125320214467951, 0.0 ], [ 103.463448809562337, 16.125291735852329, 0.0 ], [ 103.464506869892759, 16.125296320556494, 0.0 ], [ 103.46556422455771, 16.125333963834802, 0.0 ], [ 103.465594099522804, 16.12533550826646, 0.0 ], [ 103.465623973074941, 16.125337078040069, 0.0 ], [ 103.465653845251481, 16.12533867209843, 0.0 ], [ 103.465683716092471, 16.125340289384443, 0.0 ], [ 103.465713585640657, 16.125341928841138, 0.0 ], [ 103.465743453941258, 16.125343589411674, 0.0 ], [ 103.465773321041894, 16.125345270039336, 0.0 ], [ 103.465803186992503, 16.125346969667525, 0.0 ], [ 103.465833051845138, 16.125348687239732, 0.0 ], [ 103.465862915653901, 16.125350421699601, 0.0 ], [ 103.465892778474796, 16.125352171990841, 0.0 ], [ 103.465922640365662, 16.125353937057284, 0.0 ], [ 103.465952501385971, 16.125355715842844, 0.0 ], [ 103.465982361596801, 16.125357507291532, 0.0 ], [ 103.466012221060623, 16.125359310347445, 0.0 ], [ 103.466042079841216, 16.125361123954754, 0.0 ], [ 103.466071938003637, 16.125362947057692, 0.0 ], [ 103.466101795613937, 16.125364778600574, 0.0 ], [ 103.466131652739151, 16.125366617527746, 0.0 ], [ 103.466161509447161, 16.125368462783644, 0.0 ], [ 103.466191365806566, 16.125370313312697, 0.0 ], [ 103.466221221886556, 16.125372168059439, 0.0 ], [ 103.466251077756795, 16.125374025968359, 0.0 ], [ 103.466280933487326, 16.12537588598402, 0.0 ], [ 103.466310789148409, 16.125377747050987, 0.0 ], [ 103.486787249050906, 16.126653291132413, 0.0 ], [ 103.486824569441069, 16.126655613817046, 0.0 ], [ 103.48686188996075, 16.126657934571217, 0.0 ], [ 103.486899210737789, 16.126660251470927, 0.0 ], [ 103.486936531899289, 16.12666256259212, 0.0 ], [ 103.486973853571399, 16.126664866010682, 0.0 ], [ 103.487011175879061, 16.126667159802416, 0.0 ], [ 103.487048498945569, 16.126669442043038, 0.0 ], [ 103.487085822892297, 16.126671710808139, 0.0 ], [ 103.487123147838446, 16.126673964173186, 0.0 ], [ 103.487160473900587, 16.126676200213481, 0.0 ], [ 103.487197801192508, 16.126678417004161, 0.0 ], [ 103.487235129824739, 16.126680612620195, 0.0 ], [ 103.487272459904361, 16.126682785136335, 0.0 ], [ 103.487309791534557, 16.126684932627111, 0.0 ], [ 103.487347124814434, 16.126687053166844, 0.0 ], [ 103.487384459838637, 16.126689144829609, 0.0 ], [ 103.487421796696978, 16.126691205689237, 0.0 ], [ 103.487459135474211, 16.126693233819278, 0.0 ], [ 103.48749647624966, 16.12669522729302, 0.0 ], [ 103.487533819096896, 16.126697184183502, 0.0 ], [ 103.487571164083462, 16.126699102563421, 0.0 ], [ 103.487608511270466, 16.126700980505252, 0.0 ], [ 103.487645860712405, 16.126702816081139, 0.0 ], [ 103.487683212456702, 16.12670460736296, 0.0 ], [ 103.48772056654343, 16.126706352422271, 0.0 ], [ 103.488673060645112, 16.126734574969777, 0.0 ], [ 103.489625997273365, 16.12673150052143, 0.0 ], [ 103.49057827600042, 16.126697132589285, 0.0 ], [ 103.491528797156491, 16.126631510822182, 0.0 ], [ 103.492476463101198, 16.126534710960147, 0.0 ], [ 103.493420179492702, 16.126406844746889, 0.0 ], [ 103.494358856552907, 16.12624805980089, 0.0 ], [ 103.495291410327511, 16.126058539444855, 0.0 ], [ 103.496216763939216, 16.125838502493927, 0.0 ], [ 103.497133848832718, 16.125588203002859, 0.0 ], [ 103.498041606010133, 16.125307929972511, 0.0 ], [ 103.498938987255173, 16.124998007015812, 0.0 ], [ 103.499824956345037, 16.12465879198384, 0.0 ], [ 103.499859477267918, 16.124644888614885, 0.0 ], [ 103.499893979747725, 16.124630942538769, 0.0 ], [ 103.499928464499675, 16.124616955556153, 0.0 ], [ 103.499962932245779, 16.124602929465013, 0.0 ], [ 103.499997383714543, 16.124588866060762, 0.0 ], [ 103.500031819640668, 16.124574767136323, 0.0 ], [ 103.500066240764767, 16.124560634482286, 0.0 ], [ 103.500100647833008, 16.124546469886955, 0.0 ], [ 103.500135041596934, 16.124532275136517, 0.0 ], [ 103.500169422813016, 16.124518052015109, 0.0 ], [ 103.500203792242488, 16.124503802304947, 0.0 ], [ 103.500238150650944, 16.124489527786452, 0.0 ], [ 103.50027249880813, 16.124475230238353, 0.0 ], [ 103.500306837487585, 16.124460911437804, 0.0 ], [ 103.500341167466388, 16.124446573160501, 0.0 ], [ 103.500375489524814, 16.124432217180793, 0.0 ], [ 103.500409804446107, 16.124417845271825, 0.0 ], [ 103.50044411301613, 16.124403459205642, 0.0 ], [ 103.500478416023086, 16.124389060753291, 0.0 ], [ 103.500512714257255, 16.124374651684974, 0.0 ], [ 103.500547008510637, 16.124360233770162, 0.0 ], [ 103.500581299576751, 16.124345808777694, 0.0 ], [ 103.500615588250199, 16.124331378475929, 0.0 ], [ 103.500649875326559, 16.124316944632863, 0.0 ], [ 103.500684161601939, 16.124302509016225, 0.0 ], [ 103.553678615740637, 16.101980207442132, 0.0 ], [ 103.553706039075848, 16.101968651526885, 0.0 ], [ 103.553733462845258, 16.101957096577415, 0.0 ], [ 103.553760887485907, 16.101945543563343, 0.0 ], [ 103.553788313434566, 16.101933993454363, 0.0 ], [ 103.55381574112775, 16.101922447220332, 0.0 ], [ 103.553843171001461, 16.101910905831282, 0.0 ], [ 103.553870603491177, 16.101899370257474, 0.0 ], [ 103.55389803903175, 16.101887841469441, 0.0 ], [ 103.553925478057224, 16.10187632043807, 0.0 ], [ 103.553952921000771, 16.101864808134565, 0.0 ], [ 103.55398036829456, 16.101853305530586, 0.0 ], [ 103.554007820369691, 16.101841813598245, 0.0 ], [ 103.554035277656013, 16.101830333310151, 0.0 ], [ 103.554062740582083, 16.101818865639473, 0.0 ], [ 103.554090209575023, 16.101807411559953, 0.0 ], [ 103.554117685060376, 16.10179597204602, 0.0 ], [ 103.554145167462082, 16.101784548072729, 0.0 ], [ 103.554172657202272, 16.101773140615901, 0.0 ], [ 103.554200154701221, 16.101761750652127, 0.0 ], [ 103.554227660377208, 16.101750379158805, 0.0 ], [ 103.554255174646428, 16.101739027114188, 0.0 ], [ 103.554282697922844, 16.101727695497434, 0.0 ], [ 103.5543102306181, 16.10171638528865, 0.0 ], [ 103.554337773141413, 16.101705097468923, 0.0 ], [ 103.55436532589944, 16.101693833020366, 0.0 ], [ 103.555409762239591, 16.101287691297081, 0.0 ], [ 103.556468029033169, 16.100916519467855, 0.0 ], [ 103.557538874039153, 16.100580756767823, 0.0 ], [ 103.55862103015042, 16.10028080053376, 0.0 ], [ 103.559713216891154, 16.100017005734312, 0.0 ], [ 103.560814141929953, 16.099789684550387, 0.0 ], [ 103.56192250260699, 16.099599106005975, 0.0 ], [ 103.563036987473168, 16.099445495650095, 0.0 ], [ 103.563066672917856, 16.099441919726754, 0.0 ], [ 103.563096361597033, 16.099438368989798, 0.0 ], [ 103.563126053354452, 16.099434842392185, 0.0 ], [ 103.563155748036621, 16.099431338886536, 0.0 ], [ 103.563185445492621, 16.099427857425134, 0.0 ], [ 103.563215145574048, 16.099424396959968, 0.0 ], [ 103.563244848134914, 16.099420956442717, 0.0 ], [ 103.563274553031448, 16.099417534824823, 0.0 ], [ 103.563304260122052, 16.099414131057436, 0.0 ], [ 103.563333969267134, 16.099410744091475, 0.0 ], [ 103.563363680329047, 16.09940737287765, 0.0 ], [ 103.56339339317185, 16.099404016366449, 0.0 ], [ 103.56342310766135, 16.099400673508168, 0.0 ], [ 103.563452823664875, 16.099397343252924, 0.0 ], [ 103.563482541051158, 16.099394024550705, 0.0 ], [ 103.563512259690313, 16.09939071635128, 0.0 ], [ 103.563541979453547, 16.099387417604348, 0.0 ], [ 103.563571700213231, 16.099384127259469, 0.0 ], [ 103.56360142184262, 16.099380844266076, 0.0 ], [ 103.563631144215833, 16.099377567573526, 0.0 ], [ 103.56366086720773, 16.099374296131103, 0.0 ], [ 103.56369059069371, 16.099371028888012, 0.0 ], [ 103.563720314549712, 16.099367764793421, 0.0 ], [ 103.56375003865196, 16.09936450279644, 0.0 ], [ 103.563779762876976, 16.099361241846157, 0.0 ], [ 103.611525825017807, 16.094117928946098, 0.0 ], [ 103.611555548282197, 16.094114661572569, 0.0 ], [ 103.611585271669526, 16.094111395245744, 0.0 ], [ 103.611614995303242, 16.094108131016561, 0.0 ], [ 103.611644719306582, 16.094104869935975, 0.0 ], [ 103.611674443802414, 16.094101613054988, 0.0 ], [ 103.611704168913093, 16.094098361424656, 0.0 ], [ 103.611733894760434, 16.094095116096078, 0.0 ], [ 103.611763621465499, 16.094091878120459, 0.0 ], [ 103.611793349148542, 16.094088648549086, 0.0 ], [ 103.611823077928833, 16.094085428433331, 0.0 ], [ 103.611852807924592, 16.094082218824717, 0.0 ], [ 103.611882539252832, 16.094079020774856, 0.0 ], [ 103.611912272029272, 16.094075835335524, 0.0 ], [ 103.611942006368182, 16.094072663558642, 0.0 ], [ 103.611971742382295, 16.09406950649629, 0.0 ], [ 103.61200148018267, 16.094066365200728, 0.0 ], [ 103.61203121987856, 16.094063240724399, 0.0 ], [ 103.612060961577328, 16.094060134119943, 0.0 ], [ 103.612090705384304, 16.094057046440192, 0.0 ], [ 103.612120451402689, 16.094053978738216, 0.0 ], [ 103.612150199733364, 16.094050932067297, 0.0 ], [ 103.612179950474854, 16.094047907480935, 0.0 ], [ 103.612209703723209, 16.094044906032902, 0.0 ], [ 103.612239459571782, 16.094041928777216, 0.0 ], [ 103.612269218111251, 16.094038976768132, 0.0 ], [ 103.613366926165483, 16.093948590755794, 0.0 ], [ 103.61446715921835, 16.093893978212115, 0.0 ], [ 103.615568670510953, 16.093875201069768, 0.0 ], [ 103.616670211834744, 16.093892280653197, 0.0 ], [ 103.617770534943944, 16.093945197654364, 0.0 ], [ 103.618868392968082, 16.094033892154343, 0.0 ], [ 103.6199625418229, 16.094158263690947, 0.0 ], [ 103.621051741618174, 16.094318171372169, 0.0 ], [ 103.622134758060938, 16.094513434035438, 0.0 ], [ 103.623210363852237, 16.09474383045244, 0.0 ], [ 103.624277340076119, 16.095009099579265, 0.0 ], [ 103.625334477579301, 16.09530894085162, 0.0 ], [ 103.626380578339663, 16.095643014524835, 0.0 ], [ 103.627414456822336, 16.096010942058108, 0.0 ], [ 103.628434941321828, 16.096412306542828, 0.0 ], [ 103.629440875288381, 16.096846653174175, 0.0 ], [ 103.630431118637517, 16.097313489765764, 0.0 ], [ 103.631404549040838, 16.09781228730651, 0.0 ], [ 103.632360063197041, 16.098342480559321, 0.0 ], [ 103.633296578081342, 16.098903468700684, 0.0 ], [ 103.633321731856455, 16.098919124272737, 0.0 ], [ 103.633346871412471, 16.098934801180114, 0.0 ], [ 103.633371997323877, 16.098950498522417, 0.0 ], [ 103.633397110167451, 16.098966215400665, 0.0 ], [ 103.633422210522212, 16.098981950917242, 0.0 ], [ 103.633447298969301, 16.098997704175861, 0.0 ], [ 103.633472376091873, 16.099013474281506, 0.0 ], [ 103.633497442475004, 16.099029260340302, 0.0 ], [ 103.633522498705588, 16.099045061459552, 0.0 ], [ 103.633547545372252, 16.099060876747618, 0.0 ], [ 103.633572583065174, 16.099076705313859, 0.0 ], [ 103.633597612376107, 16.099092546268604, 0.0 ], [ 103.63362263389817, 16.099108398723043, 0.0 ], [ 103.633647648225818, 16.099124261789214, 0.0 ], [ 103.633672655954697, 16.099140134579894, 0.0 ], [ 103.633697657681552, 16.099156016208575, 0.0 ], [ 103.633722654004146, 16.099171905789387, 0.0 ], [ 103.633747645521126, 16.099187802437012, 0.0 ], [ 103.633772632831963, 16.09920370526665, 0.0 ], [ 103.63379761653681, 16.099219613393959, 0.0 ], [ 103.63382259723646, 16.099235525934969, 0.0 ], [ 103.633847575532144, 16.099251442006029, 0.0 ], [ 103.633872552025551, 16.099267360723744, 0.0 ], [ 103.633897527318638, 16.099283281204922, 0.0 ], [ 103.63392250201359, 16.099299202566463, 0.0 ], [ 103.649807864016225, 16.109425184618985, 0.0 ], [ 103.649832841335865, 16.109441104299748, 0.0 ], [ 103.649857819261882, 16.109457023094805, 0.0 ], [ 103.649882798396348, 16.109472940121037, 0.0 ], [ 103.649907779341277, 16.109488854495194, 0.0 ], [ 103.649932762698242, 16.109504765333831, 0.0 ], [ 103.649957749068506, 16.109520671753252, 0.0 ], [ 103.649982739052774, 16.109536572869427, 0.0 ], [ 103.650007733251215, 16.109552467797965, 0.0 ], [ 103.650032732263213, 16.109568355654019, 0.0 ], [ 103.650057736687415, 16.109584235552216, 0.0 ], [ 103.65008274712153, 16.109600106606642, 0.0 ], [ 103.650107764162257, 16.109615967930733, 0.0 ], [ 103.650132788405244, 16.109631818637205, 0.0 ], [ 103.650157820444875, 16.109647657838039, 0.0 ], [ 103.650182860874239, 16.109663484644393, 0.0 ], [ 103.650207910285033, 16.109679298166522, 0.0 ], [ 103.650232969267421, 16.109695097513736, 0.0 ], [ 103.650258038409987, 16.109710881794342, 0.0 ], [ 103.650283118299569, 16.109726650115565, 0.0 ], [ 103.650308209521185, 16.109742401583517, 0.0 ], [ 103.650333312657992, 16.109758135303093, 0.0 ], [ 103.650358428291057, 16.109773850377955, 0.0 ], [ 103.650383556999344, 16.109789545910424, 0.0 ], [ 103.650408699359645, 16.109805221001473, 0.0 ], [ 103.650433855946318, 16.109820874750636, 0.0 ], [ 103.651342311465442, 16.110365531635424, 0.0 ], [ 103.652268690602924, 16.110881208482056, 0.0 ], [ 103.653212004477211, 16.11136735470842, 0.0 ], [ 103.654171246102152, 16.111823451254597, 0.0 ], [ 103.655145391462781, 16.112249011137791, 0.0 ], [ 103.656133400609377, 16.112643579973071, 0.0 ], [ 103.657134218768874, 16.113006736459219, 0.0 ], [ 103.658146777471856, 16.113338092829288, 0.0 ], [ 103.659169995694626, 16.113637295265235, 0.0 ], [ 103.660202781014505, 16.113904024276405, 0.0 ], [ 103.66124403077761, 16.114137995041197, 0.0 ], [ 103.662292633277502, 16.114338957711787, 0.0 ], [ 103.662322074041128, 16.114344104997055, 0.0 ], [ 103.662351519468857, 16.114349227296689, 0.0 ], [ 103.662380969345136, 16.114354325647888, 0.0 ], [ 103.662410423457132, 16.114359401088343, 0.0 ], [ 103.66243988159458, 16.114364454656194, 0.0 ], [ 103.662469343549745, 16.114369487390043, 0.0 ], [ 103.662498809117196, 16.114374500328886, 0.0 ], [ 103.662528278093802, 16.114379494512132, 0.0 ], [ 103.662557750278523, 16.114384470979545, 0.0 ], [ 103.662587225472322, 16.114389430771233, 0.0 ], [ 103.662616703478093, 16.114394374927649, 0.0 ], [ 103.662646184100453, 16.114399304489535, 0.0 ], [ 103.662675667145734, 16.114404220497899, 0.0 ], [ 103.662705152421765, 16.114409123994051, 0.0 ], [ 103.662734639737792, 16.114414016019502, 0.0 ], [ 103.662764128904371, 16.114418897615995, 0.0 ], [ 103.662793619733279, 16.114423769825464, 0.0 ], [ 103.662823112037302, 16.114428633690036, 0.0 ], [ 103.662852605630206, 16.114433490251979, 0.0 ], [ 103.662882100326556, 16.114438340553711, 0.0 ], [ 103.662911595941665, 16.114443185637761, 0.0 ], [ 103.662941092291405, 16.114448026546736, 0.0 ], [ 103.662970589192156, 16.114452864323361, 0.0 ], [ 103.663000086460642, 16.114457700010387, 0.0 ], [ 103.663029583913797, 16.114462534650627, 0.0 ], [ 103.680498500583894, 16.117324840788427, 0.0 ], [ 103.680527999073618, 16.117329673072401, 0.0 ], [ 103.680557497382253, 16.117334506395242, 0.0 ], [ 103.680586995326848, 16.117339341799777, 0.0 ], [ 103.68061649272417, 16.117344180328786, 0.0 ], [ 103.680645989390726, 16.11734902302501, 0.0 ], [ 103.680675485142444, 16.11735387093108, 0.0 ], [ 103.680704979794754, 16.117358725089549, 0.0 ], [ 103.680734473162317, 16.117363586542861, 0.0 ], [ 103.680763965058986, 16.117368456333317, 0.0 ], [ 103.68079345529766, 16.117373335503046, 0.0 ], [ 103.680822943690174, 16.117378225094019, 0.0 ], [ 103.68085243004721, 16.11738312614801, 0.0 ], [ 103.680881914178116, 16.117388039706547, 0.0 ], [ 103.680911395890817, 16.117392966810964, 0.0 ], [ 103.680940874991734, 16.117397908502298, 0.0 ], [ 103.680970351285609, 16.11740286582133, 0.0 ], [ 103.680999824575409, 16.117407839808507, 0.0 ], [ 103.681029294662238, 16.117412831504002, 0.0 ], [ 103.681058761345142, 16.117417841947582, 0.0 ], [ 103.681088224421089, 16.1174228721787, 0.0 ], [ 103.681117683684789, 16.117427923236374, 0.0 ], [ 103.68114713892858, 16.117432996159234, 0.0 ], [ 103.681176589942325, 16.117438091985452, 0.0 ], [ 103.681206036513302, 16.11744321175275, 0.0 ], [ 103.681235478426061, 16.117448356498347, 0.0 ], [ 103.682307213452859, 16.117654034555432, 0.0 ], [ 103.683371250559802, 16.117894180380034, 0.0 ], [ 103.684426403967663, 16.118168526397358, 0.0 ], [ 103.685471497780739, 16.118476766918135, 0.0 ], [ 103.686505367295609, 16.118818558478594, 0.0 ], [ 103.687526860297652, 16.119193520222574, 0.0 ], [ 103.688534838343756, 16.119601234325241, 0.0 ], [ 103.689528178029661, 16.120041246457987, 0.0 ], [ 103.690505772240897, 16.120513066293896, 0.0 ], [ 103.691466531385387, 16.121016168053412, 0.0 ], [ 103.692409384606975, 16.121549991089413, 0.0 ], [ 103.693333280977981, 16.122113940511134, 0.0 ], [ 103.694237190669767, 16.12270738784628, 0.0 ], [ 103.695120106099978, 16.123329671740489, 0.0 ], [ 103.695981043055099, 16.123980098693483, 0.0 ], [ 103.696004298033756, 16.123998296814651, 0.0 ], [ 103.696027536483811, 16.124016514656873, 0.0 ], [ 103.696050759077337, 16.124034751385182, 0.0 ], [ 103.696073966488569, 16.124053006166275, 0.0 ], [ 103.696097159393787, 16.124071278168451, 0.0 ], [ 103.696120338471232, 16.124089566561544, 0.0 ], [ 103.69614350440105, 16.124107870516827, 0.0 ], [ 103.696166657865106, 16.124126189206969, 0.0 ], [ 103.696189799546971, 16.124144521805977, 0.0 ], [ 103.696212930131821, 16.124162867489069, 0.0 ], [ 103.696236050306297, 16.12418122543264, 0.0 ], [ 103.696259160758416, 16.124199594814225, 0.0 ], [ 103.696282262177519, 16.124217974812332, 0.0 ], [ 103.696305355254168, 16.124236364606446, 0.0 ], [ 103.696328440679991, 16.124254763376957, 0.0 ], [ 103.696351519147711, 16.124273170305031, 0.0 ], [ 103.696374591350903, 16.124291584572603, 0.0 ], [ 103.696397657984022, 16.124310005362243, 0.0 ], [ 103.696420719742235, 16.124328431857126, 0.0 ], [ 103.696443777321392, 16.124346863240941, 0.0 ], [ 103.696466831417837, 16.124365298697828, 0.0 ], [ 103.696489882728471, 16.124383737412284, 0.0 ], [ 103.69651293195048, 16.124402178569095, 0.0 ], [ 103.696535979781373, 16.124420621353305, 0.0 ], [ 103.696559026918806, 16.124439064950064, 0.0 ], [ 103.730223458992398, 16.151373485831847, 0.0 ], [ 103.730246512225378, 16.151391926464338, 0.0 ], [ 103.73026956476491, 16.151410367909431, 0.0 ], [ 103.730292615913072, 16.151428810981894, 0.0 ], [ 103.73031566497184, 16.151447256496347, 0.0 ], [ 103.730338711242851, 16.151465705267185, 0.0 ], [ 103.730361754027385, 16.151484158108492, 0.0 ], [ 103.730384792626268, 16.151502615833987, 0.0 ], [ 103.730407826339757, 16.151521079256973, 0.0 ], [ 103.730430854467485, 16.151539549190193, 0.0 ], [ 103.730453876308331, 16.151558026445826, 0.0 ], [ 103.730476891160336, 16.151576511835376, 0.0 ], [ 103.730499898320645, 16.151595006169593, 0.0 ], [ 103.730522897085379, 16.151613510258414, 0.0 ], [ 103.73054588674951, 16.151632024910903, 0.0 ], [ 103.730568866606873, 16.151650550935141, 0.0 ], [ 103.730591835950008, 16.151669089138164, 0.0 ], [ 103.730614794070007, 16.151687640325889, 0.0 ], [ 103.730637740256597, 16.151706205303036, 0.0 ], [ 103.730660673797857, 16.151724784873082, 0.0 ], [ 103.730683593980274, 16.151743379838106, 0.0 ], [ 103.730706500088544, 16.151761990998807, 0.0 ], [ 103.730729391405561, 16.151780619154376, 0.0 ], [ 103.730752267212296, 16.151799265102394, 0.0 ], [ 103.730775126787719, 16.151817929638817, 0.0 ], [ 103.730797969408655, 16.151836613557865, 0.0 ], [ 103.731605479064811, 16.1525200008195, 0.0 ], [ 103.732389376127827, 16.153228608155327, 0.0 ], [ 103.733148817605411, 16.153961673804467, 0.0 ], [ 103.733882986768208, 16.154718409702049, 0.0 ], [ 103.734591094028318, 16.155498002325565, 0.0 ], [ 103.735272377788789, 16.156299613568596, 0.0 ], [ 103.735926105262976, 16.157122381641031, 0.0 ], [ 103.73655157326327, 16.157965421994732, 0.0 ], [ 103.737148108958024, 16.158827828273761, 0.0 ], [ 103.737715070596053, 16.159708673287998, 0.0 ], [ 103.738251848197777, 16.16060701000929, 0.0 ], [ 103.738757864212403, 16.161521872588942, 0.0 ], [ 103.739232574140317, 16.162452277395467, 0.0 ], [ 103.739245355272658, 16.162478429350255, 0.0 ], [ 103.739258112652394, 16.162504592136244, 0.0 ], [ 103.739270847260187, 16.16253076528319, 0.0 ], [ 103.739283560077766, 16.162556948323264, 0.0 ], [ 103.739296252088081, 16.16258314079095, 0.0 ], [ 103.739308924275136, 16.162609342222929, 0.0 ], [ 103.739321577623954, 16.162635552157969, 0.0 ], [ 103.739334213120557, 16.162661770136847, 0.0 ], [ 103.73934683175186, 16.162687995702218, 0.0 ], [ 103.739359434505673, 16.162714228398531, 0.0 ], [ 103.739372022370603, 16.162740467771901, 0.0 ], [ 103.739384596336038, 16.162766713370036, 0.0 ], [ 103.739397157392062, 16.16279296474211, 0.0 ], [ 103.739409706529415, 16.162819221438671, 0.0 ], [ 103.739422244739444, 16.16284548301152, 0.0 ], [ 103.739434773014096, 16.162871749013618, 0.0 ], [ 103.739447292345744, 16.16289801899898, 0.0 ], [ 103.739459803727271, 16.162924292522579, 0.0 ], [ 103.73947230815196, 16.162950569140214, 0.0 ], [ 103.739484806613405, 16.162976848408423, 0.0 ], [ 103.739497300105569, 16.163003129884405, 0.0 ], [ 103.739509789622616, 16.163029413125845, 0.0 ], [ 103.739522276158908, 16.163055697690869, 0.0 ], [ 103.739534760708978, 16.163081983137914, 0.0 ], [ 103.73954724426747, 16.163108269025656, 0.0 ], [ 103.743386801439684, 16.171192790783245, 0.0 ], [ 103.743399285621265, 16.171219076644668, 0.0 ], [ 103.7434117688112, 16.171245362946735, 0.0 ], [ 103.743424250014684, 16.171271650130535, 0.0 ], [ 103.743436728236873, 16.171297938636975, 0.0 ], [ 103.743449202482665, 16.171324228906624, 0.0 ], [ 103.743461671756862, 16.171350521379622, 0.0 ], [ 103.743474135063948, 16.171376816495602, 0.0 ], [ 103.743486591408157, 16.171403114693558, 0.0 ], [ 103.743499039793306, 16.17142941641174, 0.0 ], [ 103.743511479222889, 16.171455722087554, 0.0 ], [ 103.743523908699885, 16.171482032157456, 0.0 ], [ 103.743536327226835, 16.17150834705685, 0.0 ], [ 103.743548733805682, 16.171534667219984, 0.0 ], [ 103.743561127437815, 16.171560993079819, 0.0 ], [ 103.743573507123912, 16.17158732506795, 0.0 ], [ 103.743585871864056, 16.171613663614515, 0.0 ], [ 103.743598220657518, 16.171640009148021, 0.0 ], [ 103.743610552502787, 16.171666362095319, 0.0 ], [ 103.743622866397558, 16.171692722881442, 0.0 ], [ 103.743635161338574, 16.171719091929528, 0.0 ], [ 103.743647436321737, 16.171745469660681, 0.0 ], [ 103.7436596903419, 16.171771856493905, 0.0 ], [ 103.74367192239292, 16.171798252845967, 0.0 ], [ 103.743684131467589, 16.171824659131303, 0.0 ], [ 103.743696316557603, 16.171851075761889, 0.0 ], [ 103.744064314398955, 16.172681557529138, 0.0 ], [ 103.744407625244008, 16.173521855587936, 0.0 ], [ 103.744418204871579, 16.173548910598566, 0.0 ], [ 103.74442875992537, 16.173575974572273, 0.0 ], [ 103.744439291421756, 16.173603047116025, 0.0 ], [ 103.744449800378135, 16.173630127839264, 0.0 ], [ 103.744460287812771, 16.173657216353842, 0.0 ], [ 103.744470754744896, 16.173684312273856, 0.0 ], [ 103.744481202194578, 16.173711415215603, 0.0 ], [ 103.744491631182669, 16.173738524797429, 0.0 ], [ 103.744502042730815, 16.17376564063963, 0.0 ], [ 103.744512437861374, 16.17379276236435, 0.0 ], [ 103.744522817597343, 16.173819889595492, 0.0 ], [ 103.744533182962414, 16.173847021958561, 0.0 ], [ 103.744543534980778, 16.173874159080601, 0.0 ], [ 103.744553874677266, 16.173901300590057, 0.0 ], [ 103.744564203077132, 16.173928446116697, 0.0 ], [ 103.744574521206147, 16.173955595291485, 0.0 ], [ 103.74458483009046, 16.173982747746447, 0.0 ], [ 103.744595130756593, 16.174009903114623, 0.0 ], [ 103.744605424231423, 16.174037061029917, 0.0 ], [ 103.744615711542124, 16.174064221126969, 0.0 ], [ 103.744625993716085, 16.174091383041105, 0.0 ], [ 103.744636271780905, 16.174118546408174, 0.0 ], [ 103.744646546764386, 16.174145710864472, 0.0 ], [ 103.744656819694413, 16.174172876046626, 0.0 ], [ 103.74466709159897, 16.174200041591469, 0.0 ], [ 103.744917538721083, 16.174862395723586, 0.0 ], [ 103.744927810690768, 16.174889561259153, 0.0 ], [ 103.744938083691068, 16.174916726431295, 0.0 ], [ 103.744948358749951, 16.17494389087685, 0.0 ], [ 103.744958636895319, 16.174971054232451, 0.0 ], [ 103.744968919154985, 16.174998216134369, 0.0 ], [ 103.744979206556536, 16.175025376218471, 0.0 ], [ 103.744989500127403, 16.175052534120059, 0.0 ], [ 103.74499980089476, 16.175079689473797, 0.0 ], [ 103.74501010988547, 16.175106841913575, 0.0 ], [ 103.745020428126082, 16.175133991072414, 0.0 ], [ 103.745030756642777, 16.17516113658235, 0.0 ], [ 103.745041096461307, 16.175188278074351, 0.0 ], [ 103.745051448606972, 16.175215415178158, 0.0 ], [ 103.745061814104588, 16.175242547522227, 0.0 ], [ 103.745072193978402, 16.175269674733592, 0.0 ], [ 103.745082589252078, 16.17529679643776, 0.0 ], [ 103.745093000948671, 16.175323912258616, 0.0 ], [ 103.745103430090538, 16.175351021818301, 0.0 ], [ 103.745113877699339, 16.175378124737108, 0.0 ], [ 103.745124344795983, 16.175405220633376, 0.0 ], [ 103.745134832400524, 16.175432309123391, 0.0 ], [ 103.745145341532222, 16.175459389821246, 0.0 ], [ 103.745155873209399, 16.175486462338782, 0.0 ], [ 103.745166428449437, 16.175513526285432, 0.0 ], [ 103.745177008268769, 16.175540581268155, 0.0 ], [ 103.745520327357355, 16.176380876522575, 0.0 ], [ 103.745888339310284, 16.177211354486175, 0.0 ], [ 103.745900524976449, 16.177237771022629, 0.0 ], [ 103.745912734633919, 16.177264177212557, 0.0 ], [ 103.745924967274377, 16.177290573467936, 0.0 ], [ 103.745937221890586, 16.177316960203214, 0.0 ], [ 103.745949497476403, 16.177343337835147, 0.0 ], [ 103.745961793026694, 16.177369706782752, 0.0 ], [ 103.745974107537322, 16.177396067467136, 0.0 ], [ 103.745986440005026, 16.177422420311437, 0.0 ], [ 103.745998789427475, 16.177448765740685, 0.0 ], [ 103.74601115480317, 16.177475104181742, 0.0 ], [ 103.746023535131343, 16.177501436063128, 0.0 ], [ 103.746035929412059, 16.177527761814975, 0.0 ], [ 103.746048336645998, 16.177554081868891, 0.0 ], [ 103.746060755834506, 16.177580396657845, 0.0 ], [ 103.746073185979554, 16.177606706616075, 0.0 ], [ 103.746085626083598, 16.177633012179005, 0.0 ], [ 103.746098075149646, 16.177659313783092, 0.0 ], [ 103.746110532181149, 16.177685611865758, 0.0 ], [ 103.74612299618191, 16.177711906865252, 0.0 ], [ 103.746135466156119, 16.177738199220588, 0.0 ], [ 103.746147941108276, 16.177764489371395, 0.0 ], [ 103.746160420043083, 16.177790777757821, 0.0 ], [ 103.746172901965508, 16.177817064820463, 0.0 ], [ 103.746185385880622, 16.17784335100022, 0.0 ], [ 103.746197870793594, 16.177869636738187, 0.0 ], [ 103.748607297977344, 16.182942230974859, 0.0 ], [ 103.748619783822889, 16.182968516456391, 0.0 ], [ 103.748632270666278, 16.182994801496065, 0.0 ], [ 103.74864475950227, 16.183021085652516, 0.0 ], [ 103.74865725132544, 16.183047368484154, 0.0 ], [ 103.748669747130279, 16.183073649549051, 0.0 ], [ 103.748682247911049, 16.183099928404868, 0.0 ], [ 103.74869475466177, 16.183126204608772, 0.0 ], [ 103.748707268376151, 16.18315247771724, 0.0 ], [ 103.748719790047545, 16.18317874728606, 0.0 ], [ 103.748732320668935, 16.183205012870147, 0.0 ], [ 103.748744861232822, 16.18323127402348, 0.0 ], [ 103.748757412731209, 16.183257530298974, 0.0 ], [ 103.748769976155543, 16.183283781248406, 0.0 ], [ 103.748782552496664, 16.183310026422273, 0.0 ], [ 103.748795142744768, 16.183336265369704, 0.0 ], [ 103.74880774788933, 16.18336249763837, 0.0 ], [ 103.748820368919056, 16.183388722774342, 0.0 ], [ 103.748833006821826, 16.183414940322038, 0.0 ], [ 103.748845662584714, 16.183441149824056, 0.0 ], [ 103.748858337193795, 16.183467350821132, 0.0 ], [ 103.748871031634209, 16.183493542851998, 0.0 ], [ 103.748883746890073, 16.183519725453287, 0.0 ], [ 103.748896483944407, 16.183545898159437, 0.0 ], [ 103.748909243779096, 16.183572060502573, 0.0 ], [ 103.748922027374846, 16.183598212012416, 0.0 ], [ 103.749362057786527, 16.184462998350977, 0.0 ], [ 103.749829146491038, 16.185314430544441, 0.0 ], [ 103.74984357811843, 16.18533976869713, 0.0 ], [ 103.749858032758269, 16.185365094598929, 0.0 ], [ 103.749872509441403, 16.185390408741949, 0.0 ], [ 103.749887007200002, 16.185415711620653, 0.0 ], [ 103.7499015250675, 16.185441003731729, 0.0 ], [ 103.749916062078555, 16.185466285574019, 0.0 ], [ 103.749930617268959, 16.185491557648373, 0.0 ], [ 103.749945189675614, 16.185516820457611, 0.0 ], [ 103.749959778336475, 16.185542074506365, 0.0 ], [ 103.749974382290461, 16.185567320300965, 0.0 ], [ 103.749989000577443, 16.185592558349406, 0.0 ], [ 103.750003632238148, 16.18561778916121, 0.0 ], [ 103.750018276314151, 16.185643013247269, 0.0 ], [ 103.750032931847755, 16.185668231119838, 0.0 ], [ 103.750047597882002, 16.185693443292372, 0.0 ], [ 103.750062273460514, 16.18571865027943, 0.0 ], [ 103.750076957627584, 16.185743852596602, 0.0 ], [ 103.750091649427972, 16.185769050760385, 0.0 ], [ 103.750106347906936, 16.185794245288069, 0.0 ], [ 103.750121052110131, 16.185819436697678, 0.0 ], [ 103.750135761083584, 16.185844625507816, 0.0 ], [ 103.750150473873589, 16.185869812237616, 0.0 ], [ 103.750165189526726, 16.185894997406603, 0.0 ], [ 103.750179907089674, 16.185920181534605, 0.0 ], [ 103.750194625609296, 16.185945365141659, 0.0 ], [ 103.750400645950876, 16.186297863280643, 0.0 ], [ 103.750415364524059, 16.186323046875469, 0.0 ], [ 103.750430082147687, 16.186348230989616, 0.0 ], [ 103.750444797868639, 16.18637341614312, 0.0 ], [ 103.75045951073362, 16.186398602855817, 0.0 ], [ 103.750474219789155, 16.186423791647218, 0.0 ], [ 103.750488924081566, 16.186448983036478, 0.0 ], [ 103.750503622656879, 16.186474177542195, 0.0 ], [ 103.750518314560708, 16.186499375682391, 0.0 ], [ 103.750532998838338, 16.186524577974374, 0.0 ], [ 103.750547674534531, 16.186549784934648, 0.0 ], [ 103.750562340693506, 16.186574997078786, 0.0 ], [ 103.750576996358959, 16.186600214921373, 0.0 ], [ 103.750591640573859, 16.186625438975859, 0.0 ], [ 103.750606272380523, 16.186650669754513, 0.0 ], [ 103.750620890820528, 16.18667590776824, 0.0 ], [ 103.750635494934556, 16.186701153526556, 0.0 ], [ 103.750650083762494, 16.186726407537453, 0.0 ], [ 103.750664656343261, 16.186751670307302, 0.0 ], [ 103.750679211714754, 16.186776942340721, 0.0 ], [ 103.750693748913875, 16.186802224140546, 0.0 ], [ 103.750708266976417, 16.186827516207643, 0.0 ], [ 103.750722764937009, 16.186852819040858, 0.0 ], [ 103.750737241829043, 16.186878133136901, 0.0 ], [ 103.750751696684716, 16.186903458990223, 0.0 ], [ 103.750766128534835, 16.186928797092957, 0.0 ], [ 103.751233227927457, 16.187780225755876, 0.0 ], [ 103.751673276163416, 16.188645007220391, 0.0 ], [ 103.751686060414272, 16.18867115859938, 0.0 ], [ 103.751698820909908, 16.188697320810761, 0.0 ], [ 103.75171155863103, 16.18872349338422, 0.0 ], [ 103.751724274559507, 16.188749675851902, 0.0 ], [ 103.75173696967839, 16.188775867748234, 0.0 ], [ 103.751749644971781, 16.188802068609849, 0.0 ], [ 103.751762301424833, 16.188828277975471, 0.0 ], [ 103.751774940023665, 16.188854495385815, 0.0 ], [ 103.751787561755322, 16.188880720383487, 0.0 ], [ 103.751800167607684, 16.188906952512891, 0.0 ], [ 103.751812758569514, 16.18893319132011, 0.0 ], [ 103.751825335630286, 16.188959436352782, 0.0 ], [ 103.751837899780185, 16.188985687160027, 0.0 ], [ 103.751850452010089, 16.18901194329236, 0.0 ], [ 103.751862993311462, 16.189038204301518, 0.0 ], [ 103.751875524676308, 16.189064469740416, 0.0 ], [ 103.751888047097168, 16.189090739163035, 0.0 ], [ 103.751900561567027, 16.189117012124274, 0.0 ], [ 103.751913069079251, 16.189143288179903, 0.0 ], [ 103.751925570627591, 16.189169566886395, 0.0 ], [ 103.751938067206069, 16.189195847800903, 0.0 ], [ 103.751950559809003, 16.189222130481063, 0.0 ], [ 103.751963049430856, 16.18924841448495, 0.0 ], [ 103.751975537066272, 16.18927469937098, 0.0 ], [ 103.751988023709998, 16.18930098469772, 0.0 ], [ 103.754449359221596, 16.194482226343045, 0.0 ], [ 103.754461846479856, 16.194508511557736, 0.0 ], [ 103.754474334736045, 16.194534796330572, 0.0 ], [ 103.754486824984895, 16.194561080220122, 0.0 ], [ 103.754499318221107, 16.19458736278478, 0.0 ], [ 103.754511815439187, 16.194613643582603, 0.0 ], [ 103.754524317633425, 16.194639922171241, 0.0 ], [ 103.754536825797928, 16.1946661981078, 0.0 ], [ 103.754549340926431, 16.194692470948773, 0.0 ], [ 103.754561864012345, 16.194718740249886, 0.0 ], [ 103.754574396048696, 16.194745005566062, 0.0 ], [ 103.754586938028012, 16.194771266451244, 0.0 ], [ 103.754599490942383, 16.194797522458323, 0.0 ], [ 103.754612055783298, 16.194823773139056, 0.0 ], [ 103.754624633541638, 16.194850018043905, 0.0 ], [ 103.754637225207631, 16.194876256721997, 0.0 ], [ 103.75464983177082, 16.194902488720956, 0.0 ], [ 103.75466245421994, 16.19492871358684, 0.0 ], [ 103.754675093542957, 16.194954930864032, 0.0 ], [ 103.754687750726944, 16.194981140095127, 0.0 ], [ 103.754700426758063, 16.195007340820837, 0.0 ], [ 103.754713122621496, 16.195033532579849, 0.0 ], [ 103.754725839301386, 16.195059714908787, 0.0 ], [ 103.754738577780813, 16.195085887342056, 0.0 ], [ 103.754751339041718, 16.195112049411772, 0.0 ], [ 103.754764124064835, 16.195138200647612, 0.0 ], [ 103.755248560354829, 16.196086582938392, 0.0 ], [ 103.755765539429092, 16.197018786374034, 0.0 ], [ 103.756314483788429, 16.197933768765822, 0.0 ], [ 103.756894780172317, 16.198830507161919, 0.0 ], [ 103.757505780242994, 16.199707998991769, 0.0 ], [ 103.758146801308655, 16.200565263187748, 0.0 ], [ 103.758817127085578, 16.201401341282892, 0.0 ], [ 103.759516008497542, 16.202215298483335, 0.0 ], [ 103.76024266451239, 16.203006224714308, 0.0 ], [ 103.76099628301435, 16.203773235638632, 0.0 ], [ 103.761776021711214, 16.204515473646381, 0.0 ], [ 103.762581009075575, 16.205232108814737, 0.0 ], [ 103.763410345318746, 16.205922339836857, 0.0 ], [ 103.764263103396587, 16.206585394918843, 0.0 ], [ 103.765138330045886, 16.207220532643671, 0.0 ], [ 103.765162569908625, 16.207237502043036, 0.0 ], [ 103.76518682518126, 16.207254450876299, 0.0 ], [ 103.765211095204336, 16.207271379988008, 0.0 ], [ 103.765235379320629, 16.207288290224309, 0.0 ], [ 103.76525967687509, 16.20730518243284, 0.0 ], [ 103.765283987214659, 16.20732205746268, 0.0 ], [ 103.76530830968828, 16.207338916164268, 0.0 ], [ 103.765332643646659, 16.207355759389348, 0.0 ], [ 103.765356988442335, 16.207372587990871, 0.0 ], [ 103.765381343429468, 16.207389402822955, 0.0 ], [ 103.765405707963765, 16.207406204740799, 0.0 ], [ 103.765430081402442, 16.207422994600616, 0.0 ], [ 103.765454463104035, 16.207439773259569, 0.0 ], [ 103.765478852428359, 16.207456541575702, 0.0 ], [ 103.765503248736437, 16.207473300407862, 0.0 ], [ 103.765527651390315, 16.20749005061564, 0.0 ], [ 103.765552059753048, 16.207506793059313, 0.0 ], [ 103.765576473188574, 16.207523528599737, 0.0 ], [ 103.765600891061609, 16.207540258098334, 0.0 ], [ 103.765625312737527, 16.207556982416975, 0.0 ], [ 103.765649737582365, 16.207573702417953, 0.0 ], [ 103.765674164962547, 16.207590418963882, 0.0 ], [ 103.765698594244981, 16.207607132917655, 0.0 ], [ 103.765723024796827, 16.207623845142358, 0.0 ], [ 103.765747455985434, 16.207640556501222, 0.0 ], [ 103.768496058359901, 16.209520589401784, 0.0 ] ] } }
]
}
