{
"type": "FeatureCollection",
"name": "fence",
"crs": { "type": "name", "properties": { "name": "urn:ogc:def:crs:OGC:1.3:CRS84" } },
"features": [
{ "type": "Feature", "properties": { "id": null }, "geometry": { "type": "MultiLineString", "coordinates": [ [ [ 103.667373907968965, 16.114838195185733 ], [ 103.675722807663504, 16.116206768129032 ] ] ] } },
{ "type": "Feature", "properties": { "id": null }, "geometry": { "type": "MultiLineString", "coordinates": [ [ [ 103.697194679283726, 16.124515282834754 ], [ 103.697591797532596, 16.124830960448264 ] ] ] } },
{ "type": "Feature", "properties": { "id": null }, "geometry": { "type": "MultiLineString", "coordinates": [ [ [ 103.697745527187493, 16.124952221212613 ], [ 103.70064982473211, 16.127278875735392 ] ] ] } },
{ "type": "Feature", "properties": { "id": null }, "geometry": { "type": "MultiLineString", "coordinates": [ [ [ 103.700827740721152, 16.127421718587001 ], [ 103.70163976888324, 16.128071148526054 ] ] ] } },
{ "type": "Feature", "properties": { "id": null }, "geometry": { "type": "MultiLineString", "coordinates": [ [ [ 103.701702398760148, 16.128120972588903 ], [ 103.707148316896834, 16.132477367920416 ] ] ] } },
{ "type": "Feature", "properties": { "id": null }, "geometry": { "type": "MultiLineString", "coordinates": [ [ [ 103.705581208668306, 16.13209306488152 ], [ 103.706773323763571, 16.133046973649716 ] ] ] } },
{ "type": "Feature", "properties": { "id": null }, "geometry": { "type": "MultiLineString", "coordinates": [ [ [ 103.706977588393286, 16.133210025493703 ], [ 103.710149027351349, 16.135748403047572 ] ] ] } },
{ "type": "Feature", "properties": { "id": null }, "geometry": { "type": "MultiLineString", "coordinates": [ [ [ 103.710278921744191, 16.135851878034831 ], [ 103.71428071236511, 16.139053884891041 ] ] ] } },
{ "type": "Feature", "properties": { "id": null }, "geometry": { "type": "MultiLineString", "coordinates": [ [ [ 103.719362270619143, 16.142251249269215 ], [ 103.722967512994259, 16.145135050524065 ] ] ] } },
{ "type": "Feature", "properties": { "id": null }, "geometry": { "type": "MultiLineString", "coordinates": [ [ [ 103.72364230515177, 16.145675015286404 ], [ 103.724378324865398, 16.146262713265457 ] ] ] } },
{ "type": "Feature", "properties": { "id": null }, "geometry": { "type": "MultiLineString", "coordinates": [ [ [ 103.734194689037125, 16.154554423083031 ], [ 103.734370182265394, 16.154748398518027 ], [ 103.734479607849082, 16.154867989221426 ], [ 103.734643024404875, 16.155048408170302 ], [ 103.734723320541846, 16.155135670276266 ], [ 103.734816400667526, 16.155237875861467 ], [ 103.735049347037389, 16.155511024773432 ], [ 103.735296493587754, 16.155801545658356 ], [ 103.735530859019875, 16.156076777087229 ], [ 103.735734582754432, 16.156332463999583 ] ] ] } },
{ "type": "Feature", "properties": { "id": null }, "geometry": { "type": "MultiLineString", "coordinates": [ [ [ 103.742440531600195, 16.16839832502593 ], [ 103.743694657173066, 16.171038333366106 ], [ 103.743798467719955, 16.171256082237271 ], [ 103.743875420433383, 16.171421117313042 ], [ 103.743948856786602, 16.171576450385174 ], [ 103.744021568977658, 16.171733162196652 ], [ 103.744068116814219, 16.171840621926933 ] ] ] } }
]
}
