{
"type": "FeatureCollection",
"name": "shouldersbl",
"crs": { "type": "name", "properties": { "name": "urn:ogc:def:crs:OGC:1.3:CRS84" } },
"features": [
{ "type": "Feature", "properties": { }, "geometry": { "type": "LineString", "coordinates": [ [ 103.321755792664106, 16.158681726870995, 0.0 ], [ 103.322810326962511, 16.158747602437799, 0.0 ], [ 103.323745327763874, 16.158882167482517, 0.0 ], [ 103.323900421470753, 16.15890236558392, 0.0 ], [ 103.32405603557018, 16.158918395035833, 0.0 ], [ 103.324212050125936, 16.158930243482995, 0.0 ], [ 103.328923294395253, 16.159224454293458, 0.0 ], [ 103.329079589785749, 16.159232109177264, 0.0 ], [ 103.329236044828136, 16.159235568014601, 0.0 ], [ 103.329392538937938, 16.159234828138725, 0.0 ], [ 103.330337682734395, 16.159217675785236, 0.0 ], [ 103.334248919763084, 16.159461822011775, 0.0 ], [ 103.334304907953779, 16.159465314081455, 0.0 ], [ 103.334360907666508, 16.159468793126813, 0.0 ], [ 103.334416921923392, 16.159472245600274, 0.0 ], [ 103.334472951604212, 16.159475657811257, 0.0 ], [ 103.334529025909788, 16.159479017755018, 0.0 ], [ 103.334585094606936, 16.159482308620664, 0.0 ], [ 103.334641181260096, 16.159485518065555, 0.0 ], [ 103.334697286400953, 16.159488632337215, 0.0 ], [ 103.334753410580007, 16.159491637675949, 0.0 ], [ 103.334809554503707, 16.159494520321488, 0.0 ], [ 103.334865718563151, 16.159497266487524, 0.0 ], [ 103.33492190296603, 16.159499862370716, 0.0 ], [ 103.334978107981186, 16.159502294162994, 0.0 ], [ 103.335034333794582, 16.159504548043859, 0.0 ], [ 103.335090580149085, 16.15950661016706, 0.0 ], [ 103.335146847042708, 16.159508466689658, 0.0 ], [ 103.335203133870678, 16.159510103740818, 0.0 ], [ 103.335259440337381, 16.159511507454198, 0.0 ], [ 103.335315765404403, 16.159512663937846, 0.0 ], [ 103.335372108428786, 16.159513559305914, 0.0 ], [ 103.335428468200007, 16.159514179656341, 0.0 ], [ 103.335484843245254, 16.159514511083042, 0.0 ], [ 103.335541232124228, 16.159514539679503, 0.0 ], [ 103.335597632944243, 16.159514251536706, 0.0 ], [ 103.335653971071082, 16.159513633566732, 0.0 ], [ 103.335959007435164, 16.159504332136635, 0.0 ], [ 103.336263537042342, 16.159484965705737, 0.0 ], [ 103.336567204426785, 16.159455556875365, 0.0 ], [ 103.336869655129192, 16.159416139968943, 0.0 ], [ 103.33717053611069, 16.159366760991965, 0.0 ], [ 103.33746949616507, 16.159307477578245, 0.0 ], [ 103.337766186328949, 16.159238358922682, 0.0 ], [ 103.338060260289225, 16.159159485700457, 0.0 ], [ 103.33835137478745, 16.159070949972861, 0.0 ], [ 103.338639190020658, 16.158972855079803, 0.0 ], [ 103.338923370038145, 16.158865315519161, 0.0 ], [ 103.339203583133767, 16.158748456813097, 0.0 ], [ 103.339479502233175, 16.158622415361517, 0.0 ], [ 103.339750805275827, 16.158487338282814, 0.0 ], [ 103.340017175590873, 16.15834338324207, 0.0 ], [ 103.340065793041745, 16.15831584894271, 0.0 ], [ 103.340114281012404, 16.158288004933297, 0.0 ], [ 103.340162589904025, 16.158259895401908, 0.0 ], [ 103.340210725714485, 16.158231533089555, 0.0 ], [ 103.340258694043897, 16.158202930973314, 0.0 ], [ 103.340306501480086, 16.15817410144761, 0.0 ], [ 103.340354154368484, 16.158145057045079, 0.0 ], [ 103.340401659405487, 16.15811581008241, 0.0 ], [ 103.340449023224153, 16.15808637291029, 0.0 ], [ 103.340496252823243, 16.158056757648602, 0.0 ], [ 103.340543355339804, 16.158026976322528, 0.0 ], [ 103.34059033793379, 16.157997040934799, 0.0 ], [ 103.340637207826532, 16.157966963442242, 0.0 ], [ 103.340683972600047, 16.1579367555623, 0.0 ], [ 103.340730639704518, 16.157906429086953, 0.0 ], [ 103.340777216793029, 16.157875995667737, 0.0 ], [ 103.340823711754354, 16.157845466791255, 0.0 ], [ 103.340870132045922, 16.157814854216682, 0.0 ], [ 103.340916485737949, 16.157784169290512, 0.0 ], [ 103.340962760321119, 16.157753437018314, 0.0 ], [ 103.341009008836011, 16.157722638875505, 0.0 ], [ 103.341055214609582, 16.157691802563946, 0.0 ], [ 103.341101385679451, 16.157660939410089, 0.0 ], [ 103.341147530104365, 16.157630060714961, 0.0 ], [ 103.341193654906704, 16.157599178462124, 0.0 ], [ 103.343260628749874, 16.156215117648181, 0.0 ], [ 103.343306743772288, 16.156184236459406, 0.0 ], [ 103.343352859201161, 16.156153344422563, 0.0 ], [ 103.343398971024499, 16.15612243366531, 0.0 ], [ 103.343445074114214, 16.156091497058071, 0.0 ], [ 103.343491163329432, 16.156060527475312, 0.0 ], [ 103.343537233512862, 16.156029517797986, 0.0 ], [ 103.3435833002208, 16.155998446929985, 0.0 ], [ 103.343629319744096, 16.155967333710127, 0.0 ], [ 103.343675304538536, 16.155936159147746, 0.0 ], [ 103.343721249614902, 16.155904915989478, 0.0 ], [ 103.34376714931939, 16.155873597428645, 0.0 ], [ 103.343812998642989, 16.155842196215836, 0.0 ], [ 103.343858791958539, 16.15581070551907, 0.0 ], [ 103.343904523993757, 16.155779118259783, 0.0 ], [ 103.343950189305318, 16.1557474274722, 0.0 ], [ 103.343995782247859, 16.155715626327041, 0.0 ], [ 103.344041297383427, 16.155683707847427, 0.0 ], [ 103.344086728968122, 16.15565166526649, 0.0 ], [ 103.344132071437969, 16.155619491687936, 0.0 ], [ 103.344177318955545, 16.155587180405135, 0.0 ], [ 103.344222465718985, 16.15555472468424, 0.0 ], [ 103.344267505875465, 16.155522117824972, 0.0 ], [ 103.344312433395913, 16.155489353252143, 0.0 ], [ 103.344357242257118, 16.155456424385299, 0.0 ], [ 103.344401890194959, 16.155423351498136, 0.0 ], [ 103.34478599536574, 16.155127203525854, 0.0 ], [ 103.345159170598848, 16.154818278291284, 0.0 ], [ 103.345201178863704, 16.154782111903234, 0.0 ], [ 103.345243067146214, 16.154745769032708, 0.0 ], [ 103.345284810879903, 16.1547092825483, 0.0 ], [ 103.345326415537286, 16.154672659475352, 0.0 ], [ 103.345367886584839, 16.154635906845041, 0.0 ], [ 103.345409229814663, 16.154599031399613, 0.0 ], [ 103.345450450968499, 16.154562039921721, 0.0 ], [ 103.345491555710737, 16.154524939261211, 0.0 ], [ 103.345532550145208, 16.154487735868752, 0.0 ], [ 103.345573439870677, 16.154450436647771, 0.0 ], [ 103.345614231022438, 16.154413048011737, 0.0 ], [ 103.345654929557597, 16.154375576531212, 0.0 ], [ 103.345695541411544, 16.154338028793369, 0.0 ], [ 103.345736072991031, 16.154300410944984, 0.0 ], [ 103.345776529970323, 16.154262729806277, 0.0 ], [ 103.345816918766246, 16.154224991504435, 0.0 ], [ 103.345857245444336, 16.154187202487815, 0.0 ], [ 103.345897500360309, 16.154149383963844, 0.0 ], [ 103.345937723841075, 16.154111510203872, 0.0 ], [ 103.345977903883465, 16.154073604580418, 0.0 ], [ 103.346018046741847, 16.154035673347089, 0.0 ], [ 103.346058158683292, 16.153997722740289, 0.0 ], [ 103.346098245984606, 16.153959758982062, 0.0 ], [ 103.346138314929078, 16.153921788283039, 0.0 ], [ 103.346178371226699, 16.153883817392032, 0.0 ], [ 103.347115415733725, 16.152995503074958, 0.0 ], [ 103.347142115727337, 16.152970191852585, 0.0 ], [ 103.34716881550878, 16.152944883521158, 0.0 ], [ 103.347195516153832, 16.152919579760685, 0.0 ], [ 103.347222219057898, 16.152894281947532, 0.0 ], [ 103.347248925615375, 16.152868991458465, 0.0 ], [ 103.347275637219497, 16.15284370967078, 0.0 ], [ 103.34730235526203, 16.152818437962537, 0.0 ], [ 103.347329081133054, 16.152793177712844, 0.0 ], [ 103.347355816220784, 16.152767930301987, 0.0 ], [ 103.347382561911289, 16.152742697111648, 0.0 ], [ 103.347409319588294, 16.152717479525201, 0.0 ], [ 103.347436090632925, 16.15269227892783, 0.0 ], [ 103.347462876423478, 16.152667096706782, 0.0 ], [ 103.347489678335251, 16.152641934251594, 0.0 ], [ 103.347516497740216, 16.152616792954266, 0.0 ], [ 103.347543336006837, 16.152591674209511, 0.0 ], [ 103.347570194499866, 16.152566579414916, 0.0 ], [ 103.347597074580065, 16.152541509971194, 0.0 ], [ 103.347623977603945, 16.152516467282375, 0.0 ], [ 103.34765090492364, 16.152491452755989, 0.0 ], [ 103.347677839551409, 16.152466484797802, 0.0 ], [ 103.347704818610367, 16.152441531618642, 0.0 ], [ 103.347731825980745, 16.152416610852828, 0.0 ], [ 103.347758863016992, 16.152391723902987, 0.0 ], [ 103.347785952941194, 16.152366852096854, 0.0 ], [ 103.348490104929041, 16.151742914872791, 0.0 ], [ 103.349215865110907, 16.151142554197197, 0.0 ], [ 103.349962388771203, 16.150566468720381, 0.0 ], [ 103.350728807054139, 16.150015328840453, 0.0 ], [ 103.350759149977094, 16.149994305595158, 0.0 ], [ 103.350789542810048, 16.149973304625785, 0.0 ], [ 103.350819943476722, 16.149952352683126, 0.0 ], [ 103.350850371744698, 16.149931433714727, 0.0 ], [ 103.35088082642325, 16.149910546184589, 0.0 ], [ 103.350911306326822, 16.14988968855253, 0.0 ], [ 103.350941810274819, 16.149868859274502, 0.0 ], [ 103.350972337091235, 16.149848056802657, 0.0 ], [ 103.351002885604544, 16.149827279585644, 0.0 ], [ 103.351033454647308, 16.149806526068687, 0.0 ], [ 103.35106404305607, 16.149785794693848, 0.0 ], [ 103.351094649670983, 16.149765083900178, 0.0 ], [ 103.351125273335583, 16.149744392123896, 0.0 ], [ 103.351155912896573, 16.149723717798583, 0.0 ], [ 103.351186567203541, 16.149703059355357, 0.0 ], [ 103.351217235108649, 16.149682415223037, 0.0 ], [ 103.351247915466459, 16.149661783828357, 0.0 ], [ 103.351278607133665, 16.149641163596101, 0.0 ], [ 103.351309308968737, 16.149620552949315, 0.0 ], [ 103.351340019831795, 16.149599950309472, 0.0 ], [ 103.351370738584222, 16.149579354096645, 0.0 ], [ 103.351401464088539, 16.149558762729679, 0.0 ], [ 103.351432195207991, 16.149538174626386, 0.0 ], [ 103.351462930806434, 16.149517588203715, 0.0 ], [ 103.351493669969258, 16.14949700172966, 0.0 ], [ 103.361005849066501, 16.143126234507758, 0.0 ], [ 103.361027366421169, 16.143111822412401, 0.0 ], [ 103.361048883239235, 16.143097411361527, 0.0 ], [ 103.36107039983915, 16.143083001831336, 0.0 ], [ 103.361091916508215, 16.143068594318773, 0.0 ], [ 103.361113433580144, 16.14305418928965, 0.0 ], [ 103.361134951388422, 16.143039787209819, 0.0 ], [ 103.361156470266351, 16.143025388545169, 0.0 ], [ 103.361177990546992, 16.143010993761642, 0.0 ], [ 103.361199512563132, 16.142996603325319, 0.0 ], [ 103.361221036647279, 16.142982217702336, 0.0 ], [ 103.361242563131555, 16.142967837359013, 0.0 ], [ 103.361264092347767, 16.142953462761781, 0.0 ], [ 103.3612856246273, 16.14293909437729, 0.0 ], [ 103.361307160301124, 16.142924732672366, 0.0 ], [ 103.361328699699698, 16.142910378114053, 0.0 ], [ 103.361350243153026, 16.142896031169634, 0.0 ], [ 103.361371790990589, 16.142881692306684, 0.0 ], [ 103.361393343541266, 16.142867361993012, 0.0 ], [ 103.361414901133386, 16.142853040696782, 0.0 ], [ 103.361436464094623, 16.142838728886449, 0.0 ], [ 103.361458032751969, 16.142824427030828, 0.0 ], [ 103.361479607431775, 16.142810135599095, 0.0 ], [ 103.361501188459641, 16.142795855060832, 0.0 ], [ 103.361522776160413, 16.142781585886016, 0.0 ], [ 103.361544370858113, 16.142767328545059, 0.0 ], [ 103.362829664076642, 16.141948926085057, 0.0 ], [ 103.364142153263913, 16.141171899068265, 0.0 ], [ 103.365480413237776, 16.140437091169947, 0.0 ], [ 103.366842990882418, 16.139745300224682, 0.0 ], [ 103.368228406724043, 16.139097277361458, 0.0 ], [ 103.369635156534798, 16.138493726189274, 0.0 ], [ 103.371061712963495, 16.137935302034425, 0.0 ], [ 103.372506527191149, 16.137422611229912, 0.0 ], [ 103.373968030609646, 16.136956210458106, 0.0 ], [ 103.375444636521678, 16.136536606147153, 0.0 ], [ 103.376934741860268, 16.136164253921841, 0.0 ], [ 103.378436728925791, 16.135839558109488, 0.0 ], [ 103.379948967138816, 16.135562871301463, 0.0 ], [ 103.38146981480682, 16.135334493970742, 0.0 ], [ 103.381495729858742, 16.135331031143917, 0.0 ], [ 103.381521636675203, 16.13532758313638, 0.0 ], [ 103.38154754644583, 16.135324147878219, 0.0 ], [ 103.381573459084592, 16.135320724810438, 0.0 ], [ 103.381599374506294, 16.135317313373825, 0.0 ], [ 103.38162529262658, 16.135313913009032, 0.0 ], [ 103.381651213361835, 16.135310523156502, 0.0 ], [ 103.38167713662915, 16.135307143256505, 0.0 ], [ 103.381703062346361, 16.135303772749161, 0.0 ], [ 103.381728990431924, 16.135300411074418, 0.0 ], [ 103.381754920804909, 16.135297057672073, 0.0 ], [ 103.381780853384981, 16.135293711981774, 0.0 ], [ 103.381806788092305, 16.135290373443038, 0.0 ], [ 103.381832724847584, 16.135287041495193, 0.0 ], [ 103.381858663571947, 16.135283715577501, 0.0 ], [ 103.381884604186965, 16.135280395129055, 0.0 ], [ 103.381910546614563, 16.135277079588835, 0.0 ], [ 103.381936490777022, 16.135273768395706, 0.0 ], [ 103.381962436596936, 16.135270460988409, 0.0 ], [ 103.38198838399714, 16.135267156805586, 0.0 ], [ 103.382014332900695, 16.135263855285785, 0.0 ], [ 103.382040283230893, 16.135260555867422, 0.0 ], [ 103.382066234911093, 16.135257257988886, 0.0 ], [ 103.382092187864828, 16.135253961088399, 0.0 ], [ 103.382118142127794, 16.135250664589911, 0.0 ], [ 103.456364040224912, 16.125807283754135, 0.0 ], [ 103.456393701152933, 16.125803505930367, 0.0 ], [ 103.45642336051462, 16.125799729368499, 0.0 ], [ 103.456453018422238, 16.125795955120779, 0.0 ], [ 103.456482674926747, 16.125792184247075, 0.0 ], [ 103.456512330170284, 16.125788417795448, 0.0 ], [ 103.456541984294432, 16.125784656813828, 0.0 ], [ 103.456571637440206, 16.125780902349995, 0.0 ], [ 103.456601289747852, 16.125777155451665, 0.0 ], [ 103.456630941356764, 16.12577341716645, 0.0 ], [ 103.45666059240537, 16.12576968854188, 0.0 ], [ 103.456690243030991, 16.125765970625437, 0.0 ], [ 103.456719893369737, 16.125762264464541, 0.0 ], [ 103.456749543556384, 16.125758571106598, 0.0 ], [ 103.45677919372423, 16.125754891598977, 0.0 ], [ 103.456808844005053, 16.125751226989056, 0.0 ], [ 103.45683849452891, 16.125747578324216, 0.0 ], [ 103.456868145424053, 16.125743946651856, 0.0 ], [ 103.45689779681679, 16.125740333019415, 0.0 ], [ 103.456927448831436, 16.12573673847437, 0.0 ], [ 103.456957101590049, 16.125733164064265, 0.0 ], [ 103.456986755212526, 16.125729610836697, 0.0 ], [ 103.457016409816234, 16.12572607983936, 0.0 ], [ 103.457046065516124, 16.125722572120029, 0.0 ], [ 103.45707572242442, 16.125719088726591, 0.0 ], [ 103.457105380650674, 16.125715630707031, 0.0 ], [ 103.457962117006289, 16.125627176880872, 0.0 ], [ 103.458820968154981, 16.1255605882026, 0.0 ], [ 103.458850792499732, 16.125558671060755, 0.0 ], [ 103.458880601870121, 16.125556780288804, 0.0 ], [ 103.458910414717565, 16.125554913633938, 0.0 ], [ 103.458940230951498, 16.125553070046493, 0.0 ], [ 103.45897005048387, 16.125551248476437, 0.0 ], [ 103.458999873229217, 16.125549447873354, 0.0 ], [ 103.459029699104391, 16.125547667186499, 0.0 ], [ 103.459059528028533, 16.125545905364763, 0.0 ], [ 103.459089359922928, 16.125544161356707, 0.0 ], [ 103.459119194710823, 16.12554243411061, 0.0 ], [ 103.459149032317455, 16.125540722574389, 0.0 ], [ 103.459178872669767, 16.125539025695673, 0.0 ], [ 103.459208715696377, 16.125537342421811, 0.0 ], [ 103.459238561327481, 16.125535671699843, 0.0 ], [ 103.459268409494669, 16.125534012476553, 0.0 ], [ 103.459298260130836, 16.125532363698433, 0.0 ], [ 103.459328113170088, 16.125530724311723, 0.0 ], [ 103.45935796854755, 16.125529093262397, 0.0 ], [ 103.459387826199318, 16.125527469496213, 0.0 ], [ 103.459417686062324, 16.125525851958638, 0.0 ], [ 103.459447548074209, 16.125524239594935, 0.0 ], [ 103.459477412173172, 16.125522631350133, 0.0 ], [ 103.459507278297878, 16.12552102616905, 0.0 ], [ 103.459537146387376, 16.125519422996266, 0.0 ], [ 103.459567016565288, 16.12551782076628, 0.0 ], [ 103.461647007398625, 16.125406252387865, 0.0 ], [ 103.461676878757714, 16.125404650148745, 0.0 ], [ 103.46170674845672, 16.125403049053649, 0.0 ], [ 103.461736616525343, 16.12540145016002, 0.0 ], [ 103.461766482931651, 16.125399854528421, 0.0 ], [ 103.461796347735472, 16.125398263214297, 0.0 ], [ 103.461826210996165, 16.125396677272903, 0.0 ], [ 103.461856072772477, 16.125395097759355, 0.0 ], [ 103.461885933122431, 16.125393525728605, 0.0 ], [ 103.461915792103184, 16.125391962235444, 0.0 ], [ 103.461945649770939, 16.125390408334514, 0.0 ], [ 103.461975506180806, 16.125388865080335, 0.0 ], [ 103.462005361386716, 16.125387333527293, 0.0 ], [ 103.462035215441205, 16.125385814729619, 0.0 ], [ 103.462065068395404, 16.125384309741431, 0.0 ], [ 103.46209492029891, 16.125382819616743, 0.0 ], [ 103.462124771199584, 16.125381345409426, 0.0 ], [ 103.462154621143497, 16.125379888173267, 0.0 ], [ 103.462184470174776, 16.125378448961932, 0.0 ], [ 103.462214318335583, 16.125377028828979, 0.0 ], [ 103.462244165665794, 16.125375628827886, 0.0 ], [ 103.462274012203082, 16.125374250011994, 0.0 ], [ 103.462303857982747, 16.125372893434587, 0.0 ], [ 103.462333703037473, 16.125371560148842, 0.0 ], [ 103.462363547397359, 16.125370251207833, 0.0 ], [ 103.462393391089762, 16.125368967664567, 0.0 ], [ 103.463449413008405, 16.125340533507302, 0.0 ], [ 103.464505834344422, 16.12534511145299, 0.0 ], [ 103.465561551095348, 16.125382696762877, 0.0 ], [ 103.465591398718985, 16.125384239786463, 0.0 ], [ 103.465621228214857, 16.125385807260589, 0.0 ], [ 103.465651058180754, 16.125387399080793, 0.0 ], [ 103.465680888656507, 16.125389014194479, 0.0 ], [ 103.465710719684608, 16.125390651548951, 0.0 ], [ 103.465740551310105, 16.125392310091456, 0.0 ], [ 103.465770383580406, 16.125393988769162, 0.0 ], [ 103.465800216545219, 16.12539568652916, 0.0 ], [ 103.465830050256386, 16.125397402318463, 0.0 ], [ 103.465859884767852, 16.125399135084002, 0.0 ], [ 103.465889720135436, 16.125400883772592, 0.0 ], [ 103.465919556416779, 16.125402647330979, 0.0 ], [ 103.465949393671224, 16.12540442470581, 0.0 ], [ 103.465979231959651, 16.125406214843601, 0.0 ], [ 103.466009071344416, 16.12540801669078, 0.0 ], [ 103.466038911889186, 16.125409829193629, 0.0 ], [ 103.466068753658845, 16.125411651298343, 0.0 ], [ 103.466098596719348, 16.12541348195095, 0.0 ], [ 103.466128441137656, 16.125415320097364, 0.0 ], [ 103.466158286981525, 16.125417164683345, 0.0 ], [ 103.466188134319509, 16.125419014654508, 0.0 ], [ 103.466217983220716, 16.125420868956287, 0.0 ], [ 103.466247833754778, 16.125422726533991, 0.0 ], [ 103.46627768599167, 16.125424586332731, 0.0 ], [ 103.466307540185923, 16.125426447308907, 0.0 ], [ 103.486784004707644, 16.126701992105346, 0.0 ], [ 103.486821325688979, 16.126704314827542, 0.0 ], [ 103.486858649039078, 16.126706635758559, 0.0 ], [ 103.486895975333624, 16.126708953001827, 0.0 ], [ 103.486933304699775, 16.12671126463243, 0.0 ], [ 103.486970637263823, 16.126713568724988, 0.0 ], [ 103.487007973150767, 16.126715863353631, 0.0 ], [ 103.487045312484028, 16.126718146591966, 0.0 ], [ 103.487082655385194, 16.12672041651307, 0.0 ], [ 103.487120001973608, 16.126722671189466, 0.0 ], [ 103.487157352366097, 16.126724908693131, 0.0 ], [ 103.487194706676647, 16.126727127095425, 0.0 ], [ 103.487232065016059, 16.126729324467131, 0.0 ], [ 103.487269427491682, 16.126731498878421, 0.0 ], [ 103.487306794207058, 16.126733648398808, 0.0 ], [ 103.487344165261547, 16.126735771097188, 0.0 ], [ 103.48738154075015, 16.126737865041797, 0.0 ], [ 103.487418920763048, 16.126739928300179, 0.0 ], [ 103.487456305385322, 16.126741958939235, 0.0 ], [ 103.48749369469671, 16.126743955025169, 0.0 ], [ 103.487531088771163, 16.12674591462347, 0.0 ], [ 103.487568512983188, 16.126747837097565, 0.0 ], [ 103.487605918052154, 16.126749717950634, 0.0 ], [ 103.487643327925113, 16.126751556497144, 0.0 ], [ 103.487680742997014, 16.126753350816728, 0.0 ], [ 103.487718132736816, 16.126755097544223, 0.0 ], [ 103.488672343801255, 16.126783371476456, 0.0 ], [ 103.489626998208962, 16.126780291996788, 0.0 ], [ 103.490580993547695, 16.126745862622961, 0.0 ], [ 103.491533228164542, 16.126680123074657, 0.0 ], [ 103.492482602439651, 16.126583149227802, 0.0 ], [ 103.493428020057621, 16.126455053027005, 0.0 ], [ 103.494368389275053, 16.126295982356272, 0.0 ], [ 103.49530262418277, 16.126106120868275, 0.0 ], [ 103.496229645961421, 16.12588568777209, 0.0 ], [ 103.497148384128622, 16.125634937579992, 0.0 ], [ 103.498057777776651, 16.125354159813373, 0.0 ], [ 103.498956776798835, 16.12504367866811, 0.0 ], [ 103.499844343103589, 16.124703852639996, 0.0 ], [ 103.499878924649579, 16.124689924862633, 0.0 ], [ 103.499913462777215, 16.124675964381201, 0.0 ], [ 103.499948004406264, 16.124661954361123, 0.0 ], [ 103.499982526518778, 16.124647906175586, 0.0 ], [ 103.500017029846816, 16.124633821628464, 0.0 ], [ 103.500051515128547, 16.124619702520732, 0.0 ], [ 103.500085983107851, 16.124605550650625, 0.0 ], [ 103.500120434534082, 16.124591367813711, 0.0 ], [ 103.50015487016168, 16.12457715580306, 0.0 ], [ 103.500189290750001, 16.124562916409293, 0.0 ], [ 103.500223697062907, 16.124548651420731, 0.0 ], [ 103.500258089868538, 16.124534362623521, 0.0 ], [ 103.500292469938941, 16.124520051801717, 0.0 ], [ 103.500326838049872, 16.124505720737385, 0.0 ], [ 103.500361194980385, 16.124491371210812, 0.0 ], [ 103.500395541512674, 16.124477005000507, 0.0 ], [ 103.500429878431632, 16.124462623883403, 0.0 ], [ 103.500464206524626, 16.12444822963495, 0.0 ], [ 103.500498526581254, 16.124433824029214, 0.0 ], [ 103.500532839392932, 16.124419408839039, 0.0 ], [ 103.500567145752711, 16.124404985836154, 0.0 ], [ 103.500601446454922, 16.124390556791262, 0.0 ], [ 103.500635742294875, 16.124376123474228, 0.0 ], [ 103.500670034068619, 16.124361687654133, 0.0 ], [ 103.500704322325731, 16.124347251203393, 0.0 ], [ 103.553698787397394, 16.102024945339409, 0.0 ], [ 103.553726210455949, 16.10201338954089, 0.0 ], [ 103.553753632369137, 16.102001835373734, 0.0 ], [ 103.553781053545634, 16.101990283819241, 0.0 ], [ 103.553808474337515, 16.10197873588243, 0.0 ], [ 103.553835895180953, 16.101967192532598, 0.0 ], [ 103.553863316511681, 16.101955654739044, 0.0 ], [ 103.553890738764778, 16.101944123471128, 0.0 ], [ 103.553918162374572, 16.101932599698291, 0.0 ], [ 103.55394558777455, 16.10192108439016, 0.0 ], [ 103.553973015397233, 16.101909578516491, 0.0 ], [ 103.554000445674092, 16.101898083047335, 0.0 ], [ 103.554027879035388, 16.101886598952966, 0.0 ], [ 103.554055315910091, 16.101875127204028, 0.0 ], [ 103.554082756725805, 16.101863668771525, 0.0 ], [ 103.554110201908586, 16.10185222462685, 0.0 ], [ 103.554137651882883, 16.101840795741879, 0.0 ], [ 103.554165107071427, 16.10182938308899, 0.0 ], [ 103.554192567895072, 16.101817987641116, 0.0 ], [ 103.55422003477274, 16.101806610371753, 0.0 ], [ 103.554247508121293, 16.101795252255059, 0.0 ], [ 103.554274988355402, 16.101783914265841, 0.0 ], [ 103.554302475887482, 16.101772597379654, 0.0 ], [ 103.554329971127515, 16.101761302572793, 0.0 ], [ 103.554357474482984, 16.101750030822377, 0.0 ], [ 103.554384986358755, 16.101738783106335, 0.0 ], [ 103.555427809270867, 16.101333269160534, 0.0 ], [ 103.556484441266846, 16.100962671088183, 0.0 ], [ 103.55755363203933, 16.100627427445716, 0.0 ], [ 103.558634116437787, 16.100327934955825, 0.0 ], [ 103.559724615963603, 16.100064548038585, 0.0 ], [ 103.560823840280861, 16.099837578392307, 0.0 ], [ 103.561930488741197, 16.099647294625107, 0.0 ], [ 103.563043251920519, 16.099493921937199, 0.0 ], [ 103.563072910198159, 16.099490349291802, 0.0 ], [ 103.563102555096506, 16.099486803806595, 0.0 ], [ 103.563132204900796, 16.099483282206279, 0.0 ], [ 103.563161859458134, 16.099479783447922, 0.0 ], [ 103.563191518618154, 16.099476306488064, 0.0 ], [ 103.563221182233022, 16.099472850282748, 0.0 ], [ 103.563250850157218, 16.099469413787528, 0.0 ], [ 103.563280522247439, 16.099465995957495, 0.0 ], [ 103.563310198362544, 16.099462595747291, 0.0 ], [ 103.563339878363365, 16.099459212111128, 0.0 ], [ 103.563369562112612, 16.099455844002801, 0.0 ], [ 103.563399249474756, 16.099452490375686, 0.0 ], [ 103.563428940315902, 16.099449150182789, 0.0 ], [ 103.563458634503689, 16.09944582237674, 0.0 ], [ 103.563488331907152, 16.09944250590981, 0.0 ], [ 103.563518032396615, 16.099439199733933, 0.0 ], [ 103.563547735843571, 16.099435902800707, 0.0 ], [ 103.563577442120547, 16.09943261406141, 0.0 ], [ 103.56360715110101, 16.099429332467032, 0.0 ], [ 103.563636862659266, 16.099426056968273, 0.0 ], [ 103.563666576670244, 16.09942278651555, 0.0 ], [ 103.563696293009528, 16.099419520059033, 0.0 ], [ 103.563726011553101, 16.09941625654864, 0.0 ], [ 103.563755732177256, 16.099412994934035, 0.0 ], [ 103.563785454942007, 16.099409734144576, 0.0 ], [ 103.611531528440707, 16.094166420941132, 0.0 ], [ 103.611561251406613, 16.094163153600991, 0.0 ], [ 103.611590972783389, 16.094159887495714, 0.0 ], [ 103.611620692663934, 16.0941566236794, 0.0 ], [ 103.611650411079651, 16.094153363212691, 0.0 ], [ 103.611680128153353, 16.094150107145985, 0.0 ], [ 103.611709844007336, 16.094146856529559, 0.0 ], [ 103.611739558763276, 16.094143612413529, 0.0 ], [ 103.611769272542119, 16.094140375847918, 0.0 ], [ 103.611798985463906, 16.094137147882648, 0.0 ], [ 103.61182869764778, 16.094133929567537, 0.0 ], [ 103.611858409211735, 16.094130721952311, 0.0 ], [ 103.611888120272582, 16.094127526086673, 0.0 ], [ 103.611917830945771, 16.094124343020216, 0.0 ], [ 103.611947541345316, 16.094121173802524, 0.0 ], [ 103.611977251583667, 16.094118019483147, 0.0 ], [ 103.61200696177157, 16.094114881111597, 0.0 ], [ 103.612036672017965, 16.094111759737398, 0.0 ], [ 103.612066382429873, 16.094108656410047, 0.0 ], [ 103.612096093112257, 16.094105572179078, 0.0 ], [ 103.612125804167945, 16.094102508094036, 0.0 ], [ 103.612155515697424, 16.094099465204479, 0.0 ], [ 103.612185227798832, 16.094096444560034, 0.0 ], [ 103.612214940567753, 16.094093447210355, 0.0 ], [ 103.61224465409714, 16.094090474205156, 0.0 ], [ 103.612274368477188, 16.094087526594212, 0.0 ], [ 103.613370382242081, 16.093997280446423, 0.0 ], [ 103.614468917097071, 16.093942752551456, 0.0 ], [ 103.615568728206696, 16.093924004745944, 0.0 ], [ 103.616668569288123, 16.093941058320958, 0.0 ], [ 103.61776719402134, 16.093993893997787, 0.0 ], [ 103.618863357459546, 16.094082451949483, 0.0 ], [ 103.619955817437869, 16.094206631868357, 0.0 ], [ 103.621043335979124, 16.094366293079311, 0.0 ], [ 103.622124680694625, 16.094561254698821, 0.0 ], [ 103.623198626179075, 16.094791295839418, 0.0 ], [ 103.624263955397254, 16.095056155859481, 0.0 ], [ 103.625319461061565, 16.095355534657998, 0.0 ], [ 103.626363946998495, 16.095689093013998, 0.0 ], [ 103.627396229502537, 16.09605645297032, 0.0 ], [ 103.628415138676289, 16.096457198261117, 0.0 ], [ 103.629419519754777, 16.096890874782879, 0.0 ], [ 103.63040823441294, 16.097356991108178, 0.0 ], [ 103.631380162054455, 16.097855019041749, 0.0 ], [ 103.632334201080852, 16.098384394218225, 0.0 ], [ 103.633269270138882, 16.098944516740733, 0.0 ], [ 103.633294400887323, 16.098960157988614, 0.0 ], [ 103.63331950335737, 16.098975811788918, 0.0 ], [ 103.633344593754188, 16.098991486961719, 0.0 ], [ 103.633369672652108, 16.099007182611821, 0.0 ], [ 103.63339474062775, 16.099022897845231, 0.0 ], [ 103.633419798259979, 16.099038631769115, 0.0 ], [ 103.633444846129777, 16.099054383491705, 0.0 ], [ 103.633469884820144, 16.09907015212227, 0.0 ], [ 103.633494914916, 16.09908593677104, 0.0 ], [ 103.63351993700411, 16.099101736549155, 0.0 ], [ 103.633544951672917, 16.099117550568604, 0.0 ], [ 103.633569959512542, 16.099133377942135, 0.0 ], [ 103.63359496111454, 16.099149217783246, 0.0 ], [ 103.633619957071943, 16.099165069206069, 0.0 ], [ 103.633644947979093, 16.099180931325346, 0.0 ], [ 103.633669934431524, 16.099196803256351, 0.0 ], [ 103.633694917025892, 16.099212684114821, 0.0 ], [ 103.633719896359878, 16.099228573016909, 0.0 ], [ 103.633744873032057, 16.09924446907911, 0.0 ], [ 103.633769847641815, 16.099260371418218, 0.0 ], [ 103.633794820789291, 16.099276279151209, 0.0 ], [ 103.633819793075176, 16.099292191395239, 0.0 ], [ 103.633844765100733, 16.099308107267554, 0.0 ], [ 103.633869737467592, 16.099324025885419, 0.0 ], [ 103.633894710931827, 16.09933994646434, 0.0 ], [ 103.637005923812694, 16.101323329253066, 0.0 ], [ 103.63775066253838, 16.101889200777034, 0.0 ], [ 103.637892602153201, 16.101993580372202, 0.0 ], [ 103.634196033730049, 16.099637055891208, 0.0 ], [ 103.63416618377336, 16.099680817717072, 0.0 ], [ 103.638777956352342, 16.102620758040484, 0.0 ], [ 103.642503657179546, 16.105702723884534, 0.0 ], [ 103.642639082485147, 16.105811254767179, 0.0 ], [ 103.64277794523484, 16.105915647400959, 0.0 ], [ 103.642920110177073, 16.106015800103066, 0.0 ], [ 103.643065438843109, 16.106111615320351, 0.0 ], [ 103.646952963640061, 16.108589569785654, 0.0 ], [ 103.646982812432654, 16.108545806094948, 0.0 ], [ 103.643095288028661, 16.106067852200137, 0.0 ], [ 103.642951357462309, 16.105972958762951, 0.0 ], [ 103.642810560181431, 16.105873769568525, 0.0 ], [ 103.642673033322652, 16.105770381231455, 0.0 ], [ 103.642538910836322, 16.105662894456248, 0.0 ], [ 103.641993913334787, 16.105212072508216, 0.0 ], [ 103.64705174585724, 16.108436018738754, 0.0 ], [ 103.647081594603577, 16.108392255030214, 0.0 ], [ 103.645837635454399, 16.107599354990899, 0.0 ], [ 103.645908407394685, 16.107495591182257, 0.0 ], [ 103.6460323794999, 16.107557467503806, 0.0 ], [ 103.646124268941605, 16.10760126652259, 0.0 ], [ 103.646469944498591, 16.107821600898525, 0.0 ], [ 103.646499793262961, 16.107777837271612, 0.0 ], [ 103.640379444407756, 16.103876564502745, 0.0 ], [ 103.639911651844926, 16.103489595517768, 0.0 ], [ 103.643818251592336, 16.10597981872365, 0.0 ], [ 103.643917390192868, 16.106040887856061, 0.0 ], [ 103.644018451816308, 16.106098936537983, 0.0 ], [ 103.644121338028356, 16.106153908228489, 0.0 ], [ 103.644225948617262, 16.106205749383573, 0.0 ], [ 103.645065338818441, 16.106605852886972, 0.0 ], [ 103.645248095007219, 16.106722344009643, 0.0 ], [ 103.6453805666319, 16.106804255089649, 0.0 ], [ 103.645515339619394, 16.106882579195471, 0.0 ], [ 103.64565231007056, 16.106957255943303, 0.0 ], [ 103.646766820525556, 16.107545322381355, 0.0 ], [ 103.649780074171318, 16.109465930523498, 0.0 ], [ 103.649805051750235, 16.10948185037142, 0.0 ], [ 103.649830031374208, 16.10949777025057, 0.0 ], [ 103.6498550136712, 16.109513689294044, 0.0 ], [ 103.649879999320461, 16.109529606667376, 0.0 ], [ 103.649904988923936, 16.10954552148662, 0.0 ], [ 103.649929983083311, 16.109561432867409, 0.0 ], [ 103.64995498239989, 16.1095773399249, 0.0 ], [ 103.649979987474495, 16.109593241773709, 0.0 ], [ 103.650004998907306, 16.109609137527826, 0.0 ], [ 103.650030017297865, 16.109625026300574, 0.0 ], [ 103.650055043244876, 16.109640907204554, 0.0 ], [ 103.650080077346175, 16.109656779351539, 0.0 ], [ 103.650105120198617, 16.109672641852448, 0.0 ], [ 103.650130172397922, 16.109688493817291, 0.0 ], [ 103.65015523453863, 16.109704334355062, 0.0 ], [ 103.650180307214001, 16.10972016257373, 0.0 ], [ 103.650205391015859, 16.109735977580126, 0.0 ], [ 103.650230486534511, 16.109751778479918, 0.0 ], [ 103.65025559435874, 16.109767564377538, 0.0 ], [ 103.65028071507551, 16.109783334376111, 0.0 ], [ 103.650305849270055, 16.109799087577393, 0.0 ], [ 103.650330997525671, 16.109814823081763, 0.0 ], [ 103.650356160423627, 16.109830539988053, 0.0 ], [ 103.650381338543056, 16.109846237393597, 0.0 ], [ 103.650406532460906, 16.109861914394124, 0.0 ], [ 103.651316390949049, 16.110407412859455, 0.0 ], [ 103.652244200762482, 16.110923886531673, 0.0 ], [ 103.653188971492099, 16.111410783977501, 0.0 ], [ 103.6541496945961, 16.111867585334583, 0.0 ], [ 103.655125344477568, 16.112293802867224, 0.0 ], [ 103.656114879580144, 16.11268898148796, 0.0 ], [ 103.657117243501091, 16.113052699244143, 0.0 ], [ 103.658131366120216, 16.113384567769202, 0.0 ], [ 103.659156164743465, 16.113684232697935, 0.0 ], [ 103.660190545260264, 16.113951374045552, 0.0 ], [ 103.661233403312906, 16.1141857065499, 0.0 ], [ 103.662283625477073, 16.114386979976629, 0.0 ], [ 103.662313093197383, 16.114392131980285, 0.0 ], [ 103.662342582060234, 16.114397261851565, 0.0 ], [ 103.662372073560945, 16.114402367423235, 0.0 ], [ 103.66240156748583, 16.114407449737406, 0.0 ], [ 103.662431063623856, 16.114412509836427, 0.0 ], [ 103.662460561766494, 16.114417548762926, 0.0 ], [ 103.662490061707615, 16.11442256755975, 0.0 ], [ 103.662519563243393, 16.114427567269935, 0.0 ], [ 103.662549066172105, 16.114432548936691, 0.0 ], [ 103.662578570294201, 16.114437513603402, 0.0 ], [ 103.662608075411924, 16.114442462313576, 0.0 ], [ 103.662637581329435, 16.11444739611083, 0.0 ], [ 103.66266708785254, 16.114452316038864, 0.0 ], [ 103.662696594788613, 16.114457223141468, 0.0 ], [ 103.662726101946518, 16.114462118462445, 0.0 ], [ 103.662755609136411, 16.114467003045643, 0.0 ], [ 103.662785116169729, 16.114471877934918, 0.0 ], [ 103.662814622858946, 16.114476744174112, 0.0 ], [ 103.662844129017557, 16.114481602807015, 0.0 ], [ 103.662873634459928, 16.114486454877369, 0.0 ], [ 103.662903139001116, 16.114491301428853, 0.0 ], [ 103.66293264245688, 16.114496143505033, 0.0 ], [ 103.662962144643416, 16.114500982149362, 0.0 ], [ 103.66299164537736, 16.114505818405178, 0.0 ], [ 103.663021144293566, 16.114510653285791, 0.0 ], [ 103.680490065250126, 16.117372960458223, 0.0 ], [ 103.68051956344317, 16.11737779269416, 0.0 ], [ 103.680549059756018, 16.117382625690574, 0.0 ], [ 103.68057855397538, 16.117387460485133, 0.0 ], [ 103.680608045827157, 16.117392298105315, 0.0 ], [ 103.680637535127858, 16.117397139593258, 0.0 ], [ 103.680667021693623, 16.117401985990831, 0.0 ], [ 103.680696505340009, 16.117406838339605, 0.0 ], [ 103.680725985881892, 16.117411697680851, 0.0 ], [ 103.68075546313338, 16.117416565055507, 0.0 ], [ 103.680784936907628, 16.117421441504167, 0.0 ], [ 103.680814407016811, 16.117426328067047, 0.0 ], [ 103.680843873271911, 16.117431225783964, 0.0 ], [ 103.680873335482701, 16.117436135694344, 0.0 ], [ 103.680902793457491, 16.11744105883718, 0.0 ], [ 103.680932247003199, 16.117445996250986, 0.0 ], [ 103.680961695925006, 16.11745094897385, 0.0 ], [ 103.68099114002645, 16.117455918043323, 0.0 ], [ 103.681020579109187, 16.117460904496461, 0.0 ], [ 103.681050012972875, 16.117465909369763, 0.0 ], [ 103.681079441415122, 16.117470933699188, 0.0 ], [ 103.681108864231334, 16.117475978520094, 0.0 ], [ 103.681138281214558, 16.117481044867247, 0.0 ], [ 103.681167692155441, 16.117486133774772, 0.0 ], [ 103.68119709684207, 16.117491246276131, 0.0 ], [ 103.681226495059832, 16.117496383404127, 0.0 ], [ 103.682296575414966, 16.1177017442688, 0.0 ], [ 103.683358969716679, 16.117941519684845, 0.0 ], [ 103.684412494015788, 16.118215442489952, 0.0 ], [ 103.685455974231331, 16.118523207466119, 0.0 ], [ 103.686488247457476, 16.118864471679178, 0.0 ], [ 103.687508163257974, 16.119238854860278, 0.0 ], [ 103.688514584946844, 16.119645939828967, 0.0 ], [ 103.689506390853836, 16.120085272957329, 0.0 ], [ 103.69048247557339, 16.120556364674773, 0.0 ], [ 103.691441751195399, 16.12105869001272, 0.0 ], [ 103.692383148516782, 16.1215916891889, 0.0 ], [ 103.693305618232259, 16.122154768230267, 0.0 ], [ 103.6942081321031, 16.122747299634071, 0.0 ], [ 103.695089684102626, 16.123368623066266, 0.0 ], [ 103.695949291536948, 16.124018046096534, 0.0 ], [ 103.695972525225216, 16.124036227565831, 0.0 ], [ 103.695995729390475, 16.124054418552333, 0.0 ], [ 103.696018919156543, 16.124072629521589, 0.0 ], [ 103.696042095194741, 16.124090859643772, 0.0 ], [ 103.696065258178578, 16.124109108090536, 0.0 ], [ 103.696088408783638, 16.124127374034902, 0.0 ], [ 103.696111547687522, 16.124145656651169, 0.0 ], [ 103.696134675569709, 16.124163955114899, 0.0 ], [ 103.696157793111482, 16.124182268602794, 0.0 ], [ 103.696180900995842, 16.12420059629266, 0.0 ], [ 103.696203999907397, 16.124218937363306, 0.0 ], [ 103.696227090532261, 16.124237290994504, 0.0 ], [ 103.696250173558013, 16.124255656366891, 0.0 ], [ 103.696273249673524, 16.124274032661901, 0.0 ], [ 103.696296319568944, 16.124292419061721, 0.0 ], [ 103.696319383935531, 16.12431081474918, 0.0 ], [ 103.696342443465625, 16.124329218907683, 0.0 ], [ 103.696365498852543, 16.124347630721164, 0.0 ], [ 103.696388550790431, 16.124366049373986, 0.0 ], [ 103.696411599974212, 16.124384474050885, 0.0 ], [ 103.696434647099537, 16.124402903936883, 0.0 ], [ 103.696457692862595, 16.124421338217225, 0.0 ], [ 103.69648073796013, 16.124439776077281, 0.0 ], [ 103.696503783089256, 16.124458216702525, 0.0 ], [ 103.696526829089635, 16.124476659392229, 0.0 ], [ 103.730191262137978, 16.151411085221746, 0.0 ], [ 103.730214315134674, 16.151429525668075, 0.0 ], [ 103.730237366110075, 16.151447965864801, 0.0 ], [ 103.730260414342709, 16.151466406607568, 0.0 ], [ 103.730283459063656, 16.151484848653773, 0.0 ], [ 103.730306499574922, 16.151503292817345, 0.0 ], [ 103.730329535178356, 16.151521739911775, 0.0 ], [ 103.730352565175409, 16.151540190750019, 0.0 ], [ 103.730375588867147, 16.151558646144455, 0.0 ], [ 103.730398605554086, 16.151577106906782, 0.0 ], [ 103.730421614536141, 16.151595573847949, 0.0 ], [ 103.73044461511256, 16.151614047778104, 0.0 ], [ 103.730467606581755, 16.151632529506482, 0.0 ], [ 103.730490588241281, 16.151651019841385, 0.0 ], [ 103.730513559387688, 16.151669519590026, 0.0 ], [ 103.730536519316516, 16.151688029558549, 0.0 ], [ 103.730559467322109, 16.151706550551872, 0.0 ], [ 103.730582402697564, 16.151725083373663, 0.0 ], [ 103.73060532473464, 16.151743628826242, 0.0 ], [ 103.730628232723674, 16.15176218771051, 0.0 ], [ 103.7306511259535, 16.151780760825869, 0.0 ], [ 103.730674003711314, 16.151799348970169, 0.0 ], [ 103.730696865282638, 16.151817952939584, 0.0 ], [ 103.730719709951202, 16.151836573528573, 0.0 ], [ 103.730742536998861, 16.151855211529821, 0.0 ], [ 103.730765345705521, 16.151873867734089, 0.0 ], [ 103.731571608117406, 16.152556200009951, 0.0 ], [ 103.732354294375725, 16.153263713405046, 0.0 ], [ 103.733112562790197, 16.153995647334106, 0.0 ], [ 103.733845597893094, 16.15475121494849, 0.0 ], [ 103.734552611316346, 16.155529603981236, 0.0 ], [ 103.735232842639576, 16.156329977619468, 0.0 ], [ 103.735885560208402, 16.157151475403211, 0.0 ], [ 103.736510061921749, 16.157993214149631, 0.0 ], [ 103.73710567598782, 16.158854288901775, 0.0 ], [ 103.737671761647249, 16.159733773900729, 0.0 ], [ 103.738207709863346, 16.160630723580219, 0.0 ], [ 103.738712943978172, 16.161544173582506, 0.0 ], [ 103.739186920334021, 16.162473141794564, 0.0 ], [ 103.739199689756603, 16.162499269813505, 0.0 ], [ 103.739212428300547, 16.162525394018829, 0.0 ], [ 103.739225144893155, 16.162551530184555, 0.0 ], [ 103.739237840512018, 16.162577677844798, 0.0 ], [ 103.739250516136039, 16.162603836535858, 0.0 ], [ 103.739263172745382, 16.162630005796192, 0.0 ], [ 103.739275811321491, 16.162656185166242, 0.0 ], [ 103.739288432846863, 16.16268237418835, 0.0 ], [ 103.739301038305172, 16.162708572406668, 0.0 ], [ 103.739313628681117, 16.162734779367057, 0.0 ], [ 103.739326204960378, 16.16276099461696, 0.0 ], [ 103.739338768129613, 16.162787217705308, 0.0 ], [ 103.739351319176379, 16.16281344818243, 0.0 ], [ 103.739363859088996, 16.162839685599934, 0.0 ], [ 103.739376388856684, 16.162865929510602, 0.0 ], [ 103.739388909469326, 16.162892179468304, 0.0 ], [ 103.739401421917535, 16.162918435027859, 0.0 ], [ 103.739413927192501, 16.162944695744976, 0.0 ], [ 103.739426426286101, 16.162970961176104, 0.0 ], [ 103.739438920190651, 16.162997230878339, 0.0 ], [ 103.739451409899004, 16.16302350440936, 0.0 ], [ 103.73946389640443, 16.16304978132727, 0.0 ], [ 103.73947638070058, 16.163076061190502, 0.0 ], [ 103.739488863781474, 16.163102343557743, 0.0 ], [ 103.739501346718413, 16.163128628150019, 0.0 ], [ 103.743340902163283, 16.171213150345977, 0.0 ], [ 103.74335338621124, 16.171239435939341, 0.0 ], [ 103.743365868548509, 16.171265720459257, 0.0 ], [ 103.743378348167653, 16.171292004319714, 0.0 ], [ 103.743390824035615, 16.171318287880318, 0.0 ], [ 103.743403295157933, 16.1713445715814, 0.0 ], [ 103.743415760540088, 16.171370855862776, 0.0 ], [ 103.74342821918755, 16.171397141163652, 0.0 ], [ 103.743440670105613, 16.171423427922534, 0.0 ], [ 103.743453112299434, 16.171449716577094, 0.0 ], [ 103.743465544773954, 16.171476007564099, 0.0 ], [ 103.743477966533874, 16.171502301319254, 0.0 ], [ 103.743490376583523, 16.17152859827716, 0.0 ], [ 103.74350277392692, 16.171554898871154, 0.0 ], [ 103.743515157567657, 16.171581203533229, 0.0 ], [ 103.743527526508871, 16.171607512693946, 0.0 ], [ 103.743539879753172, 16.171633826782269, 0.0 ], [ 103.743552216302646, 16.17166014622553, 0.0 ], [ 103.743564535158754, 16.171686471449274, 0.0 ], [ 103.743576835322315, 16.171712802877177, 0.0 ], [ 103.743589115793441, 16.171739140930924, 0.0 ], [ 103.743601375571529, 16.171765486030107, 0.0 ], [ 103.743613613655157, 16.171791838592139, 0.0 ], [ 103.743625829042088, 16.171818199032106, 0.0 ], [ 103.743638020729207, 16.171844567762708, 0.0 ], [ 103.743650187712475, 16.171870945194119, 0.0 ], [ 103.743689151648624, 16.171955855368321, 0.0 ] ] } },
{ "type": "Feature", "properties": { }, "geometry": { "type": "LineString", "coordinates": [ [ 103.321762487875333, 16.158584345324719, 0.0 ], [ 103.322189293377775, 16.158611007993169, 0.0 ], [ 103.324201953978417, 16.158574544754796, 0.0 ], [ 103.324358447350178, 16.158573808527361, 0.0 ], [ 103.324514901580599, 16.158577270780491, 0.0 ], [ 103.324671196105356, 16.158584928847088, 0.0 ], [ 103.32851393584734, 16.158824902159658, 0.0 ], [ 103.328669950924763, 16.158836747361686, 0.0 ], [ 103.328825565708669, 16.158852773362277, 0.0 ], [ 103.328980660281331, 16.158872967812584, 0.0 ], [ 103.330971744365812, 16.159159459962851, 0.0 ], [ 103.334255427540825, 16.159364428183807, 0.0 ], [ 103.334311410188519, 16.159367919905129, 0.0 ], [ 103.33436738314245, 16.159371397282719, 0.0 ], [ 103.334423345180383, 16.159374846523892, 0.0 ], [ 103.334479297179485, 16.159378253976275, 0.0 ], [ 103.33453521168218, 16.15938160430084, 0.0 ], [ 103.334591140296453, 16.159384886942828, 0.0 ], [ 103.334647061387201, 16.15938808691218, 0.0 ], [ 103.334702975478464, 16.159391190577669, 0.0 ], [ 103.334758883113722, 16.15939418431962, 0.0 ], [ 103.334814784991408, 16.159397054536438, 0.0 ], [ 103.334870681493797, 16.15939978761914, 0.0 ], [ 103.334926572820493, 16.159402369960485, 0.0 ], [ 103.334982459232265, 16.15940478796719, 0.0 ], [ 103.335038340907232, 16.159407028052254, 0.0 ], [ 103.335094217581641, 16.159409076621664, 0.0 ], [ 103.335150089247762, 16.159410920103436, 0.0 ], [ 103.335205955296885, 16.159412544916453, 0.0 ], [ 103.335261815430869, 16.159413937502769, 0.0 ], [ 103.335317668611424, 16.159415084297589, 0.0 ], [ 103.335373514198452, 16.159415971760929, 0.0 ], [ 103.335429350987141, 16.159416586355274, 0.0 ], [ 103.335485177514357, 16.159416914557767, 0.0 ], [ 103.335540992353415, 16.159416942863764, 0.0 ], [ 103.335596793630089, 16.159416657784718, 0.0 ], [ 103.335652651713744, 16.159416045037144, 0.0 ], [ 103.335954221930479, 16.159406844934342, 0.0 ], [ 103.336255291034263, 16.159387694785167, 0.0 ], [ 103.336555507640284, 16.159358616935936, 0.0 ], [ 103.336854521358774, 16.159319645319798, 0.0 ], [ 103.337151983204151, 16.159270825417181, 0.0 ], [ 103.337447546002423, 16.159212214202647, 0.0 ], [ 103.337740864796658, 16.159143880078442, 0.0 ], [ 103.338031597249568, 16.159065902794627, 0.0 ], [ 103.338319404043347, 16.158978373355993, 0.0 ], [ 103.338603949275779, 16.158881393915816, 0.0 ], [ 103.338884900852406, 16.158775077656617, 0.0 ], [ 103.339161930874283, 16.158659548658026, 0.0 ], [ 103.33943471602079, 16.158534941751938, 0.0 ], [ 103.339702937927058, 16.158401402365094, 0.0 ], [ 103.339966283555682, 16.158259086349322, 0.0 ], [ 103.340014472551644, 16.158231794788165, 0.0 ], [ 103.340062445097217, 16.158204246753815, 0.0 ], [ 103.340110262208441, 16.158176423369898, 0.0 ], [ 103.340157929674774, 16.158148337007852, 0.0 ], [ 103.340205452893798, 16.158120000293568, 0.0 ], [ 103.340252838257129, 16.158091425288305, 0.0 ], [ 103.340300091920895, 16.158062624209329, 0.0 ], [ 103.340347220399352, 16.158033609075584, 0.0 ], [ 103.340394230151176, 16.15800439195738, 0.0 ], [ 103.340441128008806, 16.157974984711345, 0.0 ], [ 103.340487920951091, 16.157945399116581, 0.0 ], [ 103.340534615988702, 16.157915646946364, 0.0 ], [ 103.340581220202765, 16.157885739944678, 0.0 ], [ 103.340627741044145, 16.157855689632708, 0.0 ], [ 103.34067418584155, 16.157825507622412, 0.0 ], [ 103.340720562136312, 16.157795205401452, 0.0 ], [ 103.340766877715538, 16.157764794308576, 0.0 ], [ 103.340813139945027, 16.157734285971024, 0.0 ], [ 103.340859356813738, 16.157703691619211, 0.0 ], [ 103.340905556738178, 16.157673008922433, 0.0 ], [ 103.340951702269123, 16.157642279290318, 0.0 ], [ 103.340997826136217, 16.15761149759803, 0.0 ], [ 103.341043936334302, 16.157580675111959, 0.0 ], [ 103.341090040890251, 16.15754982308853, 0.0 ], [ 103.341136148902578, 16.157518952077979, 0.0 ], [ 103.343203118705574, 16.156134894112238, 0.0 ], [ 103.34324923083831, 16.156104014861697, 0.0 ], [ 103.3432953323112, 16.15607313217561, 0.0 ], [ 103.343341416903371, 16.156042239670334, 0.0 ], [ 103.343387479495846, 16.156011330228928, 0.0 ], [ 103.343433514961248, 16.155980396744642, 0.0 ], [ 103.343479518160265, 16.155949432123347, 0.0 ], [ 103.343525463267738, 16.15591844322925, 0.0 ], [ 103.343571383484687, 16.155887397153037, 0.0 ], [ 103.343617255834246, 16.155856298824617, 0.0 ], [ 103.343663075365413, 16.155825141042584, 0.0 ], [ 103.343708836466817, 16.155793917058439, 0.0 ], [ 103.343754534177663, 16.155762619686264, 0.0 ], [ 103.343800162922207, 16.155731242164524, 0.0 ], [ 103.343845717485266, 16.155699777490419, 0.0 ], [ 103.343891192485103, 16.155668218780001, 0.0 ], [ 103.343936582343119, 16.155636559291491, 0.0 ], [ 103.343981881692955, 16.155604792141357, 0.0 ], [ 103.34402708486742, 16.155572910661768, 0.0 ], [ 103.344072186384196, 16.155540908061226, 0.0 ], [ 103.344117180493086, 16.155508777743293, 0.0 ], [ 103.34416206148461, 16.155476513089845, 0.0 ], [ 103.344206823603471, 16.15544410752203, 0.0 ], [ 103.344251460924056, 16.155411554591161, 0.0 ], [ 103.344295967532048, 16.155378847848645, 0.0 ], [ 103.344340374136237, 16.155345953713176, 0.0 ], [ 103.3447216567738, 16.15505197994958, 0.0 ], [ 103.345092091642499, 16.154745324973756, 0.0 ], [ 103.345133865066131, 16.154709360815069, 0.0 ], [ 103.345175470796534, 16.154673263095404, 0.0 ], [ 103.345216944897203, 16.154637012291072, 0.0 ], [ 103.345258292726953, 16.154600615299376, 0.0 ], [ 103.345299519643262, 16.154564079029473, 0.0 ], [ 103.345340631333244, 16.154527410108148, 0.0 ], [ 103.345381633438294, 16.154490615208594, 0.0 ], [ 103.345422531527191, 16.154453701077284, 0.0 ], [ 103.345463331612763, 16.15441667406748, 0.0 ], [ 103.345504039207256, 16.154379540991453, 0.0 ], [ 103.34554466036488, 16.154342308176915, 0.0 ], [ 103.34558520096617, 16.154304982114724, 0.0 ], [ 103.345625666874838, 16.154267569318307, 0.0 ], [ 103.345666064431555, 16.154230075865851, 0.0 ], [ 103.345706399249181, 16.15419250851506, 0.0 ], [ 103.345746677687828, 16.154154873336569, 0.0 ], [ 103.345786905762523, 16.154117176726903, 0.0 ], [ 103.345827105639586, 16.154079409911621, 0.0 ], [ 103.345867249230054, 16.154041611318736, 0.0 ], [ 103.345907361028125, 16.154003770038042, 0.0 ], [ 103.345947447256307, 16.15396589229146, 0.0 ], [ 103.345987514155155, 16.153927984289062, 0.0 ], [ 103.346027567980286, 16.153890052231986, 0.0 ], [ 103.346067614999242, 16.153852102315305, 0.0 ], [ 103.346107662065208, 16.153814140184231, 0.0 ], [ 103.347044704575353, 16.152925827994057, 0.0 ], [ 103.347071405399888, 16.152900515990634, 0.0 ], [ 103.347098109216461, 16.152875203840889, 0.0 ], [ 103.347124817742213, 16.152849892617962, 0.0 ], [ 103.347151532373815, 16.152824583699445, 0.0 ], [ 103.347178254507526, 16.15279927846391, 0.0 ], [ 103.347204985538966, 16.152773978291069, 0.0 ], [ 103.347231726863001, 16.152748684561992, 0.0 ], [ 103.347258479873304, 16.152723398659372, 0.0 ], [ 103.347285245962354, 16.152698121967695, 0.0 ], [ 103.347312026521053, 16.152672855873465, 0.0 ], [ 103.347338822938553, 16.152647601765423, 0.0 ], [ 103.347365636602021, 16.152622361034776, 0.0 ], [ 103.347392468896388, 16.152597135075375, 0.0 ], [ 103.347419321204157, 16.15257192528394, 0.0 ], [ 103.347446194905118, 16.152546733060316, 0.0 ], [ 103.347473091376131, 16.152521559807621, 0.0 ], [ 103.347500011990931, 16.152496406932489, 0.0 ], [ 103.347526958119815, 16.152471275845279, 0.0 ], [ 103.347553931129511, 16.152446167960274, 0.0 ], [ 103.347580932382812, 16.152421084695913, 0.0 ], [ 103.347607981538715, 16.152396010512788, 0.0 ], [ 103.347635044251831, 16.152370979967579, 0.0 ], [ 103.347662139265566, 16.1523459783362, 0.0 ], [ 103.347689267947629, 16.152321007034953, 0.0 ], [ 103.34771640970115, 16.152296087644249, 0.0 ], [ 103.348423111430904, 16.151669889936372, 0.0 ], [ 103.349151499616696, 16.151067354146701, 0.0 ], [ 103.349900726484591, 16.150489181456027, 0.0 ], [ 103.350669920033127, 16.149936044690641, 0.0 ], [ 103.350700369668061, 16.149914947495091, 0.0 ], [ 103.350730825358056, 16.149893903087111, 0.0 ], [ 103.350761326396864, 16.149872881899494, 0.0 ], [ 103.35079185073532, 16.149851896821133, 0.0 ], [ 103.350822397171612, 16.14983094630125, 0.0 ], [ 103.35085296450967, 16.149810028785577, 0.0 ], [ 103.350883551558852, 16.149789142716592, 0.0 ], [ 103.350914157133687, 16.149768286533678, 0.0 ], [ 103.35094478005368, 16.149747458673335, 0.0 ], [ 103.350975419142969, 16.149726657569339, 0.0 ], [ 103.351006073230167, 16.149705881652935, 0.0 ], [ 103.351036741147993, 16.149685129353067, 0.0 ], [ 103.351067421733092, 16.149664399096487, 0.0 ], [ 103.351098113825785, 16.14964368930799, 0.0 ], [ 103.351128816269721, 16.149622998410585, 0.0 ], [ 103.351159527911747, 16.149602324825675, 0.0 ], [ 103.351190247601508, 16.149581666973226, 0.0 ], [ 103.351220974191278, 16.149561023271943, 0.0 ], [ 103.351251706535706, 16.149540392139478, 0.0 ], [ 103.351282443491442, 16.149519771992608, 0.0 ], [ 103.351313183917043, 16.149499161247338, 0.0 ], [ 103.35134392667257, 16.149478558319203, 0.0 ], [ 103.351374670619393, 16.14945796162332, 0.0 ], [ 103.351405414619919, 16.149437369574667, 0.0 ], [ 103.351436157315959, 16.149416780736395, 0.0 ], [ 103.360948334648754, 16.143046015358454, 0.0 ], [ 103.360969852307605, 16.143031603060852, 0.0 ], [ 103.360991371165071, 16.143017190645551, 0.0 ], [ 103.361012891570624, 16.143002778568139, 0.0 ], [ 103.361034413904747, 16.142988367263534, 0.0 ], [ 103.361055938501366, 16.142973957197924, 0.0 ], [ 103.361077465694365, 16.142959548837641, 0.0 ], [ 103.361098995817443, 16.142945142649182, 0.0 ], [ 103.361120529204214, 16.142930739099242, 0.0 ], [ 103.361142066188052, 16.142916338654718, 0.0 ], [ 103.361163607102142, 16.142901941782757, 0.0 ], [ 103.361185152279447, 16.142887548950732, 0.0 ], [ 103.361206702052598, 16.14287316062633, 0.0 ], [ 103.361228256753918, 16.142858777277507, 0.0 ], [ 103.361249816715443, 16.142844399372546, 0.0 ], [ 103.361271382268754, 16.142830027380082, 0.0 ], [ 103.361292953745064, 16.142815661769117, 0.0 ], [ 103.361314531475145, 16.142801303008998, 0.0 ], [ 103.361336115789243, 16.142786951569519, 0.0 ], [ 103.361357707017163, 16.14277260792089, 0.0 ], [ 103.361379305488114, 16.142758272533769, 0.0 ], [ 103.361400911530737, 16.142743945879275, 0.0 ], [ 103.361422525473102, 16.142729628429016, 0.0 ], [ 103.361444147642572, 16.142715320655128, 0.0 ], [ 103.361465778365925, 16.142701023030259, 0.0 ], [ 103.36148741796913, 16.142686736027642, 0.0 ], [ 103.362775491300482, 16.141866562939391, 0.0 ], [ 103.364090819406968, 16.141087854787987, 0.0 ], [ 103.365431974025043, 16.140351457073091, 0.0 ], [ 103.366797498897355, 16.139658169354586, 0.0 ], [ 103.368185911351588, 16.139008744385784, 0.0 ], [ 103.36959570390799, 16.138403887297319, 0.0 ], [ 103.371025345913637, 16.137844254832682, 0.0 ], [ 103.37247328520138, 16.137330454636231, 0.0 ], [ 103.373937949772341, 16.136863044594339, 0.0 ], [ 103.375417749499405, 16.136442532230546, 0.0 ], [ 103.376911077850423, 16.136069374155174, 0.0 ], [ 103.378416313629018, 16.135743975570257, 0.0 ], [ 103.379931822731265, 16.135466689830029, 0.0 ], [ 103.381455959916096, 16.135237818057647, 0.0 ], [ 103.381481908188846, 16.135234350787002, 0.0 ], [ 103.381507868542869, 16.135230895641552, 0.0 ], [ 103.381533829614156, 16.135227453570135, 0.0 ], [ 103.381559791316192, 16.135224024010419, 0.0 ], [ 103.381585753563343, 16.135220606400047, 0.0 ], [ 103.381611716270768, 16.135217200176577, 0.0 ], [ 103.381637679354455, 16.135213804777589, 0.0 ], [ 103.381663642731112, 16.135210419640604, 0.0 ], [ 103.381689606318204, 16.135207044203128, 0.0 ], [ 103.381715570033819, 16.135203677902652, 0.0 ], [ 103.381741533796742, 16.135200320176661, 0.0 ], [ 103.381767497526283, 16.135196970462633, 0.0 ], [ 103.381793461142379, 16.135193628198049, 0.0 ], [ 103.381819424565407, 16.135190292820397, 0.0 ], [ 103.381845387716311, 16.135186963767165, 0.0 ], [ 103.38187135051642, 16.135183640475883, 0.0 ], [ 103.381897312887446, 16.135180322384088, 0.0 ], [ 103.381923274751529, 16.135177008929343, 0.0 ], [ 103.381949236031076, 16.135173699549242, 0.0 ], [ 103.381975196648796, 16.135170393681435, 0.0 ], [ 103.382001156527664, 16.135167090763577, 0.0 ], [ 103.382027115590788, 16.13516379023342, 0.0 ], [ 103.382053073761526, 16.135160491528733, 0.0 ], [ 103.382079030963325, 16.135157194087359, 0.0 ], [ 103.382104987007594, 16.135153897361437, 0.0 ], [ 103.456350849161254, 16.12571051782594, 0.0 ], [ 103.456380510684951, 16.125706739925025, 0.0 ], [ 103.456410174059314, 16.125702962850877, 0.0 ], [ 103.456439839457644, 16.12569918764838, 0.0 ], [ 103.456469507114093, 16.12569541535489, 0.0 ], [ 103.456499177170926, 16.125691647019629, 0.0 ], [ 103.456528849769995, 16.125687883692102, 0.0 ], [ 103.456558525052515, 16.125684126422072, 0.0 ], [ 103.4565882031591, 16.125680376259588, 0.0 ], [ 103.456617884229473, 16.125676634254987, 0.0 ], [ 103.456647568402531, 16.125672901458945, 0.0 ], [ 103.456677255816004, 16.12566917892244, 0.0 ], [ 103.456706946606545, 16.125665467696809, 0.0 ], [ 103.456736640909511, 16.125661768833734, 0.0 ], [ 103.456766338858827, 16.125658083385275, 0.0 ], [ 103.456796040586909, 16.125654412403868, 0.0 ], [ 103.456825746224524, 16.125650756942356, 0.0 ], [ 103.45685545590068, 16.125647118053998, 0.0 ], [ 103.456885169742506, 16.125643496792449, 0.0 ], [ 103.456914887875101, 16.125639894211822, 0.0 ], [ 103.456944610421488, 16.125636311366684, 0.0 ], [ 103.456974337502402, 16.125632749312018, 0.0 ], [ 103.457004069236262, 16.125629209103337, 0.0 ], [ 103.457033805738931, 16.125625691796589, 0.0 ], [ 103.457063547123738, 16.125622198448223, 0.0 ], [ 103.457093293501245, 16.125618730115207, 0.0 ], [ 103.457952697479854, 16.125530000303627, 0.0 ], [ 103.458814222849682, 16.125463203721619, 0.0 ], [ 103.458844101833208, 16.125461283056698, 0.0 ], [ 103.458873999252688, 16.125459386668709, 0.0 ], [ 103.45890389646928, 16.125457514702561, 0.0 ], [ 103.458933793391722, 16.125455666099629, 0.0 ], [ 103.458963689931409, 16.125453839801327, 0.0 ], [ 103.458993586002236, 16.125452034749085, 0.0 ], [ 103.45902348152056, 16.125450249884366, 0.0 ], [ 103.459053376404981, 16.125448484148702, 0.0 ], [ 103.459083270576301, 16.125446736483656, 0.0 ], [ 103.459113163957383, 16.12544500583088, 0.0 ], [ 103.459143056472996, 16.12544329113209, 0.0 ], [ 103.459172948049741, 16.12544159132911, 0.0 ], [ 103.459202838615894, 16.125439905363844, 0.0 ], [ 103.459232728101327, 16.125438232178286, 0.0 ], [ 103.459262616437329, 16.125436570714566, 0.0 ], [ 103.459292503556554, 16.12543491991493, 0.0 ], [ 103.459322389392852, 16.125433278721747, 0.0 ], [ 103.459352273881152, 16.125431646077516, 0.0 ], [ 103.459382156957389, 16.125430020924881, 0.0 ], [ 103.459412038558298, 16.125428402206648, 0.0 ], [ 103.459441918621394, 16.125426788865763, 0.0 ], [ 103.459471797084788, 16.12542517984533, 0.0 ], [ 103.459501673887047, 16.12542357408865, 0.0 ], [ 103.459531548967135, 16.125421970539175, 0.0 ], [ 103.459561422079943, 16.125420368150436, 0.0 ], [ 103.461641412503582, 16.12530879970463, 0.0 ], [ 103.461671284462469, 16.125307197432047, 0.0 ], [ 103.461701158202473, 16.125305596119002, 0.0 ], [ 103.461731033814814, 16.12530399682003, 0.0 ], [ 103.461760911451918, 16.125302400586605, 0.0 ], [ 103.461790791173698, 16.12530080847537, 0.0 ], [ 103.461820673039583, 16.125299221543166, 0.0 ], [ 103.461850557108463, 16.125297640847073, 0.0 ], [ 103.461880443438474, 16.12529606744441, 0.0 ], [ 103.46191033208693, 16.125294502392727, 0.0 ], [ 103.461940223110219, 16.125292946749813, 0.0 ], [ 103.46197011656362, 16.125291401573723, 0.0 ], [ 103.462000012501278, 16.12528986792276, 0.0 ], [ 103.462029910976, 16.125288346855495, 0.0 ], [ 103.462059812039143, 16.125286839430746, 0.0 ], [ 103.462089715740547, 16.125285346707638, 0.0 ], [ 103.46211962212837, 16.12528386974553, 0.0 ], [ 103.462149531248997, 16.125282409604093, 0.0 ], [ 103.462179443146852, 16.125280967343279, 0.0 ], [ 103.462209357864396, 16.125279544023304, 0.0 ], [ 103.462239275441874, 16.125278140704697, 0.0 ], [ 103.462269195917301, 16.125276758448273, 0.0 ], [ 103.462299119326261, 16.12527539831515, 0.0 ], [ 103.462329045701892, 16.125274061366738, 0.0 ], [ 103.462358975074594, 16.125272748664749, 0.0 ], [ 103.462388907472103, 16.125271461271186, 0.0 ], [ 103.463448206115444, 16.125242938197161, 0.0 ], [ 103.464507905439461, 16.125247529659742, 0.0 ], [ 103.46556689801767, 16.125285230906368, 0.0 ], [ 103.465596800324192, 16.125286776746083, 0.0 ], [ 103.465626717932579, 16.125288348819197, 0.0 ], [ 103.465656632319735, 16.1252899451157, 0.0 ], [ 103.465686543525962, 16.125291564574034, 0.0 ], [ 103.46571645159419, 16.125293206132952, 0.0 ], [ 103.465746356569866, 16.125294868731523, 0.0 ], [ 103.465776258500853, 16.125296551309134, 0.0 ], [ 103.465806157437257, 16.125298252805504, 0.0 ], [ 103.465836053431318, 16.125299972160615, 0.0 ], [ 103.465865946537363, 16.125301708314812, 0.0 ], [ 103.465895836811569, 16.125303460208702, 0.0 ], [ 103.46592572431193, 16.125305226783183, 0.0 ], [ 103.465955609098117, 16.125307006979479, 0.0 ], [ 103.465985491231322, 16.12530879973907, 0.0 ], [ 103.466015370774173, 16.125310604003719, 0.0 ], [ 103.466045247790618, 16.125312418715477, 0.0 ], [ 103.466075122345785, 16.12531424281665, 0.0 ], [ 103.466104994505869, 16.125316075249792, 0.0 ], [ 103.466134864337988, 16.125317914957726, 0.0 ], [ 103.466164731910126, 16.125319760883531, 0.0 ], [ 103.466194597290965, 16.125321611970502, 0.0 ], [ 103.466224460549725, 16.125323467162179, 0.0 ], [ 103.466254321756125, 16.125325325402329, 0.0 ], [ 103.466284180980281, 16.125327185634923, 0.0 ], [ 103.466314038108209, 16.125329046792675, 0.0 ], [ 103.486790493391496, 16.126604590159083, 0.0 ], [ 103.486827813190473, 16.126606912806146, 0.0 ], [ 103.486865130879764, 16.126609233383473, 0.0 ], [ 103.486902446139283, 16.126611549939632, 0.0 ], [ 103.486939759096103, 16.126613860551412, 0.0 ], [ 103.486977069876303, 16.126616163295978, 0.0 ], [ 103.487014378604698, 16.126618456250803, 0.0 ], [ 103.487051685404452, 16.12662073749371, 0.0 ], [ 103.487088990396771, 16.126623005102818, 0.0 ], [ 103.487126293700655, 16.126625257156515, 0.0 ], [ 103.487163595432492, 16.126627491733441, 0.0 ], [ 103.487200895705769, 16.126629706912514, 0.0 ], [ 103.487238194630848, 16.126631900772871, 0.0 ], [ 103.487275492314453, 16.126634071393855, 0.0 ], [ 103.487312788859512, 16.126636216855026, 0.0 ], [ 103.487350084364806, 16.126638335236123, 0.0 ], [ 103.487387378924623, 16.126640424617058, 0.0 ], [ 103.487424672628435, 16.126642483077919, 0.0 ], [ 103.487461965560655, 16.126644508698945, 0.0 ], [ 103.487499257800181, 16.126646499560511, 0.0 ], [ 103.487536549420227, 16.126648453743162, 0.0 ], [ 103.487573815109855, 16.126650368025263, 0.0 ], [ 103.487611104533741, 16.126652243061898, 0.0 ], [ 103.487648393376446, 16.126654075658852, 0.0 ], [ 103.487685682031966, 16.126655863914475, 0.0 ], [ 103.487723000347771, 16.126657607299975, 0.0 ], [ 103.48867377748752, 16.126685778462853, 0.0 ], [ 103.48962499633717, 16.126682709045891, 0.0 ], [ 103.490575558453386, 16.126648402555471, 0.0 ], [ 103.49152436614952, 16.126582898569598, 0.0 ], [ 103.492470323764692, 16.12648627269235, 0.0 ], [ 103.49341233893054, 16.126358636466595, 0.0 ], [ 103.494349323834356, 16.126200137245267, 0.0 ], [ 103.495280196476628, 16.126010958021109, 0.0 ], [ 103.49620388192217, 16.125791317215302, 0.0 ], [ 103.49711931354274, 16.125541468425119, 0.0 ], [ 103.498025434250252, 16.125261700130867, 0.0 ], [ 103.498921197718872, 16.124952335362529, 0.0 ], [ 103.499805569594471, 16.124613731326487, 0.0 ], [ 103.499840029911098, 16.124599852359154, 0.0 ], [ 103.499874496726278, 16.124585920695118, 0.0 ], [ 103.499908924601172, 16.124571956749961, 0.0 ], [ 103.499943337980895, 16.1245579527532, 0.0 ], [ 103.499977737590385, 16.124543910491806, 0.0 ], [ 103.500012124160918, 16.124529831750667, 0.0 ], [ 103.500046498429811, 16.124515718312693, 0.0 ], [ 103.50008086114012, 16.124501571958941, 0.0 ], [ 103.500115213040374, 16.124487394468705, 0.0 ], [ 103.500149554884246, 16.124473187619643, 0.0 ], [ 103.500183887430268, 16.124458953187869, 0.0 ], [ 103.500218211441592, 16.124444692948089, 0.0 ], [ 103.500252527685561, 16.124430408673703, 0.0 ], [ 103.500286836933554, 16.124416102136923, 0.0 ], [ 103.500321139960633, 16.124401775108883, 0.0 ], [ 103.500355437545224, 16.124387429359778, 0.0 ], [ 103.500389730468854, 16.124373066658947, 0.0 ], [ 103.500424019515918, 16.124358688775022, 0.0 ], [ 103.500458305473217, 16.124344297476053, 0.0 ], [ 103.500492589129863, 16.124329894529588, 0.0 ], [ 103.500526871276861, 16.124315481702851, 0.0 ], [ 103.500561152706865, 16.124301060762807, 0.0 ], [ 103.500595434213835, 16.12428663347632, 0.0 ], [ 103.500629716592812, 16.124272201610275, 0.0 ], [ 103.500664000886474, 16.124257766827743, 0.0 ], [ 103.553658444092235, 16.101935469543509, 0.0 ], [ 103.553685867704075, 16.101923913511538, 0.0 ], [ 103.553713293329722, 16.101912357779756, 0.0 ], [ 103.55374072143448, 16.101900803306087, 0.0 ], [ 103.553768152539945, 16.101889251024947, 0.0 ], [ 103.55379558708286, 16.101877701906727, 0.0 ], [ 103.55382302549954, 16.101866156922178, 0.0 ], [ 103.553850468225889, 16.101854617042484, 0.0 ], [ 103.553877915697242, 16.101843083239256, 0.0 ], [ 103.553905368348211, 16.101831556484633, 0.0 ], [ 103.553932826612595, 16.101820037751295, 0.0 ], [ 103.553960290923328, 16.101808528012516, 0.0 ], [ 103.553987761712293, 16.101797028242199, 0.0 ], [ 103.554015239410219, 16.101785539414948, 0.0 ], [ 103.554042724446646, 16.101774062506099, 0.0 ], [ 103.554070217249716, 16.101762598491749, 0.0 ], [ 103.554097718246112, 16.101751148348839, 0.0 ], [ 103.554125227860979, 16.101739713055146, 0.0 ], [ 103.554152746517701, 16.101728293589382, 0.0 ], [ 103.554180274637915, 16.101716890931204, 0.0 ], [ 103.554207812641337, 16.101705506061254, 0.0 ], [ 103.554235360945654, 16.101694139961232, 0.0 ], [ 103.554262919966391, 16.101682793613918, 0.0 ], [ 103.554290490116855, 16.101671468003214, 0.0 ], [ 103.554318071807984, 16.101660164114186, 0.0 ], [ 103.554345665448238, 16.101648882933116, 0.0 ], [ 103.555391715215791, 16.101242113432594, 0.0 ], [ 103.556451616806257, 16.100870367846692, 0.0 ], [ 103.557524116045002, 16.10053408608929, 0.0 ], [ 103.558607943868338, 16.10023366611119, 0.0 ], [ 103.559701817823196, 16.09996946342968, 0.0 ], [ 103.560804443582725, 16.099741790708197, 0.0 ], [ 103.561914516475639, 16.099550917386651, 0.0 ], [ 103.563030723027836, 16.099397069362851, 0.0 ], [ 103.563060435639585, 16.09939349016156, 0.0 ], [ 103.563090168099563, 16.099389934172848, 0.0 ], [ 103.563119901810097, 16.099386402577949, 0.0 ], [ 103.563149636617069, 16.099382894325, 0.0 ], [ 103.563179372369007, 16.099379408362054, 0.0 ], [ 103.563209108917007, 16.099375943637042, 0.0 ], [ 103.56323884611453, 16.099372499097779, 0.0 ], [ 103.563268583817361, 16.099369073692014, 0.0 ], [ 103.563298321883437, 16.099365666367429, 0.0 ], [ 103.563328060172779, 16.099362276071673, 0.0 ], [ 103.563357798547301, 16.099358901752353, 0.0 ], [ 103.563387536870763, 16.099355542357063, 0.0 ], [ 103.563417275008618, 16.099352196833401, 0.0 ], [ 103.563447012827865, 16.099348864128977, 0.0 ], [ 103.563476750196983, 16.09934554319144, 0.0 ], [ 103.563506486985801, 16.099342232968485, 0.0 ], [ 103.563536223065327, 16.099338932407857, 0.0 ], [ 103.563565958307692, 16.099335640457376, 0.0 ], [ 103.563595692585992, 16.09933235606497, 0.0 ], [ 103.563625425774177, 16.099329078178641, 0.0 ], [ 103.563655157746965, 16.099325805746513, 0.0 ], [ 103.563684888379655, 16.099322537716855, 0.0 ], [ 103.563714617548072, 16.099319273038063, 0.0 ], [ 103.563744345128399, 16.099316010658697, 0.0 ], [ 103.563774070813693, 16.0993127495476, 0.0 ], [ 103.611520121596726, 16.094069436950921, 0.0 ], [ 103.611549845159573, 16.094066169543996, 0.0 ], [ 103.611579570557424, 16.094062902995628, 0.0 ], [ 103.611609297944341, 16.094059638353571, 0.0 ], [ 103.611639027535304, 16.094056376659115, 0.0 ], [ 103.611668759453238, 16.094053118963853, 0.0 ], [ 103.611698493820626, 16.094049866319601, 0.0 ], [ 103.611728230759368, 16.094046619778485, 0.0 ], [ 103.61175797039067, 16.094043380392851, 0.0 ], [ 103.611787712834939, 16.09404014921537, 0.0 ], [ 103.611817458211632, 16.094036927298987, 0.0 ], [ 103.611847206639183, 16.094033715696963, 0.0 ], [ 103.611876958234816, 16.094030515462887, 0.0 ], [ 103.611906713114507, 16.094027327650686, 0.0 ], [ 103.611936471392767, 16.09402415331461, 0.0 ], [ 103.611966233182642, 16.094020993509289, 0.0 ], [ 103.611995998595447, 16.094017849289727, 0.0 ], [ 103.612025767740818, 16.094014721711272, 0.0 ], [ 103.612055540726445, 16.094011611829696, 0.0 ], [ 103.612085317658, 16.094008520701166, 0.0 ], [ 103.612115098639052, 16.094005449382259, 0.0 ], [ 103.612144883770895, 16.094002398929955, 0.0 ], [ 103.612174673152467, 16.09399937040169, 0.0 ], [ 103.612204466880215, 16.093996364855311, 0.0 ], [ 103.612234265047988, 16.09399338334913, 0.0 ], [ 103.612264067746835, 16.093990426941915, 0.0 ], [ 103.613363470089581, 16.093899901065011, 0.0 ], [ 103.614465401339487, 16.093845203872615, 0.0 ], [ 103.615568612814243, 16.093826397393375, 0.0 ], [ 103.616671854379561, 16.093843502985134, 0.0 ], [ 103.617773875863946, 16.093896501310535, 0.0 ], [ 103.618873428473208, 16.093985332358688, 0.0 ], [ 103.619969266203697, 16.094109895512872, 0.0 ], [ 103.621060147252265, 16.094270049664168, 0.0 ], [ 103.622144835421523, 16.094465613370996, 0.0 ], [ 103.623222101518934, 16.094696365064177, 0.0 ], [ 103.624290724747837, 16.094962043297514, 0.0 ], [ 103.625349494089221, 16.095262347043448, 0.0 ], [ 103.62639720967239, 16.095596936033569, 0.0 ], [ 103.627432684133097, 16.095965431143515, 0.0 ], [ 103.628454743957775, 16.096367414821827, 0.0 ], [ 103.629462230811896, 16.096802431562438, 0.0 ], [ 103.63045400285155, 16.097269988419953, 0.0 ], [ 103.631428936016277, 16.097769555567524, 0.0 ], [ 103.632385925301932, 16.098300566896292, 0.0 ], [ 103.633323886012164, 16.098862420656129, 0.0 ], [ 103.63334906281392, 16.09887809055234, 0.0 ], [ 103.633374239455932, 16.098893790566787, 0.0 ], [ 103.633399400881913, 16.098909510078578, 0.0 ], [ 103.633424547671126, 16.098925248184962, 0.0 ], [ 103.633449680404993, 16.098941003984702, 0.0 ], [ 103.633474799666942, 16.098956776578056, 0.0 ], [ 103.633499906042275, 16.098972565066731, 0.0 ], [ 103.633525000118183, 16.098988368553758, 0.0 ], [ 103.633550082483495, 16.099004186143478, 0.0 ], [ 103.6335751537287, 16.099020016941491, 0.0 ], [ 103.633600214445721, 16.099035860054524, 0.0 ], [ 103.633625265227963, 16.099051714590463, 0.0 ], [ 103.633650306670106, 16.099067579658236, 0.0 ], [ 103.633675339367983, 16.09908345436774, 0.0 ], [ 103.633700363918592, 16.09909933782982, 0.0 ], [ 103.633725380919856, 16.099115229156183, 0.0 ], [ 103.633750390970675, 16.099131127459323, 0.0 ], [ 103.63377539467065, 16.099147031852468, 0.0 ], [ 103.633800392620145, 16.099162941449542, 0.0 ], [ 103.633825385420081, 16.099178855365068, 0.0 ], [ 103.633850373671891, 16.099194772714092, 0.0 ], [ 103.633875357977374, 16.099210692612182, 0.0 ], [ 103.633900338938659, 16.099226614175304, 0.0 ], [ 103.633925317157988, 16.099242536519771, 0.0 ], [ 103.633950293083629, 16.099258458663954, 0.0 ], [ 103.639802594664104, 16.102989203334996, 0.0 ], [ 103.640632165281815, 16.103426972650343, 0.0 ], [ 103.640768455137007, 16.103501285255209, 0.0 ], [ 103.640902558829325, 16.103579226477923, 0.0 ], [ 103.641034373013511, 16.103660736256288, 0.0 ], [ 103.644975217991188, 16.10617275625069, 0.0 ], [ 103.645104644607571, 16.106257769689577, 0.0 ], [ 103.645231580420528, 16.106346223411471, 0.0 ], [ 103.645355927607156, 16.106438049252681, 0.0 ], [ 103.646098969630501, 16.10700271462013, 0.0 ], [ 103.649835653849394, 16.109384438709849, 0.0 ], [ 103.649860630909785, 16.10940035822345, 0.0 ], [ 103.649885607137804, 16.109416275934411, 0.0 ], [ 103.649910583109786, 16.109432190943402, 0.0 ], [ 103.649935559350368, 16.109448102318385, 0.0 ], [ 103.649960536460839, 16.109464009176421, 0.0 ], [ 103.649985515041976, 16.109479910634459, 0.0 ], [ 103.650010495693948, 16.109495805809328, 0.0 ], [ 103.650035479016211, 16.109511693817595, 0.0 ], [ 103.650060465607396, 16.109527573775583, 0.0 ], [ 103.650085456065241, 16.10954344479924, 0.0 ], [ 103.650110450986446, 16.10955930600413, 0.0 ], [ 103.650135450966644, 16.109575156505315, 0.0 ], [ 103.650160456600176, 16.109590995417364, 0.0 ], [ 103.650185468480117, 16.109606821854197, 0.0 ], [ 103.650210487198152, 16.109622634929135, 0.0 ], [ 103.65023551334437, 16.109638433754728, 0.0 ], [ 103.650260547507315, 16.109654217442763, 0.0 ], [ 103.650285590273768, 16.10966998510419, 0.0 ], [ 103.650310642228717, 16.109685735849038, 0.0 ], [ 103.650335703955193, 16.109701468786373, 0.0 ], [ 103.650360776034248, 16.109717183024248, 0.0 ], [ 103.650385859044761, 16.109732877669611, 0.0 ], [ 103.650410953563437, 16.109748551828268, 0.0 ], [ 103.650436060164566, 16.109764204604833, 0.0 ], [ 103.650461179420105, 16.10977983510265, 0.0 ], [ 103.651368231970494, 16.110323650407249, 0.0 ], [ 103.652293180432366, 16.110838530428666, 0.0 ], [ 103.653235037451736, 16.111323925435926, 0.0 ], [ 103.654192797598057, 16.111779317171528, 0.0 ], [ 103.655165438438317, 16.112204219405609, 0.0 ], [ 103.656151921629487, 16.112598178455752, 0.0 ], [ 103.657151194028074, 16.112960773672171, 0.0 ], [ 103.658162188815538, 16.113291617887523, 0.0 ], [ 103.65918382663844, 16.113590357830951, 0.0 ], [ 103.660215016762081, 16.113856674505914, 0.0 ], [ 103.661254658236359, 16.114090283531379, 0.0 ], [ 103.662301641072702, 16.114290935446029, 0.0 ], [ 103.66233105487963, 16.114296078012909, 0.0 ], [ 103.662360456872264, 16.114301192740903, 0.0 ], [ 103.66238986512414, 16.114306283871635, 0.0 ], [ 103.662419279423261, 16.114311352438381, 0.0 ], [ 103.662448699560159, 16.114316399475069, 0.0 ], [ 103.662478125327866, 16.114321426016268, 0.0 ], [ 103.662507556521675, 16.114326433097137, 0.0 ], [ 103.662536992939124, 16.114331421753448, 0.0 ], [ 103.662566434379841, 16.114336393021514, 0.0 ], [ 103.66259588064537, 16.11434134793819, 0.0 ], [ 103.662625331539161, 16.114346287540844, 0.0 ], [ 103.662654786866412, 16.114351212867358, 0.0 ], [ 103.662684246433869, 16.114356124956071, 0.0 ], [ 103.662713710049871, 16.114361024845774, 0.0 ], [ 103.662743177524035, 16.1143659135757, 0.0 ], [ 103.662772648667314, 16.114370792185483, 0.0 ], [ 103.662802123291826, 16.114375661715147, 0.0 ], [ 103.662831601210641, 16.114380523205103, 0.0 ], [ 103.662861082237825, 16.114385377696095, 0.0 ], [ 103.662890566188182, 16.114390226229194, 0.0 ], [ 103.662920052877197, 16.114395069845802, 0.0 ], [ 103.662949542120955, 16.11439990958759, 0.0 ], [ 103.662979033735908, 16.114404746496508, 0.0 ], [ 103.663008527538921, 16.114409581614762, 0.0 ], [ 103.663038023529026, 16.114414416014618, 0.0 ], [ 103.680506935912703, 16.117276721117783, 0.0 ], [ 103.680536434699107, 16.1172815534498, 0.0 ], [ 103.680565935003528, 16.117286387099064, 0.0 ], [ 103.680595436673315, 16.117291223113572, 0.0 ], [ 103.680624939616223, 16.117296062551411, 0.0 ], [ 103.680654443648606, 16.117300906455899, 0.0 ], [ 103.680683948586292, 16.117305755870472, 0.0 ], [ 103.680713454244511, 16.117310611838644, 0.0 ], [ 103.68074296043774, 16.11731547540402, 0.0 ], [ 103.68077246697959, 16.117320347610267, 0.0 ], [ 103.680801973682676, 16.117325229501066, 0.0 ], [ 103.680831480358535, 16.117330122120144, 0.0 ], [ 103.680860986817478, 16.117335026511192, 0.0 ], [ 103.6808904928685, 16.117339943717894, 0.0 ], [ 103.680919998319084, 16.117344874783889, 0.0 ], [ 103.68094950297521, 16.117349820752736, 0.0 ], [ 103.680979006641124, 16.117354782667931, 0.0 ], [ 103.68100850911928, 16.117359761572825, 0.0 ], [ 103.681038010210173, 16.117364758510668, 0.0 ], [ 103.681067509712292, 16.11736977452453, 0.0 ], [ 103.68109700742194, 16.117374810657335, 0.0 ], [ 103.6811265031331, 16.117379867951765, 0.0 ], [ 103.681155996637443, 16.117384947450319, 0.0 ], [ 103.681185487724051, 16.117390050195233, 0.0 ], [ 103.681214976179348, 16.117395177228463, 0.0 ], [ 103.68124446178706, 16.117400329591671, 0.0 ], [ 103.682317851484811, 16.117606324840953, 0.0 ], [ 103.683383531396245, 16.117846841073867, 0.0 ], [ 103.684440313912191, 16.118121610303174, 0.0 ], [ 103.685487021322146, 16.118430326368298, 0.0 ], [ 103.686522487125117, 16.118772645275865, 0.0 ], [ 103.687545557328136, 16.119148185582414, 0.0 ], [ 103.688555091730919, 16.119556528818748, 0.0 ], [ 103.689549965195269, 16.119997219955529, 0.0 ], [ 103.690529068897732, 16.120469767909558, 0.0 ], [ 103.69149131156432, 16.120973646090288, 0.0 ], [ 103.692435620685785, 16.121508292985723, 0.0 ], [ 103.693360943712008, 16.122073112787429, 0.0 ], [ 103.694266249224469, 16.12266747605354, 0.0 ], [ 103.695150528085179, 16.123290720409372, 0.0 ], [ 103.696012794560971, 16.12394215128468, 0.0 ], [ 103.696036070830019, 16.123960366057712, 0.0 ], [ 103.696059343564869, 16.123978610755643, 0.0 ], [ 103.696082598985853, 16.123996873243005, 0.0 ], [ 103.696105837770105, 16.124015152682997, 0.0 ], [ 103.696129060596704, 16.124033448240574, 0.0 ], [ 103.696152268146534, 16.124051759082381, 0.0 ], [ 103.696175461102271, 16.124070084376658, 0.0 ], [ 103.696198640148197, 16.12408842329323, 0.0 ], [ 103.696221805970168, 16.124106775003334, 0.0 ], [ 103.696244959255523, 16.124125138679641, 0.0 ], [ 103.69626810069289, 16.124143513496147, 0.0 ], [ 103.69629123097225, 16.124161898628103, 0.0 ], [ 103.696314350784718, 16.124180293251918, 0.0 ], [ 103.696337460822477, 16.124198696545132, 0.0 ], [ 103.696360561778732, 16.124217107686331, 0.0 ], [ 103.696383654347571, 16.124235525855031, 0.0 ], [ 103.69640673922386, 16.124253950231658, 0.0 ], [ 103.69642981710318, 16.12427237999745, 0.0 ], [ 103.696452888681719, 16.124290814334397, 0.0 ], [ 103.696475954656236, 16.124309252425125, 0.0 ], [ 103.696499015723845, 16.124327693452894, 0.0 ], [ 103.696522072582042, 16.124346136601464, 0.0 ], [ 103.696545125928523, 16.124364581055037, 0.0 ], [ 103.696568176461156, 16.124383025998203, 0.0 ], [ 103.696591224735656, 16.124401470502011, 0.0 ], [ 103.730255655834483, 16.151335886436087, 0.0 ], [ 103.730278709303747, 16.151354327254722, 0.0 ], [ 103.730301763407383, 16.151372769948182, 0.0 ], [ 103.730324817471114, 16.151391215350351, 0.0 ], [ 103.730347870867703, 16.151409664333059, 0.0 ], [ 103.73037092289843, 16.151428117711152, 0.0 ], [ 103.730393972864064, 16.151446576299328, 0.0 ], [ 103.730417020064777, 16.151465040912093, 0.0 ], [ 103.730440063800032, 16.151483512363615, 0.0 ], [ 103.73046310336855, 16.151501991467732, 0.0 ], [ 103.730486138068187, 16.151520479037821, 0.0 ], [ 103.730509167195791, 16.151538975886755, 0.0 ], [ 103.730532190047214, 16.151557482826792, 0.0 ], [ 103.730555205917128, 16.15157600066955, 0.0 ], [ 103.730578214098969, 16.151594530225882, 0.0 ], [ 103.730601213884881, 16.151613072305825, 0.0 ], [ 103.73062420456553, 16.151631627718533, 0.0 ], [ 103.730647185430101, 16.151650197272179, 0.0 ], [ 103.730670155766205, 16.15166878177391, 0.0 ], [ 103.73069311485969, 16.151687382029703, 0.0 ], [ 103.730716061994684, 16.151705998844395, 0.0 ], [ 103.730738996453411, 16.151724633021498, 0.0 ], [ 103.730761917516134, 16.151743285363196, 0.0 ], [ 103.730784824461026, 16.151761956670239, 0.0 ], [ 103.7308077165642, 16.151780647741841, 0.0 ], [ 103.730830593099427, 16.151799359375648, 0.0 ], [ 103.731639349999782, 16.152483801622672, 0.0 ], [ 103.732424457867523, 16.153193502898834, 0.0 ], [ 103.733185072408261, 16.153927700267666, 0.0 ], [ 103.733920375631044, 16.154685604448066, 0.0 ], [ 103.73462957672821, 16.155466400661975, 0.0 ], [ 103.735311912926136, 16.156269249509442, 0.0 ], [ 103.735966650305969, 16.157093287870207, 0.0 ], [ 103.736593084593508, 16.157937629830862, 0.0 ], [ 103.737190541917315, 16.158801367636432, 0.0 ], [ 103.737758379534355, 16.159683572665617, 0.0 ], [ 103.738295986522161, 16.160583296428413, 0.0 ], [ 103.73880278443707, 16.161499571585139, 0.0 ], [ 103.739278227937618, 16.162431412985864, 0.0 ], [ 103.739291020779703, 16.162457588876499, 0.0 ], [ 103.739303796995259, 16.162483790243137, 0.0 ], [ 103.739316549618238, 16.162510000371288, 0.0 ], [ 103.739329279634575, 16.162536218791203, 0.0 ], [ 103.7393419880312, 16.162562445035498, 0.0 ], [ 103.739354675795951, 16.162588678639118, 0.0 ], [ 103.739367343917507, 16.162614919139145, 0.0 ], [ 103.739379993385342, 16.162641166074785, 0.0 ], [ 103.739392625189666, 16.162667418987198, 0.0 ], [ 103.739405240321346, 16.162693677419423, 0.0 ], [ 103.73941783977196, 16.162719940916269, 0.0 ], [ 103.739430424533609, 16.162746209024178, 0.0 ], [ 103.739442995598893, 16.162772481291206, 0.0 ], [ 103.73945555396098, 16.162798757266831, 0.0 ], [ 103.739468100613379, 16.162825036501847, 0.0 ], [ 103.739480636550027, 16.162851318548341, 0.0 ], [ 103.739493162765115, 16.162877602959512, 0.0 ], [ 103.739505680253203, 16.162903889289584, 0.0 ], [ 103.73951819000898, 16.162930177093735, 0.0 ], [ 103.739530693027348, 16.162956465927916, 0.0 ], [ 103.739543190303323, 16.162982755348846, 0.0 ], [ 103.739555682831977, 16.16300904491381, 0.0 ], [ 103.739568171608411, 16.163035334180627, 0.0 ], [ 103.73958065762767, 16.163061622707495, 0.0 ], [ 103.739593141807703, 16.163087909890695, 0.0 ], [ 103.743432700707288, 16.171172431209907, 0.0 ], [ 103.743445185022466, 16.171198717339387, 0.0 ], [ 103.743457669065066, 16.171225005423597, 0.0 ], [ 103.743470151852918, 16.171251295930752, 0.0 ], [ 103.743482632429291, 16.171277589383031, 0.0 ], [ 103.743495109798602, 16.171303886221239, 0.0 ], [ 103.743507582964824, 16.171330186885868, 0.0 ], [ 103.743520050931551, 16.171356491816955, 0.0 ], [ 103.743532512701904, 16.17138280145398, 0.0 ], [ 103.743544967278396, 16.171409116235772, 0.0 ], [ 103.743557413663041, 16.171435436600394, 0.0 ], [ 103.743569850857142, 16.171461762985043, 0.0 ], [ 103.743582277861393, 16.171488095825922, 0.0 ], [ 103.743594693675689, 16.171514435558187, 0.0 ], [ 103.74360709729919, 16.171540782615768, 0.0 ], [ 103.743619487730214, 16.171567137431328, 0.0 ], [ 103.743631863966215, 16.171593500436114, 0.0 ], [ 103.743644225003663, 16.171619872059864, 0.0 ], [ 103.743656569838109, 16.171646252730717, 0.0 ], [ 103.74366889746409, 16.171672642875059, 0.0 ], [ 103.743681206875038, 16.171699042917474, 0.0 ], [ 103.743693497063276, 16.171725453280594, 0.0 ], [ 103.743705767019975, 16.171751874385009, 0.0 ], [ 103.743718015735084, 16.171778306649159, 0.0 ], [ 103.74373024219733, 16.171804750489208, 0.0 ], [ 103.743742445394105, 16.171831206318977, 0.0 ], [ 103.743781546396733, 16.171916415090507, 0.0 ] ] } }
]
}
