{
"type": "FeatureCollection",
"name": "siding",
"crs": { "type": "name", "properties": { "name": "urn:ogc:def:crs:OGC:1.3:CRS84" } },
"features": [
{ "type": "Feature", "properties": { }, "geometry": { "type": "LineString", "coordinates": [ [ 103.322188627440951, 16.158637231029999, 0.0 ], [ 103.324202462319377, 16.158600746548004, 0.0 ], [ 103.324358202965328, 16.158600013863726, 0.0 ], [ 103.32451390465809, 16.158603459465493, 0.0 ], [ 103.324669447413186, 16.158611080699064, 0.0 ], [ 103.328512187652152, 16.15885105408999, 0.0 ], [ 103.328667452303819, 16.158862842319024, 0.0 ], [ 103.328822318587115, 16.158878791237139, 0.0 ], [ 103.328976667161015, 16.158898888554873, 0.0 ], [ 103.330968908247996, 16.159185547202867, 0.0 ] ] } },
{ "type": "Feature", "properties": { }, "geometry": { "type": "LineString", "coordinates": [ [ 103.323930478695502, 16.158605675168801, 0.0 ], [ 103.329245733868945, 16.158937605020476, 0.0 ] ] } },
{ "type": "Feature", "properties": { }, "geometry": { "type": "LineString", "coordinates": [ [ 103.323368591097264, 16.158615856042012, 0.0 ], [ 103.329801595952361, 16.159017587850379, 0.0 ] ] } },
{ "type": "Feature", "properties": { }, "geometry": { "type": "LineString", "coordinates": [ [ 103.322813228002843, 16.158721524598651, 0.0 ], [ 103.323749321555027, 16.158856246902396, 0.0 ], [ 103.323903669228798, 16.158876347844764, 0.0 ], [ 103.32405853479159, 16.15889230018972, 0.0 ], [ 103.324213798884188, 16.158904091641418, 0.0 ], [ 103.328925042544157, 16.159198302355801, 0.0 ], [ 103.329080586120384, 16.159205920416063, 0.0 ], [ 103.329236288580361, 16.159209362613733, 0.0 ], [ 103.329392029919717, 16.159208626294884, 0.0 ], [ 103.330338284918611, 16.159191453761196, 0.0 ] ] } },
{ "type": "Feature", "properties": { }, "geometry": { "type": "LineString", "coordinates": [ [ 103.634181108753396, 16.099658936804804, 0.0 ], [ 103.644937429072897, 16.106515660795921, 0.0 ] ] } },
{ "type": "Feature", "properties": { }, "geometry": { "type": "LineString", "coordinates": [ [ 103.635873735414407, 16.100516052389828, 0.0 ], [ 103.636315445618465, 16.10085176537569, 0.0 ] ] } },
{ "type": "Feature", "properties": { }, "geometry": { "type": "LineString", "coordinates": [ [ 103.63702179836632, 16.10130205455194, 0.0 ], [ 103.637767415872332, 16.1018685937543, 0.0 ], [ 103.637890986039267, 16.101959835068083, 0.0 ], [ 103.638017124802772, 16.102047730114247, 0.0 ], [ 103.638145735235483, 16.102132211349602, 0.0 ], [ 103.645277943841407, 16.10667858055708, 0.0 ], [ 103.64540914715306, 16.106759707391898, 0.0 ], [ 103.645542629791905, 16.106837281594967, 0.0 ], [ 103.64567828885356, 16.106911243360653, 0.0 ], [ 103.64650873914556, 16.10734942753529, 0.0 ] ] } },
{ "type": "Feature", "properties": { }, "geometry": { "type": "LineString", "coordinates": [ [ 103.638164754950694, 16.102144335885495, 0.0 ], [ 103.638606496287622, 16.102480062574283, 0.0 ] ] } },
{ "type": "Feature", "properties": { }, "geometry": { "type": "LineString", "coordinates": [ [ 103.646967888038048, 16.108567687940972, 0.0 ], [ 103.643080363437591, 16.106089733760911, 0.0 ], [ 103.642935733821417, 16.105994379433728, 0.0 ], [ 103.642794252709891, 16.105894708485518, 0.0 ], [ 103.642656057905654, 16.105790818000145, 0.0 ], [ 103.642521284009717, 16.105682809171274, 0.0 ], [ 103.638794295745114, 16.102599778578778, 0.0 ] ] } },
{ "type": "Feature", "properties": { }, "geometry": { "type": "LineString", "coordinates": [ [ 103.639051008582513, 16.102812140899267, 0.0 ], [ 103.644634387693188, 16.106371213444639, 0.0 ] ] } },
{ "type": "Feature", "properties": { }, "geometry": { "type": "LineString", "coordinates": [ [ 103.639307721973097, 16.103024502949197, 0.0 ], [ 103.644331346778856, 16.106226765694945, 0.0 ] ] } },
{ "type": "Feature", "properties": { }, "geometry": { "type": "LineString", "coordinates": [ [ 103.645274142262807, 16.106676157385635, 0.0 ], [ 103.644237938567628, 16.106182241529481, 0.0 ], [ 103.644134080954458, 16.106130773524068, 0.0 ], [ 103.64403193530552, 16.106076197516462, 0.0 ], [ 103.643931601111291, 16.106018566665195, 0.0 ], [ 103.64383317609753, 16.105957937104254, 0.0 ], [ 103.639564435916739, 16.103236864728427, 0.0 ] ] } },
{ "type": "Feature", "properties": { }, "geometry": { "type": "LineString", "coordinates": [ [ 103.646137778627036, 16.107578482990057, 0.0 ], [ 103.646044369340032, 16.107533959541104, 0.0 ], [ 103.645940510514023, 16.107482492331219, 0.0 ], [ 103.645838363638646, 16.107427917103749, 0.0 ], [ 103.645738028205528, 16.10737028701649, 0.0 ], [ 103.645639601941653, 16.107309658202663, 0.0 ], [ 103.640619821273546, 16.104109904754367, 0.0 ] ] } },
{ "type": "Feature", "properties": { }, "geometry": { "type": "LineString", "coordinates": [ [ 103.647066670232093, 16.108414136885155, 0.0 ], [ 103.641646691674225, 16.104959344711581, 0.0 ] ] } },
{ "type": "Feature", "properties": { }, "geometry": { "type": "LineString", "coordinates": [ [ 103.645845869623628, 16.107587282293135, 0.0 ], [ 103.641389973244401, 16.104746985128465, 0.0 ] ] } },
{ "type": "Feature", "properties": { }, "geometry": { "type": "LineString", "coordinates": [ [ 103.645869028219096, 16.107553327828473, 0.0 ], [ 103.641133255367663, 16.104534625274553, 0.0 ] ] } },
{ "type": "Feature", "properties": { }, "geometry": { "type": "LineString", "coordinates": [ [ 103.645892186806392, 16.107519373360599, 0.0 ], [ 103.640876538044054, 16.104322265149854, 0.0 ] ] } },
{ "type": "Feature", "properties": { }, "geometry": { "type": "LineString", "coordinates": [ [ 103.646484868882467, 16.107799719085733, 0.0 ], [ 103.640363105056153, 16.103897544088134, 0.0 ] ] } },
{ "type": "Feature", "properties": { }, "geometry": { "type": "LineString", "coordinates": [ [ 103.639788580757767, 16.103011668786504, 0.0 ], [ 103.640619175308586, 16.103449978464148, 0.0 ], [ 103.64075480960723, 16.103523933628232, 0.0 ], [ 103.640888268257584, 16.103601499956365, 0.0 ], [ 103.641019448411512, 16.103682617675283, 0.0 ], [ 103.644960293588241, 16.106194637958826, 0.0 ], [ 103.645089097657674, 16.106279242485478, 0.0 ], [ 103.645215422903576, 16.106367270747199, 0.0 ], [ 103.645339171973532, 16.106458654908124, 0.0 ], [ 103.646083126331305, 16.107024013633662, 0.0 ] ] } }
]
}
