{
"type": "FeatureCollection",
"name": "stastmark",
"crs": { "type": "name", "properties": { "name": "urn:ogc:def:crs:OGC:1.3:CRS84" } },
"features": [
{ "type": "Feature", "properties": { "TEXTSTRING": "Viaduct Railway Bridge Sta.109+290 - 109+465", "TEXT_SIZE": 2.5, "TEXT_ANGLE": 0.0 }, "geometry": { "type": "Point", "coordinates": [ 103.682525932194949, 16.117693651712734, 0.0 ] } },
{ "type": "Feature", "properties": { "TEXTSTRING": "Viaduct Railway Bridge Sta.110+865 - 111+085", "TEXT_SIZE": 2.5, "TEXT_ANGLE": 0.0 }, "geometry": { "type": "Point", "coordinates": [ 103.695857648562594, 16.123873196023993, 0.0 ] } },
{ "type": "Feature", "properties": { "TEXTSTRING": "Overpass Sta.120+500", "TEXT_SIZE": 2.5, "TEXT_ANGLE": 0.0 }, "geometry": { "type": "Point", "coordinates": [ 103.751673043102784, 16.188588836395713, 0.0 ] } },
{ "type": "Feature", "properties": { "TEXTSTRING": "Overpass Sta.104+233", "TEXT_SIZE": 2.5, "TEXT_ANGLE": 0.0 }, "geometry": { "type": "Point", "coordinates": [ 103.638130703022966, 16.101967139571553, 0.0 ] } },
{ "type": "Feature", "properties": { "TEXTSTRING": "Overpass Sta.100+658", "TEXT_SIZE": 2.5, "TEXT_ANGLE": 0.0 }, "geometry": { "type": "Point", "coordinates": [ 103.606702972061285, 16.094650782763942, 0.0 ] } },
{ "type": "Feature", "properties": { "TEXTSTRING": "Overpass Sta.98+617", "TEXT_SIZE": 2.5, "TEXT_ANGLE": 0.0 }, "geometry": { "type": "Point", "coordinates": [ 103.587744918750005, 16.096733571043611, 0.0 ] } },
{ "type": "Feature", "properties": { "TEXTSTRING": "Overpass Sta.89+912", "TEXT_SIZE": 2.5, "TEXT_ANGLE": 0.0 }, "geometry": { "type": "Point", "coordinates": [ 103.510814640596791, 16.12004681494011, 0.0 ] } },
{ "type": "Feature", "properties": { "TEXTSTRING": "Overpass Sta.83+321", "TEXT_SIZE": 2.5, "TEXT_ANGLE": 0.0 }, "geometry": { "type": "Point", "coordinates": [ 103.450526148448702, 16.126504716980108, 0.0 ] } },
{ "type": "Feature", "properties": { "TEXTSTRING": "Overpass Sta.78+845", "TEXT_SIZE": 2.5, "TEXT_ANGLE": 0.0 }, "geometry": { "type": "Point", "coordinates": [ 103.40903660694056, 16.131783944669671, 0.0 ] } },
{ "type": "Feature", "properties": { "TEXTSTRING": "Overpass Sta.77+128", "TEXT_SIZE": 2.5, "TEXT_ANGLE": 0.0 }, "geometry": { "type": "Point", "coordinates": [ 103.393120781415845, 16.133806868874956, 0.0 ] } },
{ "type": "Feature", "properties": { "TEXTSTRING": "Box Culvert Sta.117+500", "TEXT_SIZE": 2.5, "TEXT_ANGLE": 0.0 }, "geometry": { "type": "Point", "coordinates": [ 103.739968406734491, 16.163946005789295, 0.0 ] } },
{ "type": "Feature", "properties": { "TEXTSTRING": "Box Culvert Sta.108+775", "TEXT_SIZE": 2.5, "TEXT_ANGLE": 0.0 }, "geometry": { "type": "Point", "coordinates": [ 103.676979458077, 16.116744676221884, 0.0 ] } },
{ "type": "Feature", "properties": { "TEXTSTRING": "Box Culvert Sta.108+100", "TEXT_SIZE": 2.5, "TEXT_ANGLE": 0.0 }, "geometry": { "type": "Point", "coordinates": [ 103.670757195855956, 16.115725211238367, 0.0 ] } },
{ "type": "Feature", "properties": { "TEXTSTRING": "Box Culvert Sta.103+400", "TEXT_SIZE": 2.5, "TEXT_ANGLE": 0.0 }, "geometry": { "type": "Point", "coordinates": [ 103.631582395880272, 16.097895367135042, 0.0 ] } },
{ "type": "Feature", "properties": { "TEXTSTRING": "Box Culvert Sta.102+500", "TEXT_SIZE": 2.5, "TEXT_ANGLE": 0.0 }, "geometry": { "type": "Point", "coordinates": [ 103.62379372523327, 16.094878581812125, 0.0 ] } },
{ "type": "Feature", "properties": { "TEXTSTRING": "Box Culvert Sta.101+300", "TEXT_SIZE": 2.5, "TEXT_ANGLE": 0.0 }, "geometry": { "type": "Point", "coordinates": [ 103.612667185042469, 16.094004240080665, 0.0 ] } },
{ "type": "Feature", "properties": { "TEXTSTRING": "Box Culvert Sta.100+475", "TEXT_SIZE": 2.5, "TEXT_ANGLE": 0.0 }, "geometry": { "type": "Point", "coordinates": [ 103.605003169479346, 16.094837601459712, 0.0 ] } },
{ "type": "Feature", "properties": { "TEXTSTRING": "Box Culvert Sta.99+575", "TEXT_SIZE": 2.5, "TEXT_ANGLE": 0.0 }, "geometry": { "type": "Point", "coordinates": [ 103.596643443517664, 16.095756170834946, 0.0 ] } },
{ "type": "Feature", "properties": { "TEXTSTRING": "Box Culvert Sta.99+060", "TEXT_SIZE": 2.5, "TEXT_ANGLE": 0.0 }, "geometry": { "type": "Point", "coordinates": [ 103.591859791029691, 16.096281646312828, 0.0 ] } },
{ "type": "Feature", "properties": { "TEXTSTRING": "Box Culvert Sta.96+600", "TEXT_SIZE": 2.5, "TEXT_ANGLE": 0.0 }, "geometry": { "type": "Point", "coordinates": [ 103.569009546926679, 16.098790181119938, 0.0 ] } },
{ "type": "Feature", "properties": { "TEXTSTRING": "Box Culvert Sta.90+050", "TEXT_SIZE": 2.5, "TEXT_ANGLE": 0.0 }, "geometry": { "type": "Point", "coordinates": [ 103.51199746254602, 16.119548708677023, 0.0 ] } },
{ "type": "Feature", "properties": { "TEXTSTRING": "Box Culvert Sta.82+529.490", "TEXT_SIZE": 2.5, "TEXT_ANGLE": 0.0 }, "geometry": { "type": "Point", "coordinates": [ 103.44318948024565, 16.127438866952421, 0.0 ] } },
{ "type": "Feature", "properties": { "TEXTSTRING": "Box Culvert Sta.81+617", "TEXT_SIZE": 2.5, "TEXT_ANGLE": 0.0 }, "geometry": { "type": "Point", "coordinates": [ 103.434731372578668, 16.12851547630925, 0.0 ] } },
{ "type": "Feature", "properties": { "TEXTSTRING": "Box Culvert Sta.81+300", "TEXT_SIZE": 2.5, "TEXT_ANGLE": 0.0 }, "geometry": { "type": "Point", "coordinates": [ 103.43179299732499, 16.12888940929674, 0.0 ] } },
{ "type": "Feature", "properties": { "TEXTSTRING": "Box Culvert Sta.78+925", "TEXT_SIZE": 2.5, "TEXT_ANGLE": 0.0 }, "geometry": { "type": "Point", "coordinates": [ 103.409778166957636, 16.131689657590549, 0.0 ] } },
{ "type": "Feature", "properties": { "TEXTSTRING": "Box Culvert Sta.77+050", "TEXT_SIZE": 2.5, "TEXT_ANGLE": 0.0 }, "geometry": { "type": "Point", "coordinates": [ 103.392397751852457, 16.133898733012288, 0.0 ] } },
{ "type": "Feature", "properties": { "TEXTSTRING": "Box Culvert Sta.76+500", "TEXT_SIZE": 2.5, "TEXT_ANGLE": 0.0 }, "geometry": { "type": "Point", "coordinates": [ 103.387299441671075, 16.134546455799349, 0.0 ] } },
{ "type": "Feature", "properties": { "TEXTSTRING": "Box Culvert Sta.73+750", "TEXT_SIZE": 2.5, "TEXT_ANGLE": 0.0 }, "geometry": { "type": "Point", "coordinates": [ 103.362980848239971, 16.141813206402773, 0.0 ] } },
{ "type": "Feature", "properties": { "TEXTSTRING": "Box Culvert Sta.73+025", "TEXT_SIZE": 2.5, "TEXT_ANGLE": 0.0 }, "geometry": { "type": "Point", "coordinates": [ 103.357384024664782, 16.145508513121527, 0.0 ] } },
{ "type": "Feature", "properties": { "TEXTSTRING": "Box Culvert Sta.72+650", "TEXT_SIZE": 2.5, "TEXT_ANGLE": 0.0 }, "geometry": { "type": "Point", "coordinates": [ 103.35450213018612, 16.147438650791145, 0.0 ] } },
{ "type": "Feature", "properties": { "TEXTSTRING": "Box Underpass Sta.116+973", "TEXT_SIZE": 2.5, "TEXT_ANGLE": 0.0 }, "geometry": { "type": "Point", "coordinates": [ 103.737735130829932, 16.159703462444785, 0.0 ] } },
{ "type": "Feature", "properties": { "TEXTSTRING": "Box Underpass Sta.116+000", "TEXT_SIZE": 2.5, "TEXT_ANGLE": 0.0 }, "geometry": { "type": "Point", "coordinates": [ 103.73203710342149, 16.152883360718683, 0.0 ] } },
{ "type": "Feature", "properties": { "TEXTSTRING": "Box Underpass Sta.113+000", "TEXT_SIZE": 2.5, "TEXT_ANGLE": 0.0 }, "geometry": { "type": "Point", "coordinates": [ 103.710466618153248, 16.135549230747113, 0.0 ] } },
{ "type": "Feature", "properties": { "TEXTSTRING": "Box Underpass Sta.112+538", "TEXT_SIZE": 2.5, "TEXT_ANGLE": 0.0 }, "geometry": { "type": "Point", "coordinates": [ 103.707138874315234, 16.132886588217453, 0.0 ] } },
{ "type": "Feature", "properties": { "TEXTSTRING": "Box Underpass Sta.111+625", "TEXT_SIZE": 2.5, "TEXT_ANGLE": 0.0 }, "geometry": { "type": "Point", "coordinates": [ 103.700562881742755, 16.127624563207835, 0.0 ] } },
{ "type": "Feature", "properties": { "TEXTSTRING": "Box Underpass Sta.111+200", "TEXT_SIZE": 2.5, "TEXT_ANGLE": 0.0 }, "geometry": { "type": "Point", "coordinates": [ 103.697501890244965, 16.125175033538135, 0.0 ] } },
{ "type": "Feature", "properties": { "TEXTSTRING": "Box Underpass Sta.110+100", "TEXT_SIZE": 2.5, "TEXT_ANGLE": 0.0 }, "geometry": { "type": "Point", "coordinates": [ 103.68892231366614, 16.119757982508307, 0.0 ] } },
{ "type": "Feature", "properties": { "TEXTSTRING": "Box Underpass Sta.109+735", "TEXT_SIZE": 2.5, "TEXT_ANGLE": 0.0 }, "geometry": { "type": "Point", "coordinates": [ 103.68574577031859, 16.118556266074378, 0.0 ] } },
{ "type": "Feature", "properties": { "TEXTSTRING": "Box Underpass Sta.108+827", "TEXT_SIZE": 2.5, "TEXT_ANGLE": 0.0 }, "geometry": { "type": "Point", "coordinates": [ 103.677458809541704, 16.116823206329933, 0.0 ] } },
{ "type": "Feature", "properties": { "TEXTSTRING": "Box Underpass Sta.107+200", "TEXT_SIZE": 2.5, "TEXT_ANGLE": 0.0 }, "geometry": { "type": "Point", "coordinates": [ 103.662461222751574, 16.114364256388249, 0.0 ] } },
{ "type": "Feature", "properties": { "TEXTSTRING": "Box Underpass Sta.105+525", "TEXT_SIZE": 2.5, "TEXT_ANGLE": 0.0 }, "geometry": { "type": "Point", "coordinates": [ 103.648214803455105, 16.108395054020765, 0.0 ] } },
{ "type": "Feature", "properties": { "TEXTSTRING": "Box Underpass Sta.102+000", "TEXT_SIZE": 2.5, "TEXT_ANGLE": 0.0 }, "geometry": { "type": "Point", "coordinates": [ 103.6191998471906, 16.094065413209172, 0.0 ] } },
{ "type": "Feature", "properties": { "TEXTSTRING": "Box Underpass Sta.101+600", "TEXT_SIZE": 2.5, "TEXT_ANGLE": 0.0 }, "geometry": { "type": "Point", "coordinates": [ 103.615467687250884, 16.093875674632052, 0.0 ] } },
{ "type": "Feature", "properties": { "TEXTSTRING": "Box Underpass Sta.101+000", "TEXT_SIZE": 2.5, "TEXT_ANGLE": 0.0 }, "geometry": { "type": "Point", "coordinates": [ 103.609879651824528, 16.094301611657126, 0.0 ] } },
{ "type": "Feature", "properties": { "TEXTSTRING": "Box Underpass Sta.99+514", "TEXT_SIZE": 2.5, "TEXT_ANGLE": 0.0 }, "geometry": { "type": "Point", "coordinates": [ 103.59607683572338, 16.095818418063864, 0.0 ] } },
{ "type": "Feature", "properties": { "TEXTSTRING": "Box Underpass Sta.99+136", "TEXT_SIZE": 2.5, "TEXT_ANGLE": 0.0 }, "geometry": { "type": "Point", "coordinates": [ 103.592565727933049, 16.09620410485195, 0.0 ] } },
{ "type": "Feature", "properties": { "TEXTSTRING": "Box Underpass Sta.97+375", "TEXT_SIZE": 2.5, "TEXT_ANGLE": 0.0 }, "geometry": { "type": "Point", "coordinates": [ 103.576208342530109, 16.098000161389056, 0.0 ] } },
{ "type": "Feature", "properties": { "TEXTSTRING": "Box Underpass Sta.96+880", "TEXT_SIZE": 2.5, "TEXT_ANGLE": 0.0 }, "geometry": { "type": "Point", "coordinates": [ 103.571610412501954, 16.098504784781007, 0.0 ] } },
{ "type": "Feature", "properties": { "TEXTSTRING": "Box Underpass Sta.96+200", "TEXT_SIZE": 2.5, "TEXT_ANGLE": 0.0 }, "geometry": { "type": "Point", "coordinates": [ 103.565294027116153, 16.099197839420142, 0.0 ] } },
{ "type": "Feature", "properties": { "TEXTSTRING": "Box Underpass Sta.95+092", "TEXT_SIZE": 2.5, "TEXT_ANGLE": 0.0 }, "geometry": { "type": "Point", "coordinates": [ 103.555219468932449, 16.101367664588249, 0.0 ] } },
{ "type": "Feature", "properties": { "TEXTSTRING": "Box Underpass Sta.92+800", "TEXT_SIZE": 2.5, "TEXT_ANGLE": 0.0 }, "geometry": { "type": "Point", "coordinates": [ 103.535567072565073, 16.109621267431272, 0.0 ] } },
{ "type": "Feature", "properties": { "TEXTSTRING": "Box Underpass Sta.92+118", "TEXT_SIZE": 2.5, "TEXT_ANGLE": 0.0 }, "geometry": { "type": "Point", "coordinates": [ 103.529722005217138, 16.112083531829612, 0.0 ] } },
{ "type": "Feature", "properties": { "TEXTSTRING": "Box Underpass Sta.91+100", "TEXT_SIZE": 2.5, "TEXT_ANGLE": 0.0 }, "geometry": { "type": "Point", "coordinates": [ 103.520997019893812, 16.11575855964978, 0.0 ] } },
{ "type": "Feature", "properties": { "TEXTSTRING": "Box Underpass Sta.89+400", "TEXT_SIZE": 2.5, "TEXT_ANGLE": 0.0 }, "geometry": { "type": "Point", "coordinates": [ 103.506426151679804, 16.121894787864285, 0.0 ] } },
{ "type": "Feature", "properties": { "TEXTSTRING": "Box Underpass Sta.84+100", "TEXT_SIZE": 2.5, "TEXT_ANGLE": 0.0 }, "geometry": { "type": "Point", "coordinates": [ 103.457748172553991, 16.125595887807016, 0.0 ] } },
{ "type": "Feature", "properties": { "TEXTSTRING": "Box Underpass Sta.82+747", "TEXT_SIZE": 2.5, "TEXT_ANGLE": 0.0 }, "geometry": { "type": "Point", "coordinates": [ 103.445205627055856, 16.127182183925751, 0.0 ] } },
{ "type": "Feature", "properties": { "TEXTSTRING": "Box Underpass Sta.82+013", "TEXT_SIZE": 2.5, "TEXT_ANGLE": 0.0 }, "geometry": { "type": "Point", "coordinates": [ 103.438402008115816, 16.128048292013215, 0.0 ] } },
{ "type": "Feature", "properties": { "TEXTSTRING": "Box Underpass Sta.81+600", "TEXT_SIZE": 2.5, "TEXT_ANGLE": 0.0 }, "geometry": { "type": "Point", "coordinates": [ 103.434573796518478, 16.128535530880452, 0.0 ] } },
{ "type": "Feature", "properties": { "TEXTSTRING": "Box Underpass Sta.81+280", "TEXT_SIZE": 2.5, "TEXT_ANGLE": 0.0 }, "geometry": { "type": "Point", "coordinates": [ 103.431607615476295, 16.128912998701995, 0.0 ] } },
{ "type": "Feature", "properties": { "TEXTSTRING": "Box Underpass Sta.80+743", "TEXT_SIZE": 2.5, "TEXT_ANGLE": 0.0 }, "geometry": { "type": "Point", "coordinates": [ 103.426629978330155, 16.129546349092248, 0.0 ] } },
{ "type": "Feature", "properties": { "TEXTSTRING": "Box Underpass Sta.79+750", "TEXT_SIZE": 2.5, "TEXT_ANGLE": 0.0 }, "geometry": { "type": "Point", "coordinates": [ 103.417425471668864, 16.130717209104006, 0.0 ] } },
{ "type": "Feature", "properties": { "TEXTSTRING": "Box Underpass Sta.75+893", "TEXT_SIZE": 2.5, "TEXT_ANGLE": 0.0 }, "geometry": { "type": "Point", "coordinates": [ 103.38167281837606, 16.13526169207972, 0.0 ] } },
{ "type": "Feature", "properties": { "TEXTSTRING": "Box Underpass Sta.74+942", "TEXT_SIZE": 2.5, "TEXT_ANGLE": 0.0 }, "geometry": { "type": "Point", "coordinates": [ 103.373026093899895, 16.137207167746038, 0.0 ] } },
{ "type": "Feature", "properties": { "TEXTSTRING": "Box Underpass Sta.74+400", "TEXT_SIZE": 2.5, "TEXT_ANGLE": 0.0 }, "geometry": { "type": "Point", "coordinates": [ 103.368318650934171, 16.139013793839514, 0.0 ] } },
{ "type": "Feature", "properties": { "TEXTSTRING": "Box Underpass Sta.72+921", "TEXT_SIZE": 2.5, "TEXT_ANGLE": 0.0 }, "geometry": { "type": "Point", "coordinates": [ 103.3565847856228, 16.146043810764699, 0.0 ] } },
{ "type": "Feature", "properties": { "TEXTSTRING": "Box Underpass Sta.71+800", "TEXT_SIZE": 2.5, "TEXT_ANGLE": 0.0 }, "geometry": { "type": "Point", "coordinates": [ 103.348127422161397, 16.152013636052786, 0.0 ] } },
{ "type": "Feature", "properties": { "TEXTSTRING": "Box Underpass Sta.71+565", "TEXT_SIZE": 2.5, "TEXT_ANGLE": 0.0 }, "geometry": { "type": "Point", "coordinates": [ 103.346546743421627, 16.153488588181048, 0.0 ] } },
{ "type": "Feature", "properties": { "TEXTSTRING": "Viaduct Railway Bridge Sta.118+475 - 123+485", "TEXT_SIZE": 2.5, "TEXT_ANGLE": 0.0 }, "geometry": { "type": "Point", "coordinates": [ 103.743772121097948, 16.171954984573244, 0.0 ] } },
{ "type": "Feature", "properties": { "TEXTSTRING": "Railway Bridge Sta.118+014", "TEXT_SIZE": 2.5, "TEXT_ANGLE": 0.0 }, "geometry": { "type": "Point", "coordinates": [ 103.741973607616771, 16.168168183796841, 0.0 ] } },
{ "type": "Feature", "properties": { "TEXTSTRING": "Railway Bridge Sta.116+563", "TEXT_SIZE": 2.5, "TEXT_ANGLE": 0.0 }, "geometry": { "type": "Point", "coordinates": [ 103.735575009389024, 16.156644398766389, 0.0 ] } },
{ "type": "Feature", "properties": { "TEXTSTRING": "Railway Bridge Sta.115+507.350", "TEXT_SIZE": 2.5, "TEXT_ANGLE": 0.0 }, "geometry": { "type": "Point", "coordinates": [ 103.728528414943113, 16.149999034129507, 0.0 ] } },
{ "type": "Feature", "properties": { "TEXTSTRING": "Railway Bridge Sta.115+018", "TEXT_SIZE": 2.5, "TEXT_ANGLE": 0.0 }, "geometry": { "type": "Point", "coordinates": [ 103.725003155020232, 16.147179027304581, 0.0 ] } },
{ "type": "Feature", "properties": { "TEXTSTRING": "Railway Bridge Sta.114+719.235", "TEXT_SIZE": 2.5, "TEXT_ANGLE": 0.0 }, "geometry": { "type": "Point", "coordinates": [ 103.722850913260672, 16.145457290798706, 0.0 ] } },
{ "type": "Feature", "properties": { "TEXTSTRING": "Railway Bridge Sta.113+869.145", "TEXT_SIZE": 2.5, "TEXT_ANGLE": 0.0 }, "geometry": { "type": "Point", "coordinates": [ 103.716727243403454, 16.14055825064759, 0.0 ] } },
{ "type": "Feature", "properties": { "TEXTSTRING": "Railway Bridge Sta.110+615.189", "TEXT_SIZE": 2.5, "TEXT_ANGLE": 0.0 }, "geometry": { "type": "Point", "coordinates": [ 103.693148649643689, 16.121983264866607, 0.0 ] } },
{ "type": "Feature", "properties": { "TEXTSTRING": "Railway Bridge Sta.109+135.452", "TEXT_SIZE": 2.5, "TEXT_ANGLE": 0.0 }, "geometry": { "type": "Point", "coordinates": [ 103.68030220146494, 16.117289001777625, 0.0 ] } },
{ "type": "Feature", "properties": { "TEXTSTRING": "Railway Bridge Sta.106+555.31", "TEXT_SIZE": 2.5, "TEXT_ANGLE": 0.0 }, "geometry": { "type": "Point", "coordinates": [ 103.656655480914054, 16.112829200390308, 0.0 ] } },
{ "type": "Feature", "properties": { "TEXTSTRING": "Railway Bridge Sta.102+286", "TEXT_SIZE": 2.5, "TEXT_ANGLE": 0.0 }, "geometry": { "type": "Point", "coordinates": [ 103.621842531191746, 16.094452913738188, 0.0 ] } },
{ "type": "Feature", "properties": { "TEXTSTRING": "Railway Bridge Sta.95+792.976", "TEXT_SIZE": 2.5, "TEXT_ANGLE": 0.0 }, "geometry": { "type": "Point", "coordinates": [ 103.561520862279195, 16.099667848216569, 0.0 ] } },
{ "type": "Feature", "properties": { "TEXTSTRING": "Railway Bridge Sta.94+880.147", "TEXT_SIZE": 2.5, "TEXT_ANGLE": 0.0 }, "geometry": { "type": "Point", "coordinates": [ 103.553394089810354, 16.102110110876509, 0.0 ] } },
{ "type": "Feature", "properties": { "TEXTSTRING": "Railway Bridge Sta.93+620", "TEXT_SIZE": 2.5, "TEXT_ANGLE": 0.0 }, "geometry": { "type": "Point", "coordinates": [ 103.542594679052314, 16.106660541333955, 0.0 ] } },
{ "type": "Feature", "properties": { "TEXTSTRING": "Railway Bridge Sta.91+856.306", "TEXT_SIZE": 2.5, "TEXT_ANGLE": 0.0 }, "geometry": { "type": "Point", "coordinates": [ 103.527479131150358, 16.113028294458715, 0.0 ] } },
{ "type": "Feature", "properties": { "TEXTSTRING": "Viaduct Railway Bridge Sta.88+430 - 88+640", "TEXT_SIZE": 2.5, "TEXT_ANGLE": 0.0 }, "geometry": { "type": "Point", "coordinates": [ 103.498940760569084, 16.12500602098741, 0.0 ] } },
{ "type": "Feature", "properties": { "TEXTSTRING": "Railway Bridge Sta.88+136.885", "TEXT_SIZE": 2.5, "TEXT_ANGLE": 0.0 }, "geometry": { "type": "Point", "coordinates": [ 103.495379822609451, 16.126044292036429, 0.0 ] } },
{ "type": "Feature", "properties": { "TEXTSTRING": "Railway Bridge Sta.87+758", "TEXT_SIZE": 2.5, "TEXT_ANGLE": 0.0 }, "geometry": { "type": "Point", "coordinates": [ 103.491886998315934, 16.126601068081342, 0.0 ] } },
{ "type": "Feature", "properties": { "TEXTSTRING": "Railway Bridge Sta.87+390", "TEXT_SIZE": 2.5, "TEXT_ANGLE": 0.0 }, "geometry": { "type": "Point", "coordinates": [ 103.488451169924986, 16.126730465395269, 0.0 ] } },
{ "type": "Feature", "properties": { "TEXTSTRING": "Railway Bridge Sta.86+980", "TEXT_SIZE": 2.5, "TEXT_ANGLE": 0.0 }, "geometry": { "type": "Point", "coordinates": [ 103.484624511117715, 16.126517370668999, 0.0 ] } },
{ "type": "Feature", "properties": { "TEXTSTRING": "Railway Bridge Sta.85+875.461", "TEXT_SIZE": 2.5, "TEXT_ANGLE": 0.0 }, "geometry": { "type": "Point", "coordinates": [ 103.474319141638063, 16.125875560992228, 0.0 ] } },
{ "type": "Feature", "properties": { "TEXTSTRING": "Railway Bridge Sta.84+877.156", "TEXT_SIZE": 2.5, "TEXT_ANGLE": 0.0 }, "geometry": { "type": "Point", "coordinates": [ 103.465004226414692, 16.125309270269849, 0.0 ] } },
{ "type": "Feature", "properties": { "TEXTSTRING": "Railway Bridge Sta.84+303.892", "TEXT_SIZE": 2.5, "TEXT_ANGLE": 0.0 }, "geometry": { "type": "Point", "coordinates": [ 103.459649437275516, 16.125465943928322, 0.0 ] } },
{ "type": "Feature", "properties": { "TEXTSTRING": "Railway Bridge Sta.83+767.304", "TEXT_SIZE": 2.5, "TEXT_ANGLE": 0.0 }, "geometry": { "type": "Point", "coordinates": [ 103.454663007059608, 16.125977866495599, 0.0 ] } },
{ "type": "Feature", "properties": { "TEXTSTRING": "Railway Bridge Sta.82+013", "TEXT_SIZE": 2.5, "TEXT_ANGLE": 0.0 }, "geometry": { "type": "Point", "coordinates": [ 103.438402008115816, 16.128048292013215, 0.0 ] } },
{ "type": "Feature", "properties": { "TEXTSTRING": "Railway Bridge Sta.80+135.747", "TEXT_SIZE": 2.5, "TEXT_ANGLE": 0.0 }, "geometry": { "type": "Point", "coordinates": [ 103.421001119751381, 16.130262414382251, 0.0 ] } },
{ "type": "Feature", "properties": { "TEXTSTRING": "Railway Bridge Sta.74+033", "TEXT_SIZE": 2.5, "TEXT_ANGLE": 0.0 }, "geometry": { "type": "Point", "coordinates": [ 103.365258330873843, 16.14051206337998, 0.0 ] } },
{ "type": "Feature", "properties": { "TEXTSTRING": "Railway Bridge Sta.71+066.153", "TEXT_SIZE": 2.5, "TEXT_ANGLE": 0.0 }, "geometry": { "type": "Point", "coordinates": [ 103.342969752903059, 16.156366355035708, 0.0 ] } },
{ "type": "Feature", "properties": { "TEXTSTRING": "Railway Bridge Sta.70+665", "TEXT_SIZE": 2.5, "TEXT_ANGLE": 0.0 }, "geometry": { "type": "Point", "coordinates": [ 103.339857688130067, 16.158387874147909, 0.0 ] } },
{ "type": "Feature", "properties": { "TEXTSTRING": "Railway Bridge Sta.69+766", "TEXT_SIZE": 2.5, "TEXT_ANGLE": 0.0 }, "geometry": { "type": "Point", "coordinates": [ 103.331648603444393, 16.159249339603242, 0.0 ] } }
]
}
