{
"type": "FeatureCollection",
"name": "subballast",
"crs": { "type": "name", "properties": { "name": "urn:ogc:def:crs:OGC:1.3:CRS84" } },
"features": [
{ "type": "Feature", "properties": { "id": null }, "geometry": { "type": "MultiPolygon", "coordinates": [ [ [ [ 103.331771783286456, 16.158890429775621 ], [ 103.331705200010362, 16.15962078183572 ], [ 103.334060819284474, 16.159765987345203 ], [ 103.334639503464729, 16.159799233726666 ], [ 103.335144512940701, 16.159820018421961 ], [ 103.335417168918838, 16.159825492324263 ], [ 103.335652737448484, 16.159823991184119 ], [ 103.336245231622655, 16.159798910778367 ], [ 103.336854451370371, 16.159734345503178 ], [ 103.337427048497858, 16.159637801450387 ], [ 103.338049291587254, 16.159486183870428 ], [ 103.338708834672516, 16.15928533803914 ], [ 103.339206383573369, 16.159095110920109 ], [ 103.33985240598561, 16.158795121158867 ], [ 103.33950319685988, 16.158147682620513 ], [ 103.339125824907526, 16.158326963782184 ], [ 103.338688403358503, 16.158510975100121 ], [ 103.33823130650272, 16.158673539467042 ], [ 103.337845015171382, 16.158793327782284 ], [ 103.337358374685849, 16.158904409148892 ], [ 103.336510794520379, 16.159044361292146 ], [ 103.335698780494866, 16.159097437517776 ], [ 103.335134169350155, 16.159096985589361 ], [ 103.331771783286456, 16.158890429775621 ] ] ] ] } },
{ "type": "Feature", "properties": { "id": null }, "geometry": { "type": "MultiPolygon", "coordinates": [ [ [ [ 103.339767182311036, 16.158010101772557 ], [ 103.340126920555363, 16.158639176785069 ], [ 103.340435800474808, 16.158463321489318 ], [ 103.340746861320952, 16.158271637125125 ], [ 103.341047691709605, 16.158077891864504 ], [ 103.341363031622421, 16.157864452168003 ], [ 103.341509356003371, 16.157766556901837 ], [ 103.341822563142415, 16.157563003307011 ], [ 103.342224466107922, 16.157290815217596 ], [ 103.342989097677901, 16.156774356627135 ], [ 103.342618011512059, 16.156145940327423 ], [ 103.342074741083891, 16.156505789030351 ], [ 103.341638254375866, 16.156808903663055 ], [ 103.341283765704858, 16.157047788112546 ], [ 103.34091798869882, 16.157288564654216 ], [ 103.340542939542658, 16.157535210325513 ], [ 103.340316280113299, 16.157681996251181 ], [ 103.340078419577836, 16.157827951842048 ], [ 103.339767182311036, 16.158010101772557 ] ] ] ] } }
]
}
